Domain,as,city,country,countryCode,isp,lat,lon,org,query,region,regionName,status,timezone,zip
carfax.com,AS62 CyrusOne LLC,Victoria,United States,US,CyrusOne LLC,28.8053,-97.0036,CyrusOne LLC,216.117.25.113,TX,Texas,success,America/Chicago,77903
carfax.net,AS62 CyrusOne LLC,Victoria,United States,US,CyrusOne LLC,28.8053,-97.0036,CyrusOne LLC,216.117.25.99,TX,Texas,success,America/Chicago,77903
carfax.org,AS62 CyrusOne LLC,Victoria,United States,US,CyrusOne LLC,28.8053,-97.0036,CyrusOne LLC,216.117.25.99,TX,Texas,success,America/Chicago,77903
carfax.biz,AS62 CyrusOne LLC,Victoria,United States,US,CyrusOne LLC,28.8053,-97.0036,CyrusOne LLC,216.117.25.99,TX,Texas,success,America/Chicago,77903
carfax.info,AS62 CyrusOne LLC,Victoria,United States,US,CyrusOne LLC,28.8053,-97.0036,CyrusOne LLC,216.117.25.99,TX,Texas,success,America/Chicago,77903
carfax.mobi,AS62 CyrusOne LLC,Victoria,United States,US,CyrusOne LLC,28.8053,-97.0036,CyrusOne LLC,216.117.25.99,TX,Texas,success,America/Chicago,77903
carfax.xxx,"AS23148 MCI Communications Services, Inc. d/b/a Verizon Business",West Palm Beach,United States,US,ICM Registry LLC,26.7153,-80.0534,Verizon Business,199.253.28.249,FL,Florida,success,America/New_York,33420
carfax.xyz,"AS32787 Akamai Technologies, Inc.",Cambridge,United States,US,Akamai Technologies,42.3626,-71.0843,Akamai Technologies,72.52.4.122,MA,Massachusetts,success,America/New_York,02142
carfax.jobs,AS62 CyrusOne LLC,Victoria,United States,US,CyrusOne LLC,28.8053,-97.0036,CyrusOne LLC,216.117.25.99,TX,Texas,success,America/Chicago,77903
carfax.top,AS13335 CloudFlare,San Francisco,United States,US,CloudFlare,37.7697,-122.3933,CloudFlare,162.159.210.96,CA,California,success,America/Los_Angeles,94107
carfax.education,"AS26496 GoDaddy.com, LLC",Scottsdale,United States,US,"GoDaddy.com, LLC",33.6119,-111.8906,"GoDaddy.com, LLC",184.168.221.52,AZ,Arizona,success,America/Phoenix,85260
carfax.deals,"AS26496 GoDaddy.com, LLC",Scottsdale,United States,US,"GoDaddy.com, LLC",33.6119,-111.8906,"GoDaddy.com, LLC",184.168.221.96,AZ,Arizona,success,America/Phoenix,85260
carfax.global,AS48287 Jsc ru-center,KhoroshÃ«vskaya,Russia,RU,Jsc ru-center,47.7206,42.2203,RU-SERVICE Ltd ISP,109.70.26.37,,Rostov,success,Europe/Moscow,
carfax.dog,"AS14618 Amazon.com, Inc.",Ashburn,United States,US,Amazon.com,39.0481,-77.4728,Amazon.com,52.207.245.217,VA,Virginia,success,America/New_York,20149
carfax.nyc,"AS26496 GoDaddy.com, LLC",Scottsdale,United States,US,"GoDaddy.com, LLC",33.6119,-111.8906,"GoDaddy.com, LLC",50.63.202.23,AZ,Arizona,success,America/Phoenix,85260
carfax.report,AS40034 Confluence Networks Inc,Jacksonville,United States,US,Confluence Networks,30.1438,-81.5401,"Network Solutions, LLC",208.91.197.27,FL,Florida,success,America/New_York,32258
carfax.college,"AS26496 GoDaddy.com, LLC",Scottsdale,United States,US,"GoDaddy.com, LLC",33.6119,-111.8906,"GoDaddy.com, LLC",184.168.221.44,AZ,Arizona,success,America/Phoenix,85260
carfax.vin,AS24611 Datacenter Luxembourg S.A.,Bettembourg,Luxembourg,LU,Datacenter Luxembourg S.A.,49.5048,6.11237,Datacenter Luxembourg S.A.,80.92.65.53,L,District de Luxembourg,success,Europe/Luxembourg,
carfax-1-owner.com,AS62 CyrusOne LLC,Victoria,United States,US,CyrusOne LLC,28.8053,-97.0036,CyrusOne LLC,216.117.25.11,TX,Texas,success,America/Chicago,77903
carfax-1-owner.net,AS62 CyrusOne LLC,Victoria,United States,US,CyrusOne LLC,28.8053,-97.0036,CyrusOne LLC,216.117.25.11,TX,Texas,success,America/Chicago,77903
carfax-1-owner.org,AS62 CyrusOne LLC,Victoria,United States,US,CyrusOne LLC,28.8053,-97.0036,CyrusOne LLC,216.117.25.11,TX,Texas,success,America/Chicago,77903
carfax-1-owner.biz,AS62 CyrusOne LLC,Victoria,United States,US,CyrusOne LLC,28.8053,-97.0036,CyrusOne LLC,216.117.25.11,TX,Texas,success,America/Chicago,77903
carfax-1-owner.info,AS62 CyrusOne LLC,Victoria,United States,US,CyrusOne LLC,28.8053,-97.0036,CyrusOne LLC,216.117.25.11,TX,Texas,success,America/Chicago,77903
carfax-1-ownersale.com,AS62 CyrusOne LLC,Victoria,United States,US,CyrusOne LLC,28.8053,-97.0036,CyrusOne LLC,216.117.25.11,TX,Texas,success,America/Chicago,77903
carfax-1-ownersale.net,AS62 CyrusOne LLC,Victoria,United States,US,CyrusOne LLC,28.8053,-97.0036,CyrusOne LLC,216.117.25.11,TX,Texas,success,America/Chicago,77903
carfax-1-ownersale.org,AS62 CyrusOne LLC,Victoria,United States,US,CyrusOne LLC,28.8053,-97.0036,CyrusOne LLC,216.117.25.11,TX,Texas,success,America/Chicago,77903
carfax-1-ownersale.biz,AS62 CyrusOne LLC,Victoria,United States,US,CyrusOne LLC,28.8053,-97.0036,CyrusOne LLC,216.117.25.11,TX,Texas,success,America/Chicago,77903
carfax-1-ownersale.info,AS62 CyrusOne LLC,Victoria,United States,US,CyrusOne LLC,28.8053,-97.0036,CyrusOne LLC,216.117.25.11,TX,Texas,success,America/Chicago,77903
carfax-abbey.com,AS20013 CyrusOne LLC,Houston,United States,US,Websitewelcome.com,29.8301,-95.4739,CyrusOne LLC,192.185.21.109,TX,Texas,success,America/Chicago,77092
carfax-ad.com,"AS26496 GoDaddy.com, LLC",Scottsdale,United States,US,"GoDaddy.com, LLC",33.6119,-111.8906,"GoDaddy.com, LLC",184.168.221.42,AZ,Arizona,success,America/Phoenix,85260
carfax-alberta.com,AS62 CyrusOne LLC,Victoria,United States,US,CyrusOne LLC,28.8053,-97.0036,CyrusOne LLC,216.117.25.99,TX,Texas,success,America/Chicago,77903
carfax-alternative-reports.xyz,AS20013 CyrusOne LLC,Houston,United States,US,Websitewelcome.com,29.8301,-95.4739,CyrusOne LLC,192.185.16.204,TX,Texas,success,America/Chicago,77092
carfax-austria.com,AS62 CyrusOne LLC,Victoria,United States,US,CyrusOne LLC,28.8053,-97.0036,CyrusOne LLC,216.117.25.99,TX,Texas,success,America/Chicago,77903
carfax-austria.net,AS62 CyrusOne LLC,Victoria,United States,US,CyrusOne LLC,28.8053,-97.0036,CyrusOne LLC,216.117.25.99,TX,Texas,success,America/Chicago,77903
carfax-austria.org,AS62 CyrusOne LLC,Victoria,United States,US,CyrusOne LLC,28.8053,-97.0036,CyrusOne LLC,216.117.25.99,TX,Texas,success,America/Chicago,77903
carfax-austria.biz,AS62 CyrusOne LLC,Victoria,United States,US,CyrusOne LLC,28.8053,-97.0036,CyrusOne LLC,216.117.25.99,TX,Texas,success,America/Chicago,77903
carfax-austria.info,AS62 CyrusOne LLC,Victoria,United States,US,CyrusOne LLC,28.8053,-97.0036,CyrusOne LLC,216.117.25.99,TX,Texas,success,America/Chicago,77903
carfax-azerbaijan.com,AS8560 1&1 Internet SE,Warsaw,Poland,PL,1&1 Internet AG,52.2297,21.0122,1&1 Internet AG,217.160.231.25,MZ,Masovian Voivodeship,success,Europe/Warsaw,
carfax-baku.com,AS8560 1&1 Internet SE,Warsaw,Poland,PL,1&1 Internet AG,52.2297,21.0122,1&1 Internet AG,217.160.231.25,MZ,Masovian Voivodeship,success,Europe/Warsaw,
carfax-bc.com,AS62 CyrusOne LLC,Victoria,United States,US,CyrusOne LLC,28.8053,-97.0036,CyrusOne LLC,216.117.25.99,TX,Texas,success,America/Chicago,77903
carfax-bulgaria.com,AS62 CyrusOne LLC,Victoria,United States,US,CyrusOne LLC,28.8053,-97.0036,CyrusOne LLC,216.117.25.99,TX,Texas,success,America/Chicago,77903
carfax-bulgaria.net,AS62 CyrusOne LLC,Victoria,United States,US,CyrusOne LLC,28.8053,-97.0036,CyrusOne LLC,216.117.25.99,TX,Texas,success,America/Chicago,77903
carfax-bulgaria.org,AS62 CyrusOne LLC,Victoria,United States,US,CyrusOne LLC,28.8053,-97.0036,CyrusOne LLC,216.117.25.99,TX,Texas,success,America/Chicago,77903
carfax-bulgaria.biz,AS62 CyrusOne LLC,Victoria,United States,US,CyrusOne LLC,28.8053,-97.0036,CyrusOne LLC,216.117.25.99,TX,Texas,success,America/Chicago,77903
carfax-bulgaria.info,AS62 CyrusOne LLC,Victoria,United States,US,CyrusOne LLC,28.8053,-97.0036,CyrusOne LLC,216.117.25.99,TX,Texas,success,America/Chicago,77903
carfax-buy-back-guarantee-program.com,AS62 CyrusOne LLC,Victoria,United States,US,CyrusOne LLC,28.8053,-97.0036,CyrusOne LLC,216.117.25.99,TX,Texas,success,America/Chicago,77903
carfax-buyback.com,AS15169 Google Inc.,Aptos,United States,US,Google,37.0082,-121.8777,Google,216.239.34.21,CA,California,success,America/Los_Angeles,95003
carfax-canada.com,AS62 CyrusOne LLC,Victoria,United States,US,CyrusOne LLC,28.8053,-97.0036,CyrusOne LLC,216.117.25.99,TX,Texas,success,America/Chicago,77903
carfax-canada.net,AS62 CyrusOne LLC,Victoria,United States,US,CyrusOne LLC,28.8053,-97.0036,CyrusOne LLC,216.117.25.99,TX,Texas,success,America/Chicago,77903
carfax-canada.org,AS62 CyrusOne LLC,Victoria,United States,US,CyrusOne LLC,28.8053,-97.0036,CyrusOne LLC,216.117.25.99,TX,Texas,success,America/Chicago,77903
carfax-canada.biz,AS62 CyrusOne LLC,Victoria,United States,US,CyrusOne LLC,28.8053,-97.0036,CyrusOne LLC,216.117.25.99,TX,Texas,success,America/Chicago,77903
carfax-canada.info,AS62 CyrusOne LLC,Victoria,United States,US,CyrusOne LLC,28.8053,-97.0036,CyrusOne LLC,216.117.25.99,TX,Texas,success,America/Chicago,77903
carfax-china.com,"AS45102 Alibaba (China) Technology Co., Ltd.",Hong Kong,Hong Kong,HK,Alibaba,22.2825,114.162,Alibaba,47.90.74.4,,Central and Western,success,Asia/Hong_Kong,
carfax-clearance.com,AS62 CyrusOne LLC,Victoria,United States,US,CyrusOne LLC,28.8053,-97.0036,CyrusOne LLC,216.117.25.99,TX,Texas,success,America/Chicago,77903
carfax-clearance.net,AS62 CyrusOne LLC,Victoria,United States,US,CyrusOne LLC,28.8053,-97.0036,CyrusOne LLC,216.117.25.99,TX,Texas,success,America/Chicago,77903
carfax-clearance.org,AS62 CyrusOne LLC,Victoria,United States,US,CyrusOne LLC,28.8053,-97.0036,CyrusOne LLC,216.117.25.99,TX,Texas,success,America/Chicago,77903
carfax-clearance.biz,AS62 CyrusOne LLC,Victoria,United States,US,CyrusOne LLC,28.8053,-97.0036,CyrusOne LLC,216.117.25.99,TX,Texas,success,America/Chicago,77903
carfax-clearance.info,AS62 CyrusOne LLC,Victoria,United States,US,CyrusOne LLC,28.8053,-97.0036,CyrusOne LLC,216.117.25.99,TX,Texas,success,America/Chicago,77903
carfax-college.com,"AS135340 Digital Ocean, Inc.",Bengaluru,India,IN,Digital Ocean,12.9833,77.5833,Digital Ocean,139.59.15.72,KA,Karnataka,success,Asia/Kolkata,560100
carfax-college.net,"AS26496 GoDaddy.com, LLC",Scottsdale,United States,US,"GoDaddy.com, LLC",33.6119,-111.8906,"GoDaddy.com, LLC",184.168.221.45,AZ,Arizona,success,America/Phoenix,85260
carfax-college.org,"AS26496 GoDaddy.com, LLC",Scottsdale,United States,US,"GoDaddy.com, LLC",33.6119,-111.8906,"GoDaddy.com, LLC",50.63.202.38,AZ,Arizona,success,America/Phoenix,85260
carfax-college.info,"AS26496 GoDaddy.com, LLC",Scottsdale,United States,US,"GoDaddy.com, LLC",33.6119,-111.8906,"GoDaddy.com, LLC",184.168.221.61,AZ,Arizona,success,America/Phoenix,85260
carfax-consultants.com,AS15169 Google Inc.,Mountain View,United States,US,Google Cloud,37.386,-122.0838,Google Cloud,23.236.62.147,CA,California,success,America/Los_Angeles,94035
carfax-consultants.net,"AS26496 GoDaddy.com, LLC",Scottsdale,United States,US,"GoDaddy.com, LLC",33.6119,-111.8906,"GoDaddy.com, LLC",50.63.202.11,AZ,Arizona,success,America/Phoenix,85260
carfax-consultants.org,"AS26496 GoDaddy.com, LLC",Scottsdale,United States,US,"GoDaddy.com, LLC",33.6119,-111.8906,"GoDaddy.com, LLC",184.168.221.7,AZ,Arizona,success,America/Phoenix,85260
carfax-corporate.com,AS62 CyrusOne LLC,Victoria,United States,US,CyrusOne LLC,28.8053,-97.0036,CyrusOne LLC,216.117.25.99,TX,Texas,success,America/Chicago,77903
carfax-corporate.net,AS62 CyrusOne LLC,Victoria,United States,US,CyrusOne LLC,28.8053,-97.0036,CyrusOne LLC,216.117.25.99,TX,Texas,success,America/Chicago,77903
carfax-corporate.org,AS62 CyrusOne LLC,Victoria,United States,US,CyrusOne LLC,28.8053,-97.0036,CyrusOne LLC,216.117.25.99,TX,Texas,success,America/Chicago,77903
carfax-corporate.biz,AS62 CyrusOne LLC,Victoria,United States,US,CyrusOne LLC,28.8053,-97.0036,CyrusOne LLC,216.117.25.99,TX,Texas,success,America/Chicago,77903
carfax-corporate.info,AS62 CyrusOne LLC,Victoria,United States,US,CyrusOne LLC,28.8053,-97.0036,CyrusOne LLC,216.117.25.99,TX,Texas,success,America/Chicago,77903
carfax-czech.com,AS62 CyrusOne LLC,Victoria,United States,US,CyrusOne LLC,28.8053,-97.0036,CyrusOne LLC,216.117.25.99,TX,Texas,success,America/Chicago,77903
carfax-czech.net,AS62 CyrusOne LLC,Victoria,United States,US,CyrusOne LLC,28.8053,-97.0036,CyrusOne LLC,216.117.25.99,TX,Texas,success,America/Chicago,77903
carfax-czech.biz,AS62 CyrusOne LLC,Victoria,United States,US,CyrusOne LLC,28.8053,-97.0036,CyrusOne LLC,216.117.25.99,TX,Texas,success,America/Chicago,77903
carfax-czech.info,AS62 CyrusOne LLC,Victoria,United States,US,CyrusOne LLC,28.8053,-97.0036,CyrusOne LLC,216.117.25.99,TX,Texas,success,America/Chicago,77903
carfax-czech-republic.com,AS62 CyrusOne LLC,Victoria,United States,US,CyrusOne LLC,28.8053,-97.0036,CyrusOne LLC,216.117.25.99,TX,Texas,success,America/Chicago,77903
carfax-czech-republic.net,AS62 CyrusOne LLC,Victoria,United States,US,CyrusOne LLC,28.8053,-97.0036,CyrusOne LLC,216.117.25.99,TX,Texas,success,America/Chicago,77903
carfax-czech-republic.org,AS62 CyrusOne LLC,Victoria,United States,US,CyrusOne LLC,28.8053,-97.0036,CyrusOne LLC,216.117.25.99,TX,Texas,success,America/Chicago,77903
carfax-czech-republic.biz,AS62 CyrusOne LLC,Victoria,United States,US,CyrusOne LLC,28.8053,-97.0036,CyrusOne LLC,216.117.25.99,TX,Texas,success,America/Chicago,77903
carfax-czech-republic.info,AS62 CyrusOne LLC,Victoria,United States,US,CyrusOne LLC,28.8053,-97.0036,CyrusOne LLC,216.117.25.99,TX,Texas,success,America/Chicago,77903
carfax-de.com,AS8560 1&1 Internet SE,Warsaw,Poland,PL,1&1 Internet AG,52.2297,21.0122,1&1 Internet AG,217.160.230.204,MZ,Masovian Voivodeship,success,Europe/Warsaw,
carfax-denmark.com,AS62 CyrusOne LLC,Victoria,United States,US,CyrusOne LLC,28.8053,-97.0036,CyrusOne LLC,216.117.25.99,TX,Texas,success,America/Chicago,77903
carfax-denmark.net,AS62 CyrusOne LLC,Victoria,United States,US,CyrusOne LLC,28.8053,-97.0036,CyrusOne LLC,216.117.25.99,TX,Texas,success,America/Chicago,77903
carfax-denmark.org,AS62 CyrusOne LLC,Victoria,United States,US,CyrusOne LLC,28.8053,-97.0036,CyrusOne LLC,216.117.25.99,TX,Texas,success,America/Chicago,77903
carfax-denmark.biz,AS62 CyrusOne LLC,Victoria,United States,US,CyrusOne LLC,28.8053,-97.0036,CyrusOne LLC,216.117.25.99,TX,Texas,success,America/Chicago,77903
carfax-denmark.info,AS62 CyrusOne LLC,Victoria,United States,US,CyrusOne LLC,28.8053,-97.0036,CyrusOne LLC,216.117.25.99,TX,Texas,success,America/Chicago,77903
carfax-dubai.com,AS8560 1&1 Internet SE,Warsaw,Poland,PL,1&1 Internet AG,52.2297,21.0122,1&1 Internet AG,217.160.230.201,MZ,Masovian Voivodeship,success,Europe/Warsaw,
carfax-dubai.net,AS8560 1&1 Internet SE,Warsaw,Poland,PL,1&1 Internet AG,52.2297,21.0122,1&1 Internet AG,217.160.230.201,MZ,Masovian Voivodeship,success,Europe/Warsaw,
carfax-dubai.org,AS8560 1&1 Internet SE,Warsaw,Poland,PL,1&1 Internet AG,52.2297,21.0122,1&1 Internet AG,217.160.230.201,MZ,Masovian Voivodeship,success,Europe/Warsaw,
carfax-education.com,"AS26496 GoDaddy.com, LLC",Scottsdale,United States,US,"GoDaddy.com, LLC",33.6119,-111.8906,"GoDaddy.com, LLC",160.153.16.29,AZ,Arizona,success,America/Phoenix,85260
carfax-education.net,AS8560 1&1 Internet SE,Offenbach,Germany,DE,1&1 Internet AG,50.0748,8.75573,1&1 Internet AG,217.160.223.109,HE,Hesse,success,Europe/Berlin,
carfax-education.org,AS8560 1&1 Internet SE,Offenbach,Germany,DE,1&1 Internet AG,50.0748,8.75573,1&1 Internet AG,217.160.223.109,HE,Hesse,success,Europe/Berlin,
carfax-education-azerbaijan.com,AS8560 1&1 Internet SE,Warsaw,Poland,PL,1&1 Internet AG,52.2297,21.0122,1&1 Internet AG,217.160.231.25,MZ,Masovian Voivodeship,success,Europe/Warsaw,
carfax-education-baku.com,AS8560 1&1 Internet SE,Warsaw,Poland,PL,1&1 Internet AG,52.2297,21.0122,1&1 Internet AG,217.160.231.25,MZ,Masovian Voivodeship,success,Europe/Warsaw,
carfax-espanol.com,"AS10753 Level 3 Communications, Inc.",Columbia,United States,US,Level 3 Communications,39.0437,-92.2714,Hydrosoft Internet,64.193.21.16,MO,Missouri,success,America/Chicago,65202
carfax-espanol.net,AS62 CyrusOne LLC,Victoria,United States,US,CyrusOne LLC,28.8053,-97.0036,CyrusOne LLC,216.117.25.99,TX,Texas,success,America/Chicago,77903
carfax-espanol.org,AS62 CyrusOne LLC,Victoria,United States,US,CyrusOne LLC,28.8053,-97.0036,CyrusOne LLC,216.117.25.99,TX,Texas,success,America/Chicago,77903
carfax-espanol.biz,AS62 CyrusOne LLC,Victoria,United States,US,CyrusOne LLC,28.8053,-97.0036,CyrusOne LLC,216.117.25.99,TX,Texas,success,America/Chicago,77903
carfax-espanol.info,AS62 CyrusOne LLC,Victoria,United States,US,CyrusOne LLC,28.8053,-97.0036,CyrusOne LLC,216.117.25.99,TX,Texas,success,America/Chicago,77903
carfax-europe.com,AS24611 Datacenter Luxembourg S.A.,Bettembourg,Luxembourg,LU,Datacenter Luxembourg S.A.,49.5048,6.11237,Datacenter Luxembourg S.A.,80.92.65.53,L,District de Luxembourg,success,Europe/Luxembourg,
carfax-europe.net,AS62 CyrusOne LLC,Victoria,United States,US,CyrusOne LLC,28.8053,-97.0036,CyrusOne LLC,216.117.25.99,TX,Texas,success,America/Chicago,77903
carfax-europe.org,AS62 CyrusOne LLC,Victoria,United States,US,CyrusOne LLC,28.8053,-97.0036,CyrusOne LLC,216.117.25.99,TX,Texas,success,America/Chicago,77903
carfax-europe.biz,AS62 CyrusOne LLC,Victoria,United States,US,CyrusOne LLC,28.8053,-97.0036,CyrusOne LLC,216.117.25.99,TX,Texas,success,America/Chicago,77903
carfax-europe.info,AS62 CyrusOne LLC,Victoria,United States,US,CyrusOne LLC,28.8053,-97.0036,CyrusOne LLC,216.117.25.99,TX,Texas,success,America/Chicago,77903
carfax-financial.com,AS15169 Google Inc.,Mountain View,United States,US,Google,37.4229,-122.085,Google,216.239.32.21,CA,California,success,America/Los_Angeles,
carfax-finland.com,AS62 CyrusOne LLC,Victoria,United States,US,CyrusOne LLC,28.8053,-97.0036,CyrusOne LLC,216.117.25.99,TX,Texas,success,America/Chicago,77903
carfax-finland.net,AS62 CyrusOne LLC,Victoria,United States,US,CyrusOne LLC,28.8053,-97.0036,CyrusOne LLC,216.117.25.99,TX,Texas,success,America/Chicago,77903
carfax-finland.org,AS62 CyrusOne LLC,Victoria,United States,US,CyrusOne LLC,28.8053,-97.0036,CyrusOne LLC,216.117.25.99,TX,Texas,success,America/Chicago,77903
carfax-finland.biz,AS62 CyrusOne LLC,Victoria,United States,US,CyrusOne LLC,28.8053,-97.0036,CyrusOne LLC,216.117.25.99,TX,Texas,success,America/Chicago,77903
carfax-finland.info,AS62 CyrusOne LLC,Victoria,United States,US,CyrusOne LLC,28.8053,-97.0036,CyrusOne LLC,216.117.25.99,TX,Texas,success,America/Chicago,77903
carfax-france.com,AS62 CyrusOne LLC,Victoria,United States,US,CyrusOne LLC,28.8053,-97.0036,CyrusOne LLC,216.117.25.99,TX,Texas,success,America/Chicago,77903
carfax-france.net,AS62 CyrusOne LLC,Victoria,United States,US,CyrusOne LLC,28.8053,-97.0036,CyrusOne LLC,216.117.25.99,TX,Texas,success,America/Chicago,77903
carfax-france.org,AS62 CyrusOne LLC,Victoria,United States,US,CyrusOne LLC,28.8053,-97.0036,CyrusOne LLC,216.117.25.99,TX,Texas,success,America/Chicago,77903
carfax-france.biz,AS62 CyrusOne LLC,Victoria,United States,US,CyrusOne LLC,28.8053,-97.0036,CyrusOne LLC,216.117.25.99,TX,Texas,success,America/Chicago,77903
carfax-france.info,AS62 CyrusOne LLC,Victoria,United States,US,CyrusOne LLC,28.8053,-97.0036,CyrusOne LLC,216.117.25.99,TX,Texas,success,America/Chicago,77903
carfax-germany.com,AS62 CyrusOne LLC,Victoria,United States,US,CyrusOne LLC,28.8053,-97.0036,CyrusOne LLC,216.117.25.99,TX,Texas,success,America/Chicago,77903
carfax-germany.net,AS62 CyrusOne LLC,Victoria,United States,US,CyrusOne LLC,28.8053,-97.0036,CyrusOne LLC,216.117.25.99,TX,Texas,success,America/Chicago,77903
carfax-germany.org,AS62 CyrusOne LLC,Victoria,United States,US,CyrusOne LLC,28.8053,-97.0036,CyrusOne LLC,216.117.25.99,TX,Texas,success,America/Chicago,77903
carfax-germany.biz,AS62 CyrusOne LLC,Victoria,United States,US,CyrusOne LLC,28.8053,-97.0036,CyrusOne LLC,216.117.25.99,TX,Texas,success,America/Chicago,77903
carfax-germany.info,AS62 CyrusOne LLC,Victoria,United States,US,CyrusOne LLC,28.8053,-97.0036,CyrusOne LLC,216.117.25.99,TX,Texas,success,America/Chicago,77903
carfax-global.com,AS62 CyrusOne LLC,Victoria,United States,US,CyrusOne LLC,28.8053,-97.0036,CyrusOne LLC,216.117.25.99,TX,Texas,success,America/Chicago,77903
carfax-global.net,AS62 CyrusOne LLC,Victoria,United States,US,CyrusOne LLC,28.8053,-97.0036,CyrusOne LLC,216.117.25.99,TX,Texas,success,America/Chicago,77903
carfax-global.org,AS62 CyrusOne LLC,Victoria,United States,US,CyrusOne LLC,28.8053,-97.0036,CyrusOne LLC,216.117.25.99,TX,Texas,success,America/Chicago,77903
carfax-global.biz,AS62 CyrusOne LLC,Victoria,United States,US,CyrusOne LLC,28.8053,-97.0036,CyrusOne LLC,216.117.25.99,TX,Texas,success,America/Chicago,77903
carfax-global.info,AS62 CyrusOne LLC,Victoria,United States,US,CyrusOne LLC,28.8053,-97.0036,CyrusOne LLC,216.117.25.99,TX,Texas,success,America/Chicago,77903
carfax-guardians.com,"AS26496 GoDaddy.com, LLC",Scottsdale,United States,US,"GoDaddy.com, LLC",33.6119,-111.8906,"GoDaddy.com, LLC",160.153.16.21,AZ,Arizona,success,America/Phoenix,85260
carfax-guardians.net,AS8560 1&1 Internet SE,Offenbach,Germany,DE,1&1 Internet AG,50.0748,8.75573,1&1 Internet AG,217.160.223.109,HE,Hesse,success,Europe/Berlin,
carfax-guardians.org,AS8560 1&1 Internet SE,Offenbach,Germany,DE,1&1 Internet AG,50.0748,8.75573,1&1 Internet AG,217.160.223.109,HE,Hesse,success,Europe/Berlin,
carfax-guardians.info,AS8560 1&1 Internet SE,Offenbach,Germany,DE,1&1 Internet AG,50.0748,8.75573,1&1 Internet AG,217.160.223.109,HE,Hesse,success,Europe/Berlin,
carfax-hungary.com,AS62 CyrusOne LLC,Victoria,United States,US,CyrusOne LLC,28.8053,-97.0036,CyrusOne LLC,216.117.25.99,TX,Texas,success,America/Chicago,77903
carfax-hungary.net,AS62 CyrusOne LLC,Victoria,United States,US,CyrusOne LLC,28.8053,-97.0036,CyrusOne LLC,216.117.25.99,TX,Texas,success,America/Chicago,77903
carfax-hungary.org,AS62 CyrusOne LLC,Victoria,United States,US,CyrusOne LLC,28.8053,-97.0036,CyrusOne LLC,216.117.25.99,TX,Texas,success,America/Chicago,77903
carfax-hungary.biz,AS62 CyrusOne LLC,Victoria,United States,US,CyrusOne LLC,28.8053,-97.0036,CyrusOne LLC,216.117.25.99,TX,Texas,success,America/Chicago,77903
carfax-hungary.info,AS62 CyrusOne LLC,Victoria,United States,US,CyrusOne LLC,28.8053,-97.0036,CyrusOne LLC,216.117.25.99,TX,Texas,success,America/Chicago,77903
carfax-inc.com,AS62 CyrusOne LLC,Victoria,United States,US,CyrusOne LLC,28.8053,-97.0036,CyrusOne LLC,216.117.25.99,TX,Texas,success,America/Chicago,77903
carfax-inc.net,AS62 CyrusOne LLC,Victoria,United States,US,CyrusOne LLC,28.8053,-97.0036,CyrusOne LLC,216.117.25.99,TX,Texas,success,America/Chicago,77903
carfax-inc.org,AS62 CyrusOne LLC,Victoria,United States,US,CyrusOne LLC,28.8053,-97.0036,CyrusOne LLC,216.117.25.99,TX,Texas,success,America/Chicago,77903
carfax-italy.com,AS62 CyrusOne LLC,Victoria,United States,US,CyrusOne LLC,28.8053,-97.0036,CyrusOne LLC,216.117.25.99,TX,Texas,success,America/Chicago,77903
carfax-italy.net,AS62 CyrusOne LLC,Victoria,United States,US,CyrusOne LLC,28.8053,-97.0036,CyrusOne LLC,216.117.25.99,TX,Texas,success,America/Chicago,77903
carfax-italy.org,AS62 CyrusOne LLC,Victoria,United States,US,CyrusOne LLC,28.8053,-97.0036,CyrusOne LLC,216.117.25.99,TX,Texas,success,America/Chicago,77903
carfax-italy.biz,AS62 CyrusOne LLC,Victoria,United States,US,CyrusOne LLC,28.8053,-97.0036,CyrusOne LLC,216.117.25.99,TX,Texas,success,America/Chicago,77903
carfax-italy.info,AS62 CyrusOne LLC,Victoria,United States,US,CyrusOne LLC,28.8053,-97.0036,CyrusOne LLC,216.117.25.99,TX,Texas,success,America/Chicago,77903
carfax-korea.com,"AS26496 GoDaddy.com, LLC",Scottsdale,United States,US,"GoDaddy.com, LLC",33.6119,-111.8906,"GoDaddy.com, LLC",160.153.16.21,AZ,Arizona,success,America/Phoenix,85260
carfax-kroatia.com,AS62 CyrusOne LLC,Victoria,United States,US,CyrusOne LLC,28.8053,-97.0036,CyrusOne LLC,216.117.25.99,TX,Texas,success,America/Chicago,77903
carfax-kroatia.net,AS62 CyrusOne LLC,Victoria,United States,US,CyrusOne LLC,28.8053,-97.0036,CyrusOne LLC,216.117.25.99,TX,Texas,success,America/Chicago,77903
carfax-kroatia.org,AS62 CyrusOne LLC,Victoria,United States,US,CyrusOne LLC,28.8053,-97.0036,CyrusOne LLC,216.117.25.99,TX,Texas,success,America/Chicago,77903
carfax-kroatia.biz,AS62 CyrusOne LLC,Victoria,United States,US,CyrusOne LLC,28.8053,-97.0036,CyrusOne LLC,216.117.25.99,TX,Texas,success,America/Chicago,77903
carfax-kroatia.info,AS62 CyrusOne LLC,Victoria,United States,US,CyrusOne LLC,28.8053,-97.0036,CyrusOne LLC,216.117.25.99,TX,Texas,success,America/Chicago,77903
carfax-latvia.com,AS62 CyrusOne LLC,Victoria,United States,US,CyrusOne LLC,28.8053,-97.0036,CyrusOne LLC,216.117.25.99,TX,Texas,success,America/Chicago,77903
carfax-latvia.net,AS62 CyrusOne LLC,Victoria,United States,US,CyrusOne LLC,28.8053,-97.0036,CyrusOne LLC,216.117.25.99,TX,Texas,success,America/Chicago,77903
carfax-latvia.org,AS62 CyrusOne LLC,Victoria,United States,US,CyrusOne LLC,28.8053,-97.0036,CyrusOne LLC,216.117.25.99,TX,Texas,success,America/Chicago,77903
carfax-latvia.biz,AS62 CyrusOne LLC,Victoria,United States,US,CyrusOne LLC,28.8053,-97.0036,CyrusOne LLC,216.117.25.99,TX,Texas,success,America/Chicago,77903
carfax-latvia.info,AS62 CyrusOne LLC,Victoria,United States,US,CyrusOne LLC,28.8053,-97.0036,CyrusOne LLC,216.117.25.99,TX,Texas,success,America/Chicago,77903
carfax-lithuania.com,AS62 CyrusOne LLC,Victoria,United States,US,CyrusOne LLC,28.8053,-97.0036,CyrusOne LLC,216.117.25.99,TX,Texas,success,America/Chicago,77903
carfax-lithuania.net,AS62 CyrusOne LLC,Victoria,United States,US,CyrusOne LLC,28.8053,-97.0036,CyrusOne LLC,216.117.25.99,TX,Texas,success,America/Chicago,77903
carfax-lithuania.org,AS62 CyrusOne LLC,Victoria,United States,US,CyrusOne LLC,28.8053,-97.0036,CyrusOne LLC,216.117.25.99,TX,Texas,success,America/Chicago,77903
carfax-lithuania.biz,AS62 CyrusOne LLC,Victoria,United States,US,CyrusOne LLC,28.8053,-97.0036,CyrusOne LLC,216.117.25.99,TX,Texas,success,America/Chicago,77903
carfax-lithuania.info,AS62 CyrusOne LLC,Victoria,United States,US,CyrusOne LLC,28.8053,-97.0036,CyrusOne LLC,216.117.25.99,TX,Texas,success,America/Chicago,77903
carfax-luxembourg.com,AS62 CyrusOne LLC,Victoria,United States,US,CyrusOne LLC,28.8053,-97.0036,CyrusOne LLC,216.117.25.99,TX,Texas,success,America/Chicago,77903
carfax-luxembourg.net,AS62 CyrusOne LLC,Victoria,United States,US,CyrusOne LLC,28.8053,-97.0036,CyrusOne LLC,216.117.25.99,TX,Texas,success,America/Chicago,77903
carfax-luxembourg.org,AS62 CyrusOne LLC,Victoria,United States,US,CyrusOne LLC,28.8053,-97.0036,CyrusOne LLC,216.117.25.99,TX,Texas,success,America/Chicago,77903
carfax-luxembourg.biz,AS62 CyrusOne LLC,Victoria,United States,US,CyrusOne LLC,28.8053,-97.0036,CyrusOne LLC,216.117.25.99,TX,Texas,success,America/Chicago,77903
carfax-luxembourg.info,AS62 CyrusOne LLC,Victoria,United States,US,CyrusOne LLC,28.8053,-97.0036,CyrusOne LLC,216.117.25.99,TX,Texas,success,America/Chicago,77903
carfax-mail.com,AS8560 1&1 Internet SE,Offenbach,Germany,DE,1&1 Internet AG,50.0748,8.75573,1&1 Internet AG,217.160.223.7,HE,Hesse,success,Europe/Berlin,
carfax-manitoba.com,AS62 CyrusOne LLC,Victoria,United States,US,CyrusOne LLC,28.8053,-97.0036,CyrusOne LLC,216.117.25.99,TX,Texas,success,America/Chicago,77903
carfax-monaco.com,"AS26496 GoDaddy.com, LLC",Scottsdale,United States,US,"GoDaddy.com, LLC",33.6119,-111.8906,"GoDaddy.com, LLC",160.153.16.36,AZ,Arizona,success,America/Phoenix,85260
carfax-moscow.com,AS8560 1&1 Internet SE,Warsaw,Poland,PL,1&1 Internet AG,52.2297,21.0122,1&1 Internet AG,217.160.230.201,MZ,Masovian Voivodeship,success,Europe/Warsaw,
carfax-moscow.net,AS8560 1&1 Internet SE,Warsaw,Poland,PL,1&1 Internet AG,52.2297,21.0122,1&1 Internet AG,217.160.230.201,MZ,Masovian Voivodeship,success,Europe/Warsaw,
carfax-moscow.org,AS8560 1&1 Internet SE,Warsaw,Poland,PL,1&1 Internet AG,52.2297,21.0122,1&1 Internet AG,217.160.230.201,MZ,Masovian Voivodeship,success,Europe/Warsaw,
carfax-na.com,AS62 CyrusOne LLC,Victoria,United States,US,CyrusOne LLC,28.8053,-97.0036,CyrusOne LLC,216.117.25.99,TX,Texas,success,America/Chicago,77903
carfax-na.net,AS62 CyrusOne LLC,Victoria,United States,US,CyrusOne LLC,28.8053,-97.0036,CyrusOne LLC,216.117.25.99,TX,Texas,success,America/Chicago,77903
carfax-na.org,AS62 CyrusOne LLC,Victoria,United States,US,CyrusOne LLC,28.8053,-97.0036,CyrusOne LLC,216.117.25.99,TX,Texas,success,America/Chicago,77903
carfax-na.biz,AS62 CyrusOne LLC,Victoria,United States,US,CyrusOne LLC,28.8053,-97.0036,CyrusOne LLC,216.117.25.99,TX,Texas,success,America/Chicago,77903
carfax-na.info,AS62 CyrusOne LLC,Victoria,United States,US,CyrusOne LLC,28.8053,-97.0036,CyrusOne LLC,216.117.25.99,TX,Texas,success,America/Chicago,77903
carfax-netherlands.com,AS62 CyrusOne LLC,Victoria,United States,US,CyrusOne LLC,28.8053,-97.0036,CyrusOne LLC,216.117.25.99,TX,Texas,success,America/Chicago,77903
carfax-netherlands.net,AS62 CyrusOne LLC,Victoria,United States,US,CyrusOne LLC,28.8053,-97.0036,CyrusOne LLC,216.117.25.99,TX,Texas,success,America/Chicago,77903
carfax-netherlands.org,AS62 CyrusOne LLC,Victoria,United States,US,CyrusOne LLC,28.8053,-97.0036,CyrusOne LLC,216.117.25.99,TX,Texas,success,America/Chicago,77903
carfax-netherlands.biz,AS62 CyrusOne LLC,Victoria,United States,US,CyrusOne LLC,28.8053,-97.0036,CyrusOne LLC,216.117.25.99,TX,Texas,success,America/Chicago,77903
carfax-netherlands.info,AS62 CyrusOne LLC,Victoria,United States,US,CyrusOne LLC,28.8053,-97.0036,CyrusOne LLC,216.117.25.99,TX,Texas,success,America/Chicago,77903
carfax-new-brunswick.com,AS62 CyrusOne LLC,Victoria,United States,US,CyrusOne LLC,28.8053,-97.0036,CyrusOne LLC,216.117.25.99,TX,Texas,success,America/Chicago,77903
carfax-newfoundland.com,AS62 CyrusOne LLC,Victoria,United States,US,CyrusOne LLC,28.8053,-97.0036,CyrusOne LLC,216.117.25.99,TX,Texas,success,America/Chicago,77903
carfax-ng.com,AS20738 Host Europe GmbH,Leeds (Tristram Centre),United Kingdom,GB,Host Europe GmbH,53.7832,-1.57331,Host Europe GmbH,81.21.76.62,,England,success,Europe/London,
carfax-north-america.com,AS62 CyrusOne LLC,Victoria,United States,US,CyrusOne LLC,28.8053,-97.0036,CyrusOne LLC,216.117.25.99,TX,Texas,success,America/Chicago,77903
carfax-north-america.net,AS62 CyrusOne LLC,Victoria,United States,US,CyrusOne LLC,28.8053,-97.0036,CyrusOne LLC,216.117.25.99,TX,Texas,success,America/Chicago,77903
carfax-north-america.org,AS62 CyrusOne LLC,Victoria,United States,US,CyrusOne LLC,28.8053,-97.0036,CyrusOne LLC,216.117.25.99,TX,Texas,success,America/Chicago,77903
carfax-north-america.biz,AS62 CyrusOne LLC,Victoria,United States,US,CyrusOne LLC,28.8053,-97.0036,CyrusOne LLC,216.117.25.99,TX,Texas,success,America/Chicago,77903
carfax-north-america.info,AS62 CyrusOne LLC,Victoria,United States,US,CyrusOne LLC,28.8053,-97.0036,CyrusOne LLC,216.117.25.99,TX,Texas,success,America/Chicago,77903
carfax-northwest-territories.com,AS62 CyrusOne LLC,Victoria,United States,US,CyrusOne LLC,28.8053,-97.0036,CyrusOne LLC,216.117.25.99,TX,Texas,success,America/Chicago,77903
carfax-norway.com,AS62 CyrusOne LLC,Victoria,United States,US,CyrusOne LLC,28.8053,-97.0036,CyrusOne LLC,216.117.25.99,TX,Texas,success,America/Chicago,77903
carfax-norway.net,AS62 CyrusOne LLC,Victoria,United States,US,CyrusOne LLC,28.8053,-97.0036,CyrusOne LLC,216.117.25.99,TX,Texas,success,America/Chicago,77903
carfax-norway.org,AS62 CyrusOne LLC,Victoria,United States,US,CyrusOne LLC,28.8053,-97.0036,CyrusOne LLC,216.117.25.99,TX,Texas,success,America/Chicago,77903
carfax-norway.biz,AS62 CyrusOne LLC,Victoria,United States,US,CyrusOne LLC,28.8053,-97.0036,CyrusOne LLC,216.117.25.99,TX,Texas,success,America/Chicago,77903
carfax-norway.info,AS62 CyrusOne LLC,Victoria,United States,US,CyrusOne LLC,28.8053,-97.0036,CyrusOne LLC,216.117.25.99,TX,Texas,success,America/Chicago,77903
carfax-nova-scotia.com,AS62 CyrusOne LLC,Victoria,United States,US,CyrusOne LLC,28.8053,-97.0036,CyrusOne LLC,216.117.25.99,TX,Texas,success,America/Chicago,77903
carfax-nunavut.com,AS62 CyrusOne LLC,Victoria,United States,US,CyrusOne LLC,28.8053,-97.0036,CyrusOne LLC,216.117.25.99,TX,Texas,success,America/Chicago,77903
carfax-one-owner.com,AS62 CyrusOne LLC,Victoria,United States,US,CyrusOne LLC,28.8053,-97.0036,CyrusOne LLC,216.117.25.11,TX,Texas,success,America/Chicago,77903
carfax-one-owner.net,AS62 CyrusOne LLC,Victoria,United States,US,CyrusOne LLC,28.8053,-97.0036,CyrusOne LLC,216.117.25.11,TX,Texas,success,America/Chicago,77903
carfax-one-owner.org,AS62 CyrusOne LLC,Victoria,United States,US,CyrusOne LLC,28.8053,-97.0036,CyrusOne LLC,216.117.25.11,TX,Texas,success,America/Chicago,77903
carfax-one-owner.biz,AS62 CyrusOne LLC,Victoria,United States,US,CyrusOne LLC,28.8053,-97.0036,CyrusOne LLC,216.117.25.11,TX,Texas,success,America/Chicago,77903
carfax-one-owner.info,AS62 CyrusOne LLC,Victoria,United States,US,CyrusOne LLC,28.8053,-97.0036,CyrusOne LLC,216.117.25.11,TX,Texas,success,America/Chicago,77903
carfax-one-ownersale.com,AS62 CyrusOne LLC,Victoria,United States,US,CyrusOne LLC,28.8053,-97.0036,CyrusOne LLC,216.117.25.11,TX,Texas,success,America/Chicago,77903
carfax-one-ownersale.net,AS62 CyrusOne LLC,Victoria,United States,US,CyrusOne LLC,28.8053,-97.0036,CyrusOne LLC,216.117.25.11,TX,Texas,success,America/Chicago,77903
carfax-one-ownersale.org,AS62 CyrusOne LLC,Victoria,United States,US,CyrusOne LLC,28.8053,-97.0036,CyrusOne LLC,216.117.25.11,TX,Texas,success,America/Chicago,77903
carfax-one-ownersale.biz,AS62 CyrusOne LLC,Victoria,United States,US,CyrusOne LLC,28.8053,-97.0036,CyrusOne LLC,216.117.25.11,TX,Texas,success,America/Chicago,77903
carfax-one-ownersale.info,AS62 CyrusOne LLC,Victoria,United States,US,CyrusOne LLC,28.8053,-97.0036,CyrusOne LLC,216.117.25.11,TX,Texas,success,America/Chicago,77903
carfax-oneowner.com,AS62 CyrusOne LLC,Victoria,United States,US,CyrusOne LLC,28.8053,-97.0036,CyrusOne LLC,216.117.25.11,TX,Texas,success,America/Chicago,77903
carfax-oneowner.net,AS62 CyrusOne LLC,Victoria,United States,US,CyrusOne LLC,28.8053,-97.0036,CyrusOne LLC,216.117.25.11,TX,Texas,success,America/Chicago,77903
carfax-oneowner.org,AS62 CyrusOne LLC,Victoria,United States,US,CyrusOne LLC,28.8053,-97.0036,CyrusOne LLC,216.117.25.11,TX,Texas,success,America/Chicago,77903
carfax-oneowner.biz,AS62 CyrusOne LLC,Victoria,United States,US,CyrusOne LLC,28.8053,-97.0036,CyrusOne LLC,216.117.25.11,TX,Texas,success,America/Chicago,77903
carfax-oneowner.info,AS62 CyrusOne LLC,Victoria,United States,US,CyrusOne LLC,28.8053,-97.0036,CyrusOne LLC,216.117.25.11,TX,Texas,success,America/Chicago,77903
carfax-oneownersale.com,AS62 CyrusOne LLC,Victoria,United States,US,CyrusOne LLC,28.8053,-97.0036,CyrusOne LLC,216.117.25.11,TX,Texas,success,America/Chicago,77903
carfax-oneownersale.net,AS62 CyrusOne LLC,Victoria,United States,US,CyrusOne LLC,28.8053,-97.0036,CyrusOne LLC,216.117.25.11,TX,Texas,success,America/Chicago,77903
carfax-oneownersale.org,AS62 CyrusOne LLC,Victoria,United States,US,CyrusOne LLC,28.8053,-97.0036,CyrusOne LLC,216.117.25.11,TX,Texas,success,America/Chicago,77903
carfax-oneownersale.biz,AS62 CyrusOne LLC,Victoria,United States,US,CyrusOne LLC,28.8053,-97.0036,CyrusOne LLC,216.117.25.11,TX,Texas,success,America/Chicago,77903
carfax-oneownersale.info,AS62 CyrusOne LLC,Victoria,United States,US,CyrusOne LLC,28.8053,-97.0036,CyrusOne LLC,216.117.25.11,TX,Texas,success,America/Chicago,77903
carfax-online.com,AS8560 1&1 Internet SE,Neubrandenburg,Germany,DE,1&1 Internet AG,53.5486,13.2715,1&1 Internet AG,217.160.0.24,MV,Mecklenburg-Vorpommern,success,Europe/Berlin,
carfax-ontario.com,AS62 CyrusOne LLC,Victoria,United States,US,CyrusOne LLC,28.8053,-97.0036,CyrusOne LLC,216.117.25.99,TX,Texas,success,America/Chicago,77903
carfax-oxford.com,"AS26496 GoDaddy.com, LLC",Scottsdale,United States,US,"GoDaddy.com, LLC",33.6119,-111.8906,"GoDaddy.com, LLC",160.153.16.21,AZ,Arizona,success,America/Phoenix,85260
carfax-oxford.net,AS8560 1&1 Internet SE,Offenbach,Germany,DE,1&1 Internet AG,50.0748,8.75573,1&1 Internet AG,217.160.223.109,HE,Hesse,success,Europe/Berlin,
carfax-oxford.org,AS8560 1&1 Internet SE,Offenbach,Germany,DE,1&1 Internet AG,50.0748,8.75573,1&1 Internet AG,217.160.223.109,HE,Hesse,success,Europe/Berlin,
carfax-oxford.info,AS8560 1&1 Internet SE,Offenbach,Germany,DE,1&1 Internet AG,50.0748,8.75573,1&1 Internet AG,217.160.223.109,HE,Hesse,success,Europe/Berlin,
carfax-pei.com,AS62 CyrusOne LLC,Victoria,United States,US,CyrusOne LLC,28.8053,-97.0036,CyrusOne LLC,216.117.25.99,TX,Texas,success,America/Chicago,77903
carfax-poland.com,AS62 CyrusOne LLC,Victoria,United States,US,CyrusOne LLC,28.8053,-97.0036,CyrusOne LLC,216.117.25.99,TX,Texas,success,America/Chicago,77903
carfax-poland.net,AS62 CyrusOne LLC,Victoria,United States,US,CyrusOne LLC,28.8053,-97.0036,CyrusOne LLC,216.117.25.99,TX,Texas,success,America/Chicago,77903
carfax-poland.org,AS62 CyrusOne LLC,Victoria,United States,US,CyrusOne LLC,28.8053,-97.0036,CyrusOne LLC,216.117.25.99,TX,Texas,success,America/Chicago,77903
carfax-poland.biz,AS62 CyrusOne LLC,Victoria,United States,US,CyrusOne LLC,28.8053,-97.0036,CyrusOne LLC,216.117.25.99,TX,Texas,success,America/Chicago,77903
carfax-poland.info,AS62 CyrusOne LLC,Victoria,United States,US,CyrusOne LLC,28.8053,-97.0036,CyrusOne LLC,216.117.25.99,TX,Texas,success,America/Chicago,77903
carfax-portugal.com,AS62 CyrusOne LLC,Victoria,United States,US,CyrusOne LLC,28.8053,-97.0036,CyrusOne LLC,216.117.25.99,TX,Texas,success,America/Chicago,77903
carfax-portugal.net,AS62 CyrusOne LLC,Victoria,United States,US,CyrusOne LLC,28.8053,-97.0036,CyrusOne LLC,216.117.25.99,TX,Texas,success,America/Chicago,77903
carfax-portugal.org,AS62 CyrusOne LLC,Victoria,United States,US,CyrusOne LLC,28.8053,-97.0036,CyrusOne LLC,216.117.25.99,TX,Texas,success,America/Chicago,77903
carfax-portugal.biz,AS62 CyrusOne LLC,Victoria,United States,US,CyrusOne LLC,28.8053,-97.0036,CyrusOne LLC,216.117.25.99,TX,Texas,success,America/Chicago,77903
carfax-portugal.info,AS62 CyrusOne LLC,Victoria,United States,US,CyrusOne LLC,28.8053,-97.0036,CyrusOne LLC,216.117.25.99,TX,Texas,success,America/Chicago,77903
carfax-prince-edward-island.com,AS62 CyrusOne LLC,Victoria,United States,US,CyrusOne LLC,28.8053,-97.0036,CyrusOne LLC,216.117.25.99,TX,Texas,success,America/Chicago,77903
carfax-projects.com,AS8560 1&1 Internet SE,Neubrandenburg,Germany,DE,1&1 Internet AG,53.5486,13.2715,1&1 Internet AG,217.160.0.24,MV,Mecklenburg-Vorpommern,success,Europe/Berlin,
carfax-projects.net,AS8560 1&1 Internet SE,Neubrandenburg,Germany,DE,1&1 Internet AG,53.5486,13.2715,1&1 Internet AG,217.160.0.24,MV,Mecklenburg-Vorpommern,success,Europe/Berlin,
carfax-projects.org,AS8560 1&1 Internet SE,Warsaw,Poland,PL,1&1 Internet AG,52.2297,21.0122,1&1 Internet AG,217.160.230.204,MZ,Masovian Voivodeship,success,Europe/Warsaw,
carfax-projects.info,AS8560 1&1 Internet SE,Warsaw,Poland,PL,1&1 Internet AG,52.2297,21.0122,1&1 Internet AG,217.160.230.204,MZ,Masovian Voivodeship,success,Europe/Warsaw,
carfax-pupils.com,"AS26496 GoDaddy.com, LLC",Scottsdale,United States,US,"GoDaddy.com, LLC",33.6119,-111.8906,"GoDaddy.com, LLC",50.63.202.52,AZ,Arizona,success,America/Phoenix,85260
carfax-pupils.net,"AS26496 GoDaddy.com, LLC",Scottsdale,United States,US,"GoDaddy.com, LLC",33.6119,-111.8906,"GoDaddy.com, LLC",50.63.202.47,AZ,Arizona,success,America/Phoenix,85260
carfax-pupils.org,"AS26496 GoDaddy.com, LLC",Scottsdale,United States,US,"GoDaddy.com, LLC",33.6119,-111.8906,"GoDaddy.com, LLC",184.168.221.44,AZ,Arizona,success,America/Phoenix,85260
carfax-quebec.com,AS62 CyrusOne LLC,Victoria,United States,US,CyrusOne LLC,28.8053,-97.0036,CyrusOne LLC,216.117.25.99,TX,Texas,success,America/Chicago,77903
carfax-recruitment.com,"AS26496 GoDaddy.com, LLC",Scottsdale,United States,US,"GoDaddy.com, LLC",33.6119,-111.8906,"GoDaddy.com, LLC",160.153.137.15,AZ,Arizona,success,America/Phoenix,85260
carfax-registers.com,AS8560 1&1 Internet SE,Warsaw,Poland,PL,1&1 Internet AG,52.2297,21.0122,1&1 Internet AG,217.160.230.204,MZ,Masovian Voivodeship,success,Europe/Warsaw,
carfax-report.net,"AS29873 The Endurance International Group, Inc.",Burlington,United States,US,The Endurance International Group,42.5051,-71.2047,The Endurance International Group,66.96.163.140,MA,Massachusetts,success,America/New_York,01803
carfax-reports.com,AS62 CyrusOne LLC,Victoria,United States,US,CyrusOne LLC,28.8053,-97.0036,CyrusOne LLC,216.117.25.99,TX,Texas,success,America/Chicago,77903
carfax-romania.com,AS62 CyrusOne LLC,Victoria,United States,US,CyrusOne LLC,28.8053,-97.0036,CyrusOne LLC,216.117.25.99,TX,Texas,success,America/Chicago,77903
carfax-romania.net,AS62 CyrusOne LLC,Victoria,United States,US,CyrusOne LLC,28.8053,-97.0036,CyrusOne LLC,216.117.25.99,TX,Texas,success,America/Chicago,77903
carfax-romania.org,AS62 CyrusOne LLC,Victoria,United States,US,CyrusOne LLC,28.8053,-97.0036,CyrusOne LLC,216.117.25.99,TX,Texas,success,America/Chicago,77903
carfax-romania.biz,AS62 CyrusOne LLC,Victoria,United States,US,CyrusOne LLC,28.8053,-97.0036,CyrusOne LLC,216.117.25.99,TX,Texas,success,America/Chicago,77903
carfax-romania.info,AS62 CyrusOne LLC,Victoria,United States,US,CyrusOne LLC,28.8053,-97.0036,CyrusOne LLC,216.117.25.99,TX,Texas,success,America/Chicago,77903
carfax-russia.com,AS62 CyrusOne LLC,Victoria,United States,US,CyrusOne LLC,28.8053,-97.0036,CyrusOne LLC,216.117.25.99,TX,Texas,success,America/Chicago,77903
carfax-russia.net,AS62 CyrusOne LLC,Victoria,United States,US,CyrusOne LLC,28.8053,-97.0036,CyrusOne LLC,216.117.25.99,TX,Texas,success,America/Chicago,77903
carfax-russia.org,AS62 CyrusOne LLC,Victoria,United States,US,CyrusOne LLC,28.8053,-97.0036,CyrusOne LLC,216.117.25.99,TX,Texas,success,America/Chicago,77903
carfax-russia.biz,AS62 CyrusOne LLC,Victoria,United States,US,CyrusOne LLC,28.8053,-97.0036,CyrusOne LLC,216.117.25.99,TX,Texas,success,America/Chicago,77903
carfax-russia.info,AS62 CyrusOne LLC,Victoria,United States,US,CyrusOne LLC,28.8053,-97.0036,CyrusOne LLC,216.117.25.99,TX,Texas,success,America/Chicago,77903
carfax-sa.com,AS62 CyrusOne LLC,Victoria,United States,US,CyrusOne LLC,28.8053,-97.0036,CyrusOne LLC,216.117.25.99,TX,Texas,success,America/Chicago,77903
carfax-sa.net,AS62 CyrusOne LLC,Victoria,United States,US,CyrusOne LLC,28.8053,-97.0036,CyrusOne LLC,216.117.25.99,TX,Texas,success,America/Chicago,77903
carfax-sa.org,AS62 CyrusOne LLC,Victoria,United States,US,CyrusOne LLC,28.8053,-97.0036,CyrusOne LLC,216.117.25.99,TX,Texas,success,America/Chicago,77903
carfax-sa.biz,AS62 CyrusOne LLC,Victoria,United States,US,CyrusOne LLC,28.8053,-97.0036,CyrusOne LLC,216.117.25.99,TX,Texas,success,America/Chicago,77903
carfax-sa.info,AS62 CyrusOne LLC,Victoria,United States,US,CyrusOne LLC,28.8053,-97.0036,CyrusOne LLC,216.117.25.99,TX,Texas,success,America/Chicago,77903
carfax-sale.com,AS62 CyrusOne LLC,Victoria,United States,US,CyrusOne LLC,28.8053,-97.0036,CyrusOne LLC,216.117.25.99,TX,Texas,success,America/Chicago,77903
carfax-sale.net,AS62 CyrusOne LLC,Victoria,United States,US,CyrusOne LLC,28.8053,-97.0036,CyrusOne LLC,216.117.25.99,TX,Texas,success,America/Chicago,77903
carfax-sale.org,AS62 CyrusOne LLC,Victoria,United States,US,CyrusOne LLC,28.8053,-97.0036,CyrusOne LLC,216.117.25.99,TX,Texas,success,America/Chicago,77903
carfax-sale.biz,AS62 CyrusOne LLC,Victoria,United States,US,CyrusOne LLC,28.8053,-97.0036,CyrusOne LLC,216.117.25.99,TX,Texas,success,America/Chicago,77903
carfax-sale.info,AS62 CyrusOne LLC,Victoria,United States,US,CyrusOne LLC,28.8053,-97.0036,CyrusOne LLC,216.117.25.99,TX,Texas,success,America/Chicago,77903
carfax-sales.com,AS62 CyrusOne LLC,Victoria,United States,US,CyrusOne LLC,28.8053,-97.0036,CyrusOne LLC,216.117.25.99,TX,Texas,success,America/Chicago,77903
carfax-sales.net,AS62 CyrusOne LLC,Victoria,United States,US,CyrusOne LLC,28.8053,-97.0036,CyrusOne LLC,216.117.25.99,TX,Texas,success,America/Chicago,77903
carfax-sales.org,AS62 CyrusOne LLC,Victoria,United States,US,CyrusOne LLC,28.8053,-97.0036,CyrusOne LLC,216.117.25.99,TX,Texas,success,America/Chicago,77903
carfax-sales.biz,AS62 CyrusOne LLC,Victoria,United States,US,CyrusOne LLC,28.8053,-97.0036,CyrusOne LLC,216.117.25.99,TX,Texas,success,America/Chicago,77903
carfax-sales.info,AS62 CyrusOne LLC,Victoria,United States,US,CyrusOne LLC,28.8053,-97.0036,CyrusOne LLC,216.117.25.99,TX,Texas,success,America/Chicago,77903
carfax-saskatchewan.com,AS62 CyrusOne LLC,Victoria,United States,US,CyrusOne LLC,28.8053,-97.0036,CyrusOne LLC,216.117.25.99,TX,Texas,success,America/Chicago,77903
carfax-service.com,AS15169 Google Inc.,Mountain View,United States,US,Google,37.4192,-122.0574,Google,216.239.38.21,CA,California,success,America/Los_Angeles,94043
carfax-services.com,AS15169 Google Inc.,Mountain View,United States,US,Google,37.4229,-122.085,Google,216.239.32.21,CA,California,success,America/Los_Angeles,
carfax-slovakia.com,AS62 CyrusOne LLC,Victoria,United States,US,CyrusOne LLC,28.8053,-97.0036,CyrusOne LLC,216.117.25.99,TX,Texas,success,America/Chicago,77903
carfax-slovakia.net,AS62 CyrusOne LLC,Victoria,United States,US,CyrusOne LLC,28.8053,-97.0036,CyrusOne LLC,216.117.25.99,TX,Texas,success,America/Chicago,77903
carfax-slovakia.org,AS62 CyrusOne LLC,Victoria,United States,US,CyrusOne LLC,28.8053,-97.0036,CyrusOne LLC,216.117.25.99,TX,Texas,success,America/Chicago,77903
carfax-slovakia.biz,AS62 CyrusOne LLC,Victoria,United States,US,CyrusOne LLC,28.8053,-97.0036,CyrusOne LLC,216.117.25.99,TX,Texas,success,America/Chicago,77903
carfax-slovakia.info,AS62 CyrusOne LLC,Victoria,United States,US,CyrusOne LLC,28.8053,-97.0036,CyrusOne LLC,216.117.25.99,TX,Texas,success,America/Chicago,77903
carfax-slovenia.com,AS62 CyrusOne LLC,Victoria,United States,US,CyrusOne LLC,28.8053,-97.0036,CyrusOne LLC,216.117.25.99,TX,Texas,success,America/Chicago,77903
carfax-slovenia.net,AS62 CyrusOne LLC,Victoria,United States,US,CyrusOne LLC,28.8053,-97.0036,CyrusOne LLC,216.117.25.99,TX,Texas,success,America/Chicago,77903
carfax-slovenia.org,AS62 CyrusOne LLC,Victoria,United States,US,CyrusOne LLC,28.8053,-97.0036,CyrusOne LLC,216.117.25.99,TX,Texas,success,America/Chicago,77903
carfax-slovenia.biz,AS62 CyrusOne LLC,Victoria,United States,US,CyrusOne LLC,28.8053,-97.0036,CyrusOne LLC,216.117.25.99,TX,Texas,success,America/Chicago,77903
carfax-slovenia.info,AS62 CyrusOne LLC,Victoria,United States,US,CyrusOne LLC,28.8053,-97.0036,CyrusOne LLC,216.117.25.99,TX,Texas,success,America/Chicago,77903
carfax-south-america.com,AS62 CyrusOne LLC,Victoria,United States,US,CyrusOne LLC,28.8053,-97.0036,CyrusOne LLC,216.117.25.99,TX,Texas,success,America/Chicago,77903
carfax-south-america.net,AS62 CyrusOne LLC,Victoria,United States,US,CyrusOne LLC,28.8053,-97.0036,CyrusOne LLC,216.117.25.99,TX,Texas,success,America/Chicago,77903
carfax-south-america.org,AS62 CyrusOne LLC,Victoria,United States,US,CyrusOne LLC,28.8053,-97.0036,CyrusOne LLC,216.117.25.99,TX,Texas,success,America/Chicago,77903
carfax-south-america.biz,AS62 CyrusOne LLC,Victoria,United States,US,CyrusOne LLC,28.8053,-97.0036,CyrusOne LLC,216.117.25.99,TX,Texas,success,America/Chicago,77903
carfax-south-america.info,AS62 CyrusOne LLC,Victoria,United States,US,CyrusOne LLC,28.8053,-97.0036,CyrusOne LLC,216.117.25.99,TX,Texas,success,America/Chicago,77903
carfax-sp.com,AS62 CyrusOne LLC,Victoria,United States,US,CyrusOne LLC,28.8053,-97.0036,CyrusOne LLC,216.117.25.99,TX,Texas,success,America/Chicago,77903
carfax-sp.net,AS62 CyrusOne LLC,Victoria,United States,US,CyrusOne LLC,28.8053,-97.0036,CyrusOne LLC,216.117.25.99,TX,Texas,success,America/Chicago,77903
carfax-sp.org,AS62 CyrusOne LLC,Victoria,United States,US,CyrusOne LLC,28.8053,-97.0036,CyrusOne LLC,216.117.25.99,TX,Texas,success,America/Chicago,77903
carfax-sp.biz,AS62 CyrusOne LLC,Victoria,United States,US,CyrusOne LLC,28.8053,-97.0036,CyrusOne LLC,216.117.25.99,TX,Texas,success,America/Chicago,77903
carfax-sp.info,AS62 CyrusOne LLC,Victoria,United States,US,CyrusOne LLC,28.8053,-97.0036,CyrusOne LLC,216.117.25.99,TX,Texas,success,America/Chicago,77903
carfax-spain.com,AS62 CyrusOne LLC,Victoria,United States,US,CyrusOne LLC,28.8053,-97.0036,CyrusOne LLC,216.117.25.99,TX,Texas,success,America/Chicago,77903
carfax-spain.net,AS62 CyrusOne LLC,Victoria,United States,US,CyrusOne LLC,28.8053,-97.0036,CyrusOne LLC,216.117.25.99,TX,Texas,success,America/Chicago,77903
carfax-spain.org,AS62 CyrusOne LLC,Victoria,United States,US,CyrusOne LLC,28.8053,-97.0036,CyrusOne LLC,216.117.25.99,TX,Texas,success,America/Chicago,77903
carfax-spain.biz,AS62 CyrusOne LLC,Victoria,United States,US,CyrusOne LLC,28.8053,-97.0036,CyrusOne LLC,216.117.25.99,TX,Texas,success,America/Chicago,77903
carfax-spain.info,AS62 CyrusOne LLC,Victoria,United States,US,CyrusOne LLC,28.8053,-97.0036,CyrusOne LLC,216.117.25.99,TX,Texas,success,America/Chicago,77903
carfax-spanish.com,AS62 CyrusOne LLC,Victoria,United States,US,CyrusOne LLC,28.8053,-97.0036,CyrusOne LLC,216.117.25.99,TX,Texas,success,America/Chicago,77903
carfax-spanish.net,AS62 CyrusOne LLC,Victoria,United States,US,CyrusOne LLC,28.8053,-97.0036,CyrusOne LLC,216.117.25.99,TX,Texas,success,America/Chicago,77903
carfax-spanish.org,AS62 CyrusOne LLC,Victoria,United States,US,CyrusOne LLC,28.8053,-97.0036,CyrusOne LLC,216.117.25.99,TX,Texas,success,America/Chicago,77903
carfax-spanish.biz,AS62 CyrusOne LLC,Victoria,United States,US,CyrusOne LLC,28.8053,-97.0036,CyrusOne LLC,216.117.25.99,TX,Texas,success,America/Chicago,77903
carfax-spanish.info,AS62 CyrusOne LLC,Victoria,United States,US,CyrusOne LLC,28.8053,-97.0036,CyrusOne LLC,216.117.25.99,TX,Texas,success,America/Chicago,77903
carfax-summer.com,"AS26496 GoDaddy.com, LLC",Scottsdale,United States,US,"GoDaddy.com, LLC",33.6119,-111.8906,"GoDaddy.com, LLC",184.168.221.50,AZ,Arizona,success,America/Phoenix,85260
carfax-summer.net,"AS26496 GoDaddy.com, LLC",Scottsdale,United States,US,"GoDaddy.com, LLC",33.6119,-111.8906,"GoDaddy.com, LLC",50.63.202.55,AZ,Arizona,success,America/Phoenix,85260
carfax-summer.org,"AS26496 GoDaddy.com, LLC",Scottsdale,United States,US,"GoDaddy.com, LLC",33.6119,-111.8906,"GoDaddy.com, LLC",50.63.202.51,AZ,Arizona,success,America/Phoenix,85260
carfax-summer.info,"AS26496 GoDaddy.com, LLC",Scottsdale,United States,US,"GoDaddy.com, LLC",33.6119,-111.8906,"GoDaddy.com, LLC",50.63.202.34,AZ,Arizona,success,America/Phoenix,85260
carfax-sweden.com,AS62 CyrusOne LLC,Victoria,United States,US,CyrusOne LLC,28.8053,-97.0036,CyrusOne LLC,216.117.25.99,TX,Texas,success,America/Chicago,77903
carfax-sweden.net,AS62 CyrusOne LLC,Victoria,United States,US,CyrusOne LLC,28.8053,-97.0036,CyrusOne LLC,216.117.25.99,TX,Texas,success,America/Chicago,77903
carfax-sweden.org,AS62 CyrusOne LLC,Victoria,United States,US,CyrusOne LLC,28.8053,-97.0036,CyrusOne LLC,216.117.25.99,TX,Texas,success,America/Chicago,77903
carfax-sweden.biz,AS62 CyrusOne LLC,Victoria,United States,US,CyrusOne LLC,28.8053,-97.0036,CyrusOne LLC,216.117.25.99,TX,Texas,success,America/Chicago,77903
carfax-sweden.info,AS62 CyrusOne LLC,Victoria,United States,US,CyrusOne LLC,28.8053,-97.0036,CyrusOne LLC,216.117.25.99,TX,Texas,success,America/Chicago,77903
carfax-tutors.com,AS8560 1&1 Internet SE,Offenbach,Germany,DE,1&1 Internet AG,50.0748,8.75573,1&1 Internet AG,217.160.223.7,HE,Hesse,success,Europe/Berlin,
carfax-tutors.net,AS8560 1&1 Internet SE,Bonn,Germany,DE,1&1 Internet AG,50.7374,7.09821,1&1 Internet AG,82.165.82.28,NW,North Rhine-Westphalia,success,Europe/Berlin,
carfax-tutors.org,AS8560 1&1 Internet SE,Offenbach,Germany,DE,1&1 Internet AG,50.0748,8.75573,1&1 Internet AG,217.160.223.109,HE,Hesse,success,Europe/Berlin,
carfax-tutors.info,AS8560 1&1 Internet SE,Offenbach,Germany,DE,1&1 Internet AG,50.0748,8.75573,1&1 Internet AG,217.160.223.109,HE,Hesse,success,Europe/Berlin,
carfax-uae.com,AS8560 1&1 Internet SE,London,United Kingdom,GB,1&1 Internet AG,51.5074,-0.127758,1&1 Internet AG,82.165.22.132,ENG,England,success,Europe/London,
carfax-uae.net,AS8560 1&1 Internet SE,London,United Kingdom,GB,1&1 Internet AG,51.5074,-0.127758,1&1 Internet AG,82.165.22.132,ENG,England,success,Europe/London,
carfax-uae.org,AS8560 1&1 Internet SE,London,United Kingdom,GB,1&1 Internet AG,51.5074,-0.127758,1&1 Internet AG,82.165.22.132,ENG,England,success,Europe/London,
carfax-us.com,AS62 CyrusOne LLC,Victoria,United States,US,CyrusOne LLC,28.8053,-97.0036,CyrusOne LLC,216.117.25.99,TX,Texas,success,America/Chicago,77903
carfax-used-vehicle-history-reports.com,AS62 CyrusOne LLC,Victoria,United States,US,CyrusOne LLC,28.8053,-97.0036,CyrusOne LLC,216.117.25.99,TX,Texas,success,America/Chicago,77903
carfax-va.com,AS62 CyrusOne LLC,Victoria,United States,US,CyrusOne LLC,28.8053,-97.0036,CyrusOne LLC,216.117.25.99,TX,Texas,success,America/Chicago,77903
carfax-vhs.com,AS62 CyrusOne LLC,Victoria,United States,US,CyrusOne LLC,28.8053,-97.0036,CyrusOne LLC,216.117.25.99,TX,Texas,success,America/Chicago,77903
carfax-yukon.com,AS62 CyrusOne LLC,Victoria,United States,US,CyrusOne LLC,28.8053,-97.0036,CyrusOne LLC,216.117.25.99,TX,Texas,success,America/Chicago,77903
carfax1.com,AS62 CyrusOne LLC,Victoria,United States,US,CyrusOne LLC,28.8053,-97.0036,CyrusOne LLC,216.117.25.99,TX,Texas,success,America/Chicago,77903
carfax1.net,AS62 CyrusOne LLC,Victoria,United States,US,CyrusOne LLC,28.8053,-97.0036,CyrusOne LLC,216.117.25.99,TX,Texas,success,America/Chicago,77903
carfax1.org,AS62 CyrusOne LLC,Victoria,United States,US,CyrusOne LLC,28.8053,-97.0036,CyrusOne LLC,216.117.25.99,TX,Texas,success,America/Chicago,77903
carfax1-owner.com,AS62 CyrusOne LLC,Victoria,United States,US,CyrusOne LLC,28.8053,-97.0036,CyrusOne LLC,216.117.25.11,TX,Texas,success,America/Chicago,77903
carfax1-owner.net,AS62 CyrusOne LLC,Victoria,United States,US,CyrusOne LLC,28.8053,-97.0036,CyrusOne LLC,216.117.25.11,TX,Texas,success,America/Chicago,77903
carfax1-owner.org,AS62 CyrusOne LLC,Victoria,United States,US,CyrusOne LLC,28.8053,-97.0036,CyrusOne LLC,216.117.25.11,TX,Texas,success,America/Chicago,77903
carfax1-owner.biz,AS62 CyrusOne LLC,Victoria,United States,US,CyrusOne LLC,28.8053,-97.0036,CyrusOne LLC,216.117.25.11,TX,Texas,success,America/Chicago,77903
carfax1-owner.info,AS62 CyrusOne LLC,Victoria,United States,US,CyrusOne LLC,28.8053,-97.0036,CyrusOne LLC,216.117.25.11,TX,Texas,success,America/Chicago,77903
carfax1-ownercar.com,AS62 CyrusOne LLC,Victoria,United States,US,CyrusOne LLC,28.8053,-97.0036,CyrusOne LLC,216.117.25.11,TX,Texas,success,America/Chicago,77903
carfax1-ownercar.net,AS62 CyrusOne LLC,Victoria,United States,US,CyrusOne LLC,28.8053,-97.0036,CyrusOne LLC,216.117.25.11,TX,Texas,success,America/Chicago,77903
carfax1-ownercar.org,AS62 CyrusOne LLC,Victoria,United States,US,CyrusOne LLC,28.8053,-97.0036,CyrusOne LLC,216.117.25.11,TX,Texas,success,America/Chicago,77903
carfax1-ownercar.biz,AS62 CyrusOne LLC,Victoria,United States,US,CyrusOne LLC,28.8053,-97.0036,CyrusOne LLC,216.117.25.11,TX,Texas,success,America/Chicago,77903
carfax1-ownercar.info,AS62 CyrusOne LLC,Victoria,United States,US,CyrusOne LLC,28.8053,-97.0036,CyrusOne LLC,216.117.25.11,TX,Texas,success,America/Chicago,77903
carfax1-ownercars.com,AS62 CyrusOne LLC,Victoria,United States,US,CyrusOne LLC,28.8053,-97.0036,CyrusOne LLC,216.117.25.11,TX,Texas,success,America/Chicago,77903
carfax1-ownercars.net,AS62 CyrusOne LLC,Victoria,United States,US,CyrusOne LLC,28.8053,-97.0036,CyrusOne LLC,216.117.25.11,TX,Texas,success,America/Chicago,77903
carfax1-ownercars.org,AS62 CyrusOne LLC,Victoria,United States,US,CyrusOne LLC,28.8053,-97.0036,CyrusOne LLC,216.117.25.11,TX,Texas,success,America/Chicago,77903
carfax1-ownercars.biz,AS62 CyrusOne LLC,Victoria,United States,US,CyrusOne LLC,28.8053,-97.0036,CyrusOne LLC,216.117.25.11,TX,Texas,success,America/Chicago,77903
carfax1-ownercars.info,AS62 CyrusOne LLC,Victoria,United States,US,CyrusOne LLC,28.8053,-97.0036,CyrusOne LLC,216.117.25.11,TX,Texas,success,America/Chicago,77903
carfax1-ownersale.com,AS62 CyrusOne LLC,Victoria,United States,US,CyrusOne LLC,28.8053,-97.0036,CyrusOne LLC,216.117.25.11,TX,Texas,success,America/Chicago,77903
carfax1-ownersale.net,AS62 CyrusOne LLC,Victoria,United States,US,CyrusOne LLC,28.8053,-97.0036,CyrusOne LLC,216.117.25.11,TX,Texas,success,America/Chicago,77903
carfax1-ownersale.org,AS62 CyrusOne LLC,Victoria,United States,US,CyrusOne LLC,28.8053,-97.0036,CyrusOne LLC,216.117.25.11,TX,Texas,success,America/Chicago,77903
carfax1-ownersale.biz,AS62 CyrusOne LLC,Victoria,United States,US,CyrusOne LLC,28.8053,-97.0036,CyrusOne LLC,216.117.25.11,TX,Texas,success,America/Chicago,77903
carfax1-ownersale.info,AS62 CyrusOne LLC,Victoria,United States,US,CyrusOne LLC,28.8053,-97.0036,CyrusOne LLC,216.117.25.11,TX,Texas,success,America/Chicago,77903
carfax1-ownervehicle.com,AS62 CyrusOne LLC,Victoria,United States,US,CyrusOne LLC,28.8053,-97.0036,CyrusOne LLC,216.117.25.11,TX,Texas,success,America/Chicago,77903
carfax1-ownervehicle.net,AS62 CyrusOne LLC,Victoria,United States,US,CyrusOne LLC,28.8053,-97.0036,CyrusOne LLC,216.117.25.11,TX,Texas,success,America/Chicago,77903
carfax1-ownervehicle.org,AS62 CyrusOne LLC,Victoria,United States,US,CyrusOne LLC,28.8053,-97.0036,CyrusOne LLC,216.117.25.11,TX,Texas,success,America/Chicago,77903
carfax1-ownervehicle.biz,AS62 CyrusOne LLC,Victoria,United States,US,CyrusOne LLC,28.8053,-97.0036,CyrusOne LLC,216.117.25.11,TX,Texas,success,America/Chicago,77903
carfax1-ownervehicle.info,AS62 CyrusOne LLC,Victoria,United States,US,CyrusOne LLC,28.8053,-97.0036,CyrusOne LLC,216.117.25.11,TX,Texas,success,America/Chicago,77903
carfax1-ownervehicles.com,AS62 CyrusOne LLC,Victoria,United States,US,CyrusOne LLC,28.8053,-97.0036,CyrusOne LLC,216.117.25.11,TX,Texas,success,America/Chicago,77903
carfax1-ownervehicles.net,AS62 CyrusOne LLC,Victoria,United States,US,CyrusOne LLC,28.8053,-97.0036,CyrusOne LLC,216.117.25.11,TX,Texas,success,America/Chicago,77903
carfax1-ownervehicles.org,AS62 CyrusOne LLC,Victoria,United States,US,CyrusOne LLC,28.8053,-97.0036,CyrusOne LLC,216.117.25.11,TX,Texas,success,America/Chicago,77903
carfax1-ownervehicles.biz,AS62 CyrusOne LLC,Victoria,United States,US,CyrusOne LLC,28.8053,-97.0036,CyrusOne LLC,216.117.25.11,TX,Texas,success,America/Chicago,77903
carfax1-ownervehicles.info,AS62 CyrusOne LLC,Victoria,United States,US,CyrusOne LLC,28.8053,-97.0036,CyrusOne LLC,216.117.25.11,TX,Texas,success,America/Chicago,77903
carfax1owner.com,AS62 CyrusOne LLC,Victoria,United States,US,CyrusOne LLC,28.8053,-97.0036,CyrusOne LLC,216.117.25.11,TX,Texas,success,America/Chicago,77903
carfax1ownercar.com,AS62 CyrusOne LLC,Victoria,United States,US,CyrusOne LLC,28.8053,-97.0036,CyrusOne LLC,216.117.25.11,TX,Texas,success,America/Chicago,77903
carfax1ownercar.net,AS62 CyrusOne LLC,Victoria,United States,US,CyrusOne LLC,28.8053,-97.0036,CyrusOne LLC,216.117.25.11,TX,Texas,success,America/Chicago,77903
carfax1ownercar.org,AS62 CyrusOne LLC,Victoria,United States,US,CyrusOne LLC,28.8053,-97.0036,CyrusOne LLC,216.117.25.11,TX,Texas,success,America/Chicago,77903
carfax1ownercar.biz,AS62 CyrusOne LLC,Victoria,United States,US,CyrusOne LLC,28.8053,-97.0036,CyrusOne LLC,216.117.25.11,TX,Texas,success,America/Chicago,77903
carfax1ownercar.info,AS62 CyrusOne LLC,Victoria,United States,US,CyrusOne LLC,28.8053,-97.0036,CyrusOne LLC,216.117.25.11,TX,Texas,success,America/Chicago,77903
carfax1ownercars.com,AS62 CyrusOne LLC,Victoria,United States,US,CyrusOne LLC,28.8053,-97.0036,CyrusOne LLC,216.117.25.11,TX,Texas,success,America/Chicago,77903
carfax1ownercars.net,AS62 CyrusOne LLC,Victoria,United States,US,CyrusOne LLC,28.8053,-97.0036,CyrusOne LLC,216.117.25.11,TX,Texas,success,America/Chicago,77903
carfax1ownercars.org,AS62 CyrusOne LLC,Victoria,United States,US,CyrusOne LLC,28.8053,-97.0036,CyrusOne LLC,216.117.25.11,TX,Texas,success,America/Chicago,77903
carfax1ownercars.biz,AS62 CyrusOne LLC,Victoria,United States,US,CyrusOne LLC,28.8053,-97.0036,CyrusOne LLC,216.117.25.11,TX,Texas,success,America/Chicago,77903
carfax1ownercars.info,AS62 CyrusOne LLC,Victoria,United States,US,CyrusOne LLC,28.8053,-97.0036,CyrusOne LLC,216.117.25.11,TX,Texas,success,America/Chicago,77903
carfax1ownersale.com,AS62 CyrusOne LLC,Victoria,United States,US,CyrusOne LLC,28.8053,-97.0036,CyrusOne LLC,216.117.25.11,TX,Texas,success,America/Chicago,77903
carfax1ownersale.net,AS62 CyrusOne LLC,Victoria,United States,US,CyrusOne LLC,28.8053,-97.0036,CyrusOne LLC,216.117.25.11,TX,Texas,success,America/Chicago,77903
carfax1ownersale.org,AS62 CyrusOne LLC,Victoria,United States,US,CyrusOne LLC,28.8053,-97.0036,CyrusOne LLC,216.117.25.11,TX,Texas,success,America/Chicago,77903
carfax1ownersale.biz,AS62 CyrusOne LLC,Victoria,United States,US,CyrusOne LLC,28.8053,-97.0036,CyrusOne LLC,216.117.25.11,TX,Texas,success,America/Chicago,77903
carfax1ownersale.info,AS62 CyrusOne LLC,Victoria,United States,US,CyrusOne LLC,28.8053,-97.0036,CyrusOne LLC,216.117.25.11,TX,Texas,success,America/Chicago,77903
carfax1ownervehicle.com,AS62 CyrusOne LLC,Victoria,United States,US,CyrusOne LLC,28.8053,-97.0036,CyrusOne LLC,216.117.25.11,TX,Texas,success,America/Chicago,77903
carfax1ownervehicle.net,AS62 CyrusOne LLC,Victoria,United States,US,CyrusOne LLC,28.8053,-97.0036,CyrusOne LLC,216.117.25.11,TX,Texas,success,America/Chicago,77903
carfax1ownervehicle.org,AS62 CyrusOne LLC,Victoria,United States,US,CyrusOne LLC,28.8053,-97.0036,CyrusOne LLC,216.117.25.11,TX,Texas,success,America/Chicago,77903
carfax1ownervehicle.biz,AS62 CyrusOne LLC,Victoria,United States,US,CyrusOne LLC,28.8053,-97.0036,CyrusOne LLC,216.117.25.11,TX,Texas,success,America/Chicago,77903
carfax1ownervehicle.info,AS62 CyrusOne LLC,Victoria,United States,US,CyrusOne LLC,28.8053,-97.0036,CyrusOne LLC,216.117.25.11,TX,Texas,success,America/Chicago,77903
carfax1ownervehicles.com,AS62 CyrusOne LLC,Victoria,United States,US,CyrusOne LLC,28.8053,-97.0036,CyrusOne LLC,216.117.25.11,TX,Texas,success,America/Chicago,77903
carfax1ownervehicles.net,AS62 CyrusOne LLC,Victoria,United States,US,CyrusOne LLC,28.8053,-97.0036,CyrusOne LLC,216.117.25.11,TX,Texas,success,America/Chicago,77903
carfax1ownervehicles.org,AS62 CyrusOne LLC,Victoria,United States,US,CyrusOne LLC,28.8053,-97.0036,CyrusOne LLC,216.117.25.11,TX,Texas,success,America/Chicago,77903
carfax1ownervehicles.biz,AS62 CyrusOne LLC,Victoria,United States,US,CyrusOne LLC,28.8053,-97.0036,CyrusOne LLC,216.117.25.11,TX,Texas,success,America/Chicago,77903
carfax1ownervehicles.info,AS62 CyrusOne LLC,Victoria,United States,US,CyrusOne LLC,28.8053,-97.0036,CyrusOne LLC,216.117.25.11,TX,Texas,success,America/Chicago,77903
carfax250.com,AS62 CyrusOne LLC,Victoria,United States,US,CyrusOne LLC,28.8053,-97.0036,CyrusOne LLC,216.117.25.99,TX,Texas,success,America/Chicago,77903
carfax4cu.com,AS62 CyrusOne LLC,Victoria,United States,US,CyrusOne LLC,28.8053,-97.0036,CyrusOne LLC,216.117.25.99,TX,Texas,success,America/Chicago,77903
carfax4insurers.com,AS62 CyrusOne LLC,Victoria,United States,US,CyrusOne LLC,28.8053,-97.0036,CyrusOne LLC,216.117.25.99,TX,Texas,success,America/Chicago,77903
carfax4less.com,AS17511 K-Opticom Corporation,Hyogo,Japan,JP,K-Opticom Corporation,43.3667,144.4333,K-Opticom Corporation,60.56.228.138,01,Hokkaido,success,Asia/Tokyo,
carfax4police.com,AS62 CyrusOne LLC,Victoria,United States,US,CyrusOne LLC,28.8053,-97.0036,CyrusOne LLC,216.117.25.43,TX,Texas,success,America/Chicago,77903
carfax500.com,AS62 CyrusOne LLC,Victoria,United States,US,CyrusOne LLC,28.8053,-97.0036,CyrusOne LLC,216.117.25.99,TX,Texas,success,America/Chicago,77903
carfaxabbey.com,AS20401 Hostway Corporation,Chicago,United States,US,Affinity Internet,41.8824,-87.6376,Hostway Corporation,207.150.212.64,IL,Illinois,success,America/Chicago,60606
carfaxabbey.net,"AS26496 GoDaddy.com, LLC",Scottsdale,United States,US,"GoDaddy.com, LLC",33.6119,-111.8906,"GoDaddy.com, LLC",166.62.84.214,AZ,Arizona,success,America/Phoenix,85260
carfaxabbey.org,AS44976 AZNET s.a.r.l.,La FlÃ¨che,France,FR,AZNET s.a.r.l.,47.7045,-0.0863032,AZNET s.a.r.l.,194.150.236.81,,Pays de la Loire,success,Europe/Paris,
carfaxaccidenthistory.com,AS62 CyrusOne LLC,Victoria,United States,US,CyrusOne LLC,28.8053,-97.0036,CyrusOne LLC,216.117.25.99,TX,Texas,success,America/Chicago,77903
carfaxaccidentreport.com,AS62 CyrusOne LLC,Victoria,United States,US,CyrusOne LLC,28.8053,-97.0036,CyrusOne LLC,216.117.25.99,TX,Texas,success,America/Chicago,77903
carfaxaccount.com,AS62 CyrusOne LLC,Victoria,United States,US,CyrusOne LLC,28.8053,-97.0036,CyrusOne LLC,216.117.25.99,TX,Texas,success,America/Chicago,77903
carfaxaccount.biz,AS62 CyrusOne LLC,Victoria,United States,US,CyrusOne LLC,28.8053,-97.0036,CyrusOne LLC,216.117.25.99,TX,Texas,success,America/Chicago,77903
carfaxaccount.info,AS62 CyrusOne LLC,Victoria,United States,US,CyrusOne LLC,28.8053,-97.0036,CyrusOne LLC,216.117.25.99,TX,Texas,success,America/Chicago,77903
carfaxadvantage.com,AS62 CyrusOne LLC,Victoria,United States,US,CyrusOne LLC,28.8053,-97.0036,CyrusOne LLC,216.117.25.99,TX,Texas,success,America/Chicago,77903
carfaxak.com,AS62 CyrusOne LLC,Victoria,United States,US,CyrusOne LLC,28.8053,-97.0036,CyrusOne LLC,216.117.25.99,TX,Texas,success,America/Chicago,77903
carfaxalaska.com,AS62 CyrusOne LLC,Victoria,United States,US,CyrusOne LLC,28.8053,-97.0036,CyrusOne LLC,216.117.25.99,TX,Texas,success,America/Chicago,77903
carfaxamerica.com,AS62 CyrusOne LLC,Victoria,United States,US,CyrusOne LLC,28.8053,-97.0036,CyrusOne LLC,216.117.25.99,TX,Texas,success,America/Chicago,77903
carfaxassets.com,AS5517 CSL Computer Service Langenbach GmbH,Dusseldorf,Germany,DE,CSL Computer Service Langenbach GmbH,51.2302,6.7135,CSL Computer Service Langenbach GmbH,194.245.101.92,NW,North Rhine-Westphalia,success,Europe/Berlin,40549
carfaxatlanta.com,"AS26496 GoDaddy.com, LLC",Scottsdale,United States,US,"GoDaddy.com, LLC",33.6119,-111.8906,"GoDaddy.com, LLC",184.168.221.9,AZ,Arizona,success,America/Phoenix,85260
carfaxauction.com,AS62 CyrusOne LLC,Victoria,United States,US,CyrusOne LLC,28.8053,-97.0036,CyrusOne LLC,216.117.25.99,TX,Texas,success,America/Chicago,77903
carfaxauctions.com,AS62 CyrusOne LLC,Victoria,United States,US,CyrusOne LLC,28.8053,-97.0036,CyrusOne LLC,216.117.25.99,TX,Texas,success,America/Chicago,77903
carfaxaustria.com,AS62 CyrusOne LLC,Victoria,United States,US,CyrusOne LLC,28.8053,-97.0036,CyrusOne LLC,216.117.25.99,TX,Texas,success,America/Chicago,77903
carfaxaustria.net,AS62 CyrusOne LLC,Victoria,United States,US,CyrusOne LLC,28.8053,-97.0036,CyrusOne LLC,216.117.25.99,TX,Texas,success,America/Chicago,77903
carfaxaustria.org,AS62 CyrusOne LLC,Victoria,United States,US,CyrusOne LLC,28.8053,-97.0036,CyrusOne LLC,216.117.25.99,TX,Texas,success,America/Chicago,77903
carfaxaustria.biz,AS62 CyrusOne LLC,Victoria,United States,US,CyrusOne LLC,28.8053,-97.0036,CyrusOne LLC,216.117.25.99,TX,Texas,success,America/Chicago,77903
carfaxaustria.info,AS62 CyrusOne LLC,Victoria,United States,US,CyrusOne LLC,28.8053,-97.0036,CyrusOne LLC,216.117.25.99,TX,Texas,success,America/Chicago,77903
carfaxauto.com,AS27357 Rackspace Ltd.,San Antonio,United States,US,Rackspace Hosting,29.4889,-98.3987,Rackspace Hosting,172.99.89.208,TX,Texas,success,America/Chicago,78218
carfaxautocredit.com,"AS26496 GoDaddy.com, LLC",Scottsdale,United States,US,"GoDaddy.com, LLC",33.6119,-111.8906,"GoDaddy.com, LLC",184.168.221.39,AZ,Arizona,success,America/Phoenix,85260
carfaxautofinance.com,AS62 CyrusOne LLC,Victoria,United States,US,CyrusOne LLC,28.8053,-97.0036,CyrusOne LLC,216.117.25.99,TX,Texas,success,America/Chicago,77903
carfaxautoinspection.com,AS62 CyrusOne LLC,Victoria,United States,US,CyrusOne LLC,28.8053,-97.0036,CyrusOne LLC,216.117.25.99,TX,Texas,success,America/Chicago,77903
carfaxautoinspection.net,AS62 CyrusOne LLC,Victoria,United States,US,CyrusOne LLC,28.8053,-97.0036,CyrusOne LLC,216.117.25.99,TX,Texas,success,America/Chicago,77903
carfaxautoinspection.org,AS62 CyrusOne LLC,Victoria,United States,US,CyrusOne LLC,28.8053,-97.0036,CyrusOne LLC,216.117.25.99,TX,Texas,success,America/Chicago,77903
carfaxautoinspection.biz,AS62 CyrusOne LLC,Victoria,United States,US,CyrusOne LLC,28.8053,-97.0036,CyrusOne LLC,216.117.25.99,TX,Texas,success,America/Chicago,77903
carfaxautoinspection.info,AS62 CyrusOne LLC,Victoria,United States,US,CyrusOne LLC,28.8053,-97.0036,CyrusOne LLC,216.117.25.99,TX,Texas,success,America/Chicago,77903
carfaxautoloans.com,"AS26496 GoDaddy.com, LLC",Scottsdale,United States,US,"GoDaddy.com, LLC",33.6119,-111.8906,"GoDaddy.com, LLC",184.168.221.39,AZ,Arizona,success,America/Phoenix,85260
carfaxautomart.com,"AS26496 GoDaddy.com, LLC",Scottsdale,United States,US,"GoDaddy.com, LLC",33.6119,-111.8906,"GoDaddy.com, LLC",50.63.202.14,AZ,Arizona,success,America/Phoenix,85260
carfaxautomotive.com,"AS26496 GoDaddy.com, LLC",Scottsdale,United States,US,"GoDaddy.com, LLC",33.6119,-111.8906,"GoDaddy.com, LLC",184.168.221.39,AZ,Arizona,success,America/Phoenix,85260
carfaxautoparts.com,AS15169 Google Inc.,Mountain View,United States,US,Google Cloud,37.386,-122.0838,Google Cloud,23.236.62.147,CA,California,success,America/Los_Angeles,94035
carfaxautoreport.com,AS62 CyrusOne LLC,Victoria,United States,US,CyrusOne LLC,28.8053,-97.0036,CyrusOne LLC,216.117.25.99,TX,Texas,success,America/Chicago,77903
carfaxautoreport.net,AS62 CyrusOne LLC,Victoria,United States,US,CyrusOne LLC,28.8053,-97.0036,CyrusOne LLC,216.117.25.99,TX,Texas,success,America/Chicago,77903
carfaxautoreport.org,AS62 CyrusOne LLC,Victoria,United States,US,CyrusOne LLC,28.8053,-97.0036,CyrusOne LLC,216.117.25.99,TX,Texas,success,America/Chicago,77903
carfaxautoreports.com,AS62 CyrusOne LLC,Victoria,United States,US,CyrusOne LLC,28.8053,-97.0036,CyrusOne LLC,216.117.25.99,TX,Texas,success,America/Chicago,77903
carfaxautoreports.net,AS62 CyrusOne LLC,Victoria,United States,US,CyrusOne LLC,28.8053,-97.0036,CyrusOne LLC,216.117.25.99,TX,Texas,success,America/Chicago,77903
carfaxautoreports.org,AS62 CyrusOne LLC,Victoria,United States,US,CyrusOne LLC,28.8053,-97.0036,CyrusOne LLC,216.117.25.99,TX,Texas,success,America/Chicago,77903
carfaxautos.com,"AS26496 GoDaddy.com, LLC",Scottsdale,United States,US,"GoDaddy.com, LLC",33.6119,-111.8906,"GoDaddy.com, LLC",184.168.221.28,AZ,Arizona,success,America/Phoenix,85260
carfaxautosales.com,"AS26496 GoDaddy.com, LLC",Scottsdale,United States,US,"GoDaddy.com, LLC",33.6119,-111.8906,"GoDaddy.com, LLC",184.168.221.3,AZ,Arizona,success,America/Phoenix,85260
carfaxautowholesale.com,AS62 CyrusOne LLC,Victoria,United States,US,CyrusOne LLC,28.8053,-97.0036,CyrusOne LLC,216.117.25.99,TX,Texas,success,America/Chicago,77903
carfaxazerbaijan.com,AS8560 1&1 Internet SE,Warsaw,Poland,PL,1&1 Internet AG,52.2297,21.0122,1&1 Internet AG,217.160.231.25,MZ,Masovian Voivodeship,success,Europe/Warsaw,
carfaxbaku.com,AS8560 1&1 Internet SE,Warsaw,Poland,PL,1&1 Internet AG,52.2297,21.0122,1&1 Internet AG,217.160.231.25,MZ,Masovian Voivodeship,success,Europe/Warsaw,
carfaxbc.com,AS62 CyrusOne LLC,Victoria,United States,US,CyrusOne LLC,28.8053,-97.0036,CyrusOne LLC,216.117.25.99,TX,Texas,success,America/Chicago,77903
carfaxbearings.com,AS8560 1&1 Internet SE,Gloucester,United Kingdom,GB,1&1 Internet AG,51.8333,-2.25,1&1 Internet AG,88.208.252.233,ENG,England,success,Europe/London,GL1
carfaxbig.com,AS62 CyrusOne LLC,Victoria,United States,US,CyrusOne LLC,28.8053,-97.0036,CyrusOne LLC,216.117.25.19,TX,Texas,success,America/Chicago,77903
carfaxbig.net,AS62 CyrusOne LLC,Victoria,United States,US,CyrusOne LLC,28.8053,-97.0036,CyrusOne LLC,216.117.25.99,TX,Texas,success,America/Chicago,77903
carfaxbig.org,AS62 CyrusOne LLC,Victoria,United States,US,CyrusOne LLC,28.8053,-97.0036,CyrusOne LLC,216.117.25.99,TX,Texas,success,America/Chicago,77903
carfaxbig.biz,AS62 CyrusOne LLC,Victoria,United States,US,CyrusOne LLC,28.8053,-97.0036,CyrusOne LLC,216.117.25.99,TX,Texas,success,America/Chicago,77903
carfaxbig.info,AS62 CyrusOne LLC,Victoria,United States,US,CyrusOne LLC,28.8053,-97.0036,CyrusOne LLC,216.117.25.99,TX,Texas,success,America/Chicago,77903
carfaxbilling.com,AS40034 Confluence Networks Inc,Freienbach (PfÃ¤ffikon),Switzerland,CH,Rook Media GmbH,47.2016,8.77734,Rook Media GmbH,141.8.224.93,,Zurich,success,Europe/Zurich,
carfaxbilltrust.com,AS61969 Team Internet AG,Munich (Altstadt-Lehel),Germany,DE,Team Internet AG,48.1333,11.5842,Team Internet AG,185.53.179.8,,Bavaria,success,Europe/Berlin,
carfaxbulgaria.com,AS62 CyrusOne LLC,Victoria,United States,US,CyrusOne LLC,28.8053,-97.0036,CyrusOne LLC,216.117.25.99,TX,Texas,success,America/Chicago,77903
carfaxbulgaria.net,AS62 CyrusOne LLC,Victoria,United States,US,CyrusOne LLC,28.8053,-97.0036,CyrusOne LLC,216.117.25.99,TX,Texas,success,America/Chicago,77903
carfaxbulgaria.org,AS62 CyrusOne LLC,Victoria,United States,US,CyrusOne LLC,28.8053,-97.0036,CyrusOne LLC,216.117.25.99,TX,Texas,success,America/Chicago,77903
carfaxbulgaria.biz,AS62 CyrusOne LLC,Victoria,United States,US,CyrusOne LLC,28.8053,-97.0036,CyrusOne LLC,216.117.25.99,TX,Texas,success,America/Chicago,77903
carfaxbulgaria.info,AS62 CyrusOne LLC,Victoria,United States,US,CyrusOne LLC,28.8053,-97.0036,CyrusOne LLC,216.117.25.99,TX,Texas,success,America/Chicago,77903
carfaxbuy.com,AS15169 Google Inc.,Mountain View,United States,US,Google,37.4192,-122.0574,Google,216.239.36.21,CA,California,success,America/Los_Angeles,94043
carfaxbuyback.com,"AS19871 Network Solutions, LLC",Jacksonville,United States,US,Register.com,30.1438,-81.5401,"Network Solutions, LLC",216.21.224.199,FL,Florida,success,America/New_York,32258
carfaxbuyer.com,"AS26496 GoDaddy.com, LLC",Scottsdale,United States,US,"GoDaddy.com, LLC",33.6119,-111.8906,"GoDaddy.com, LLC",50.63.202.82,AZ,Arizona,success,America/Phoenix,85260
carfaxc.com,AS62 CyrusOne LLC,Victoria,United States,US,CyrusOne LLC,28.8053,-97.0036,CyrusOne LLC,216.117.25.99,TX,Texas,success,America/Chicago,77903
carfaxca.com,AS43350 NForce Entertainment B.V.,Amsterdam,Netherlands,NL,NFOrce Entertainment B.V.,52.3702,4.89517,NFOrce Entertainment B.V.,77.81.120.37,NH,North Holland,success,Europe/Amsterdam,
carfaxcanada.com,AS62 CyrusOne LLC,Victoria,United States,US,CyrusOne LLC,28.8053,-97.0036,CyrusOne LLC,216.117.25.99,TX,Texas,success,America/Chicago,77903
carfaxcanada.net,AS62 CyrusOne LLC,Victoria,United States,US,CyrusOne LLC,28.8053,-97.0036,CyrusOne LLC,216.117.25.99,TX,Texas,success,America/Chicago,77903
carfaxcanada.org,AS62 CyrusOne LLC,Victoria,United States,US,CyrusOne LLC,28.8053,-97.0036,CyrusOne LLC,216.117.25.99,TX,Texas,success,America/Chicago,77903
carfaxcanada.biz,AS62 CyrusOne LLC,Victoria,United States,US,CyrusOne LLC,28.8053,-97.0036,CyrusOne LLC,216.117.25.99,TX,Texas,success,America/Chicago,77903
carfaxcanada.info,AS62 CyrusOne LLC,Victoria,United States,US,CyrusOne LLC,28.8053,-97.0036,CyrusOne LLC,216.117.25.99,TX,Texas,success,America/Chicago,77903
carfaxcarcredit.com,"AS26496 GoDaddy.com, LLC",Scottsdale,United States,US,"GoDaddy.com, LLC",33.6119,-111.8906,"GoDaddy.com, LLC",184.168.221.39,AZ,Arizona,success,America/Phoenix,85260
carfaxcards.com,AS13213 UK-2 Limited,Canary Wharf (Poplar),United Kingdom,GB,UK2.NET,51.505,-0.0194504,UK2.NET,77.92.75.66,,England,success,Europe/London,
carfaxcarhistoryreports.com,AS62 CyrusOne LLC,Victoria,United States,US,CyrusOne LLC,28.8053,-97.0036,CyrusOne LLC,216.117.25.99,TX,Texas,success,America/Chicago,77903
carfaxcarreport.com,AS62 CyrusOne LLC,Victoria,United States,US,CyrusOne LLC,28.8053,-97.0036,CyrusOne LLC,216.117.25.99,TX,Texas,success,America/Chicago,77903
carfaxcars.com,AS62 CyrusOne LLC,Victoria,United States,US,CyrusOne LLC,28.8053,-97.0036,CyrusOne LLC,216.117.25.99,TX,Texas,success,America/Chicago,77903
carfaxcars.info,AS62 CyrusOne LLC,Victoria,United States,US,CyrusOne LLC,28.8053,-97.0036,CyrusOne LLC,216.117.25.99,TX,Texas,success,America/Chicago,77903
carfaxcertified.com,AS62 CyrusOne LLC,Victoria,United States,US,CyrusOne LLC,28.8053,-97.0036,CyrusOne LLC,216.117.25.99,TX,Texas,success,America/Chicago,77903
carfaxcertified.net,"AS26496 GoDaddy.com, LLC",Scottsdale,United States,US,"GoDaddy.com, LLC",33.6119,-111.8906,"GoDaddy.com, LLC",50.63.202.54,AZ,Arizona,success,America/Phoenix,85260
carfaxcertified.biz,"AS26496 GoDaddy.com, LLC",Scottsdale,United States,US,"GoDaddy.com, LLC",33.6119,-111.8906,"GoDaddy.com, LLC",50.63.202.32,AZ,Arizona,success,America/Phoenix,85260
carfaxcertifiedcars.com,AS62 CyrusOne LLC,Victoria,United States,US,CyrusOne LLC,28.8053,-97.0036,CyrusOne LLC,216.117.25.99,TX,Texas,success,America/Chicago,77903
carfaxcertifieddealers.com,AS62 CyrusOne LLC,Victoria,United States,US,CyrusOne LLC,28.8053,-97.0036,CyrusOne LLC,216.117.25.99,TX,Texas,success,America/Chicago,77903
carfaxchecked.com,AS62 CyrusOne LLC,Victoria,United States,US,CyrusOne LLC,28.8053,-97.0036,CyrusOne LLC,216.117.25.99,TX,Texas,success,America/Chicago,77903
carfaxcheckedcars.com,AS62 CyrusOne LLC,Victoria,United States,US,CyrusOne LLC,28.8053,-97.0036,CyrusOne LLC,216.117.25.99,TX,Texas,success,America/Chicago,77903
carfaxchronicles.com,"AS22612 Namecheap, Inc.",Los Angeles,United States,US,Namecheap,34.0355,-118.4298,Namecheap,192.64.119.79,CA,California,success,America/Los_Angeles,90064
carfaxclassified.com,AS62 CyrusOne LLC,Victoria,United States,US,CyrusOne LLC,28.8053,-97.0036,CyrusOne LLC,216.117.25.99,TX,Texas,success,America/Chicago,77903
carfaxclassified.biz,AS62 CyrusOne LLC,Victoria,United States,US,CyrusOne LLC,28.8053,-97.0036,CyrusOne LLC,216.117.25.99,TX,Texas,success,America/Chicago,77903
carfaxclassified.info,AS62 CyrusOne LLC,Victoria,United States,US,CyrusOne LLC,28.8053,-97.0036,CyrusOne LLC,216.117.25.99,TX,Texas,success,America/Chicago,77903
carfaxclassifieds.com,AS62 CyrusOne LLC,Victoria,United States,US,CyrusOne LLC,28.8053,-97.0036,CyrusOne LLC,216.117.25.99,TX,Texas,success,America/Chicago,77903
carfaxclassifieds.biz,AS62 CyrusOne LLC,Victoria,United States,US,CyrusOne LLC,28.8053,-97.0036,CyrusOne LLC,216.117.25.99,TX,Texas,success,America/Chicago,77903
carfaxclassifieds.info,AS62 CyrusOne LLC,Victoria,United States,US,CyrusOne LLC,28.8053,-97.0036,CyrusOne LLC,216.117.25.99,TX,Texas,success,America/Chicago,77903
carfaxclean.com,AS8560 1&1 Internet SE,Beebe,United States,US,1&1 Internet AG,35.1144,-91.9067,1&1 Internet AG,74.208.215.42,AR,Arkansas,success,America/Chicago,72012
carfaxclearance.net,AS62 CyrusOne LLC,Victoria,United States,US,CyrusOne LLC,28.8053,-97.0036,CyrusOne LLC,216.117.25.99,TX,Texas,success,America/Chicago,77903
carfaxclearance.org,AS62 CyrusOne LLC,Victoria,United States,US,CyrusOne LLC,28.8053,-97.0036,CyrusOne LLC,216.117.25.99,TX,Texas,success,America/Chicago,77903
carfaxclearance.biz,AS62 CyrusOne LLC,Victoria,United States,US,CyrusOne LLC,28.8053,-97.0036,CyrusOne LLC,216.117.25.99,TX,Texas,success,America/Chicago,77903
carfaxclearance.info,AS62 CyrusOne LLC,Victoria,United States,US,CyrusOne LLC,28.8053,-97.0036,CyrusOne LLC,216.117.25.99,TX,Texas,success,America/Chicago,77903
carfaxclose.com,AS15169 Google Inc.,Mountain View,United States,US,Google Cloud,37.386,-122.0838,Google Cloud,23.236.62.147,CA,California,success,America/Los_Angeles,94035
carfaxcollege.com,"AS26496 GoDaddy.com, LLC",Scottsdale,United States,US,"GoDaddy.com, LLC",33.6119,-111.8906,"GoDaddy.com, LLC",184.168.221.56,AZ,Arizona,success,America/Phoenix,85260
carfaxcollege.net,"AS26496 GoDaddy.com, LLC",Scottsdale,United States,US,"GoDaddy.com, LLC",33.6119,-111.8906,"GoDaddy.com, LLC",184.168.221.53,AZ,Arizona,success,America/Phoenix,85260
carfaxcollege.org,"AS26496 GoDaddy.com, LLC",Scottsdale,United States,US,"GoDaddy.com, LLC",33.6119,-111.8906,"GoDaddy.com, LLC",184.168.221.44,AZ,Arizona,success,America/Phoenix,85260
carfaxcollege.info,"AS26496 GoDaddy.com, LLC",Scottsdale,United States,US,"GoDaddy.com, LLC",33.6119,-111.8906,"GoDaddy.com, LLC",50.63.202.49,AZ,Arizona,success,America/Phoenix,85260
carfaxcollisionrepair.com,AS62 CyrusOne LLC,Victoria,United States,US,CyrusOne LLC,28.8053,-97.0036,CyrusOne LLC,216.117.25.73,TX,Texas,success,America/Chicago,77903
carfaxcom.com,AS62 CyrusOne LLC,Victoria,United States,US,CyrusOne LLC,28.8053,-97.0036,CyrusOne LLC,216.117.25.99,TX,Texas,success,America/Chicago,77903
carfaxconditionreport.com,"AS26496 GoDaddy.com, LLC",Scottsdale,United States,US,"GoDaddy.com, LLC",33.6119,-111.8906,"GoDaddy.com, LLC",107.180.2.50,AZ,Arizona,success,America/Phoenix,85260
carfaxconduit.com,AS8560 1&1 Internet SE,Offenbach,Germany,DE,1&1 Internet AG,50.0748,8.75573,1&1 Internet AG,217.160.223.7,HE,Hesse,success,Europe/Berlin,
carfaxconsignoralert.com,AS62 CyrusOne LLC,Victoria,United States,US,CyrusOne LLC,28.8053,-97.0036,CyrusOne LLC,216.117.25.99,TX,Texas,success,America/Chicago,77903
carfaxconsignoralert.net,AS62 CyrusOne LLC,Victoria,United States,US,CyrusOne LLC,28.8053,-97.0036,CyrusOne LLC,216.117.25.99,TX,Texas,success,America/Chicago,77903
carfaxconsignoralert.org,AS62 CyrusOne LLC,Victoria,United States,US,CyrusOne LLC,28.8053,-97.0036,CyrusOne LLC,216.117.25.99,TX,Texas,success,America/Chicago,77903
carfaxconsignoralert.info,AS62 CyrusOne LLC,Victoria,United States,US,CyrusOne LLC,28.8053,-97.0036,CyrusOne LLC,216.117.25.99,TX,Texas,success,America/Chicago,77903
carfaxconsultants.com,"AS26496 GoDaddy.com, LLC",Scottsdale,United States,US,"GoDaddy.com, LLC",33.6119,-111.8906,"GoDaddy.com, LLC",184.168.221.27,AZ,Arizona,success,America/Phoenix,85260
carfaxconsultants.net,"AS26496 GoDaddy.com, LLC",Scottsdale,United States,US,"GoDaddy.com, LLC",33.6119,-111.8906,"GoDaddy.com, LLC",50.63.202.30,AZ,Arizona,success,America/Phoenix,85260
carfaxconsultants.org,"AS26496 GoDaddy.com, LLC",Scottsdale,United States,US,"GoDaddy.com, LLC",33.6119,-111.8906,"GoDaddy.com, LLC",50.63.202.12,AZ,Arizona,success,America/Phoenix,85260
carfaxconsulting.com,AS197902 Hostnet B.V.,Amsterdam,Netherlands,NL,Hostnet B.V.,52.3878,4.8841,Hostnet BV Network,91.184.0.100,NH,North Holland,success,Europe/Amsterdam,1013
carfaxconsumer.net,AS62 CyrusOne LLC,Victoria,United States,US,CyrusOne LLC,28.8053,-97.0036,CyrusOne LLC,216.117.25.99,TX,Texas,success,America/Chicago,77903
carfaxcorporate.com,AS62 CyrusOne LLC,Victoria,United States,US,CyrusOne LLC,28.8053,-97.0036,CyrusOne LLC,216.117.25.99,TX,Texas,success,America/Chicago,77903
carfaxcorporate.net,AS62 CyrusOne LLC,Victoria,United States,US,CyrusOne LLC,28.8053,-97.0036,CyrusOne LLC,216.117.25.99,TX,Texas,success,America/Chicago,77903
carfaxcorporate.org,AS62 CyrusOne LLC,Victoria,United States,US,CyrusOne LLC,28.8053,-97.0036,CyrusOne LLC,216.117.25.99,TX,Texas,success,America/Chicago,77903
carfaxcorporate.biz,AS62 CyrusOne LLC,Victoria,United States,US,CyrusOne LLC,28.8053,-97.0036,CyrusOne LLC,216.117.25.99,TX,Texas,success,America/Chicago,77903
carfaxcorporate.info,AS62 CyrusOne LLC,Victoria,United States,US,CyrusOne LLC,28.8053,-97.0036,CyrusOne LLC,216.117.25.99,TX,Texas,success,America/Chicago,77903
carfaxcreation.com,"AS26496 GoDaddy.com, LLC",Scottsdale,United States,US,"GoDaddy.com, LLC",33.6119,-111.8906,"GoDaddy.com, LLC",184.168.221.55,AZ,Arizona,success,America/Phoenix,85260
carfaxcredit.com,AS62 CyrusOne LLC,Victoria,United States,US,CyrusOne LLC,28.8053,-97.0036,CyrusOne LLC,216.117.25.99,TX,Texas,success,America/Chicago,77903
carfaxczech.com,AS62 CyrusOne LLC,Victoria,United States,US,CyrusOne LLC,28.8053,-97.0036,CyrusOne LLC,216.117.25.99,TX,Texas,success,America/Chicago,77903
carfaxczech.net,AS62 CyrusOne LLC,Victoria,United States,US,CyrusOne LLC,28.8053,-97.0036,CyrusOne LLC,216.117.25.99,TX,Texas,success,America/Chicago,77903
carfaxczech.org,AS62 CyrusOne LLC,Victoria,United States,US,CyrusOne LLC,28.8053,-97.0036,CyrusOne LLC,216.117.25.99,TX,Texas,success,America/Chicago,77903
carfaxczech.biz,AS62 CyrusOne LLC,Victoria,United States,US,CyrusOne LLC,28.8053,-97.0036,CyrusOne LLC,216.117.25.99,TX,Texas,success,America/Chicago,77903
carfaxczech.info,AS62 CyrusOne LLC,Victoria,United States,US,CyrusOne LLC,28.8053,-97.0036,CyrusOne LLC,216.117.25.99,TX,Texas,success,America/Chicago,77903
carfaxczech-republic.com,AS62 CyrusOne LLC,Victoria,United States,US,CyrusOne LLC,28.8053,-97.0036,CyrusOne LLC,216.117.25.99,TX,Texas,success,America/Chicago,77903
carfaxczech-republic.net,AS62 CyrusOne LLC,Victoria,United States,US,CyrusOne LLC,28.8053,-97.0036,CyrusOne LLC,216.117.25.99,TX,Texas,success,America/Chicago,77903
carfaxczech-republic.org,AS62 CyrusOne LLC,Victoria,United States,US,CyrusOne LLC,28.8053,-97.0036,CyrusOne LLC,216.117.25.99,TX,Texas,success,America/Chicago,77903
carfaxczech-republic.biz,AS62 CyrusOne LLC,Victoria,United States,US,CyrusOne LLC,28.8053,-97.0036,CyrusOne LLC,216.117.25.99,TX,Texas,success,America/Chicago,77903
carfaxczech-republic.info,AS62 CyrusOne LLC,Victoria,United States,US,CyrusOne LLC,28.8053,-97.0036,CyrusOne LLC,216.117.25.99,TX,Texas,success,America/Chicago,77903
carfaxdealer.com,AS13768 Peer 1 Network (USA) Inc.,Atlanta,United States,US,Peer 1 Dedicated Hosting,33.748,-84.3858,Peer 1 Network (USA),216.157.88.22,GA,Georgia,success,America/New_York,30303
carfaxdealer.net,"AS701 MCI Communications Services, Inc. d/b/a Verizon Business",Felda,United States,US,Verizon Business,26.5398,-81.4356,Verizon Business,65.207.171.6,FL,Florida,success,America/New_York,33930
carfaxdealeraccount.com,AS62 CyrusOne LLC,Victoria,United States,US,CyrusOne LLC,28.8053,-97.0036,CyrusOne LLC,216.117.25.99,TX,Texas,success,America/Chicago,77903
carfaxdealeraccounts.com,AS62 CyrusOne LLC,Victoria,United States,US,CyrusOne LLC,28.8053,-97.0036,CyrusOne LLC,216.117.25.99,TX,Texas,success,America/Chicago,77903
carfaxdealerads.com,AS62 CyrusOne LLC,Victoria,United States,US,CyrusOne LLC,28.8053,-97.0036,CyrusOne LLC,216.117.25.11,TX,Texas,success,America/Chicago,77903
carfaxdealerads.net,AS62 CyrusOne LLC,Victoria,United States,US,CyrusOne LLC,28.8053,-97.0036,CyrusOne LLC,216.117.25.11,TX,Texas,success,America/Chicago,77903
carfaxdealerads.org,AS62 CyrusOne LLC,Victoria,United States,US,CyrusOne LLC,28.8053,-97.0036,CyrusOne LLC,216.117.25.11,TX,Texas,success,America/Chicago,77903
carfaxdealerads.info,AS62 CyrusOne LLC,Victoria,United States,US,CyrusOne LLC,28.8053,-97.0036,CyrusOne LLC,216.117.25.11,TX,Texas,success,America/Chicago,77903
carfaxdealerassets.com,AS5517 CSL Computer Service Langenbach GmbH,Dusseldorf,Germany,DE,CSL Computer Service Langenbach GmbH,51.2302,6.7135,CSL Computer Service Langenbach GmbH,194.245.101.92,NW,North Rhine-Westphalia,success,Europe/Berlin,40549
carfaxdealerlogin.com,AS62 CyrusOne LLC,Victoria,United States,US,CyrusOne LLC,28.8053,-97.0036,CyrusOne LLC,216.117.25.99,TX,Texas,success,America/Chicago,77903
carfaxdealerprogram.com,AS62 CyrusOne LLC,Victoria,United States,US,CyrusOne LLC,28.8053,-97.0036,CyrusOne LLC,216.117.25.99,TX,Texas,success,America/Chicago,77903
carfaxdealers.com,AS62 CyrusOne LLC,Victoria,United States,US,CyrusOne LLC,28.8053,-97.0036,CyrusOne LLC,216.117.25.99,TX,Texas,success,America/Chicago,77903
carfaxdealership.com,AS62 CyrusOne LLC,Victoria,United States,US,CyrusOne LLC,28.8053,-97.0036,CyrusOne LLC,216.117.25.99,TX,Texas,success,America/Chicago,77903
carfaxdealerships.com,AS62 CyrusOne LLC,Victoria,United States,US,CyrusOne LLC,28.8053,-97.0036,CyrusOne LLC,216.117.25.99,TX,Texas,success,America/Chicago,77903
carfaxdealersitedemo.com,AS19994 Rackspace Ltd.,San Antonio,United States,US,Rackspace Hosting,29.4889,-98.3987,Rackspace Hosting,192.237.234.24,TX,Texas,success,America/Chicago,78218
carfaxdenmark.com,AS62 CyrusOne LLC,Victoria,United States,US,CyrusOne LLC,28.8053,-97.0036,CyrusOne LLC,216.117.25.99,TX,Texas,success,America/Chicago,77903
carfaxdenmark.net,AS62 CyrusOne LLC,Victoria,United States,US,CyrusOne LLC,28.8053,-97.0036,CyrusOne LLC,216.117.25.99,TX,Texas,success,America/Chicago,77903
carfaxdenmark.org,AS62 CyrusOne LLC,Victoria,United States,US,CyrusOne LLC,28.8053,-97.0036,CyrusOne LLC,216.117.25.99,TX,Texas,success,America/Chicago,77903
carfaxdenmark.biz,AS62 CyrusOne LLC,Victoria,United States,US,CyrusOne LLC,28.8053,-97.0036,CyrusOne LLC,216.117.25.99,TX,Texas,success,America/Chicago,77903
carfaxdenmark.info,AS62 CyrusOne LLC,Victoria,United States,US,CyrusOne LLC,28.8053,-97.0036,CyrusOne LLC,216.117.25.99,TX,Texas,success,America/Chicago,77903
carfaxdental.com,"AS26496 GoDaddy.com, LLC",Scottsdale,United States,US,"GoDaddy.com, LLC",33.6119,-111.8906,"GoDaddy.com, LLC",23.229.221.194,AZ,Arizona,success,America/Phoenix,85260
carfaxdental.org,"AS26496 GoDaddy.com, LLC",Scottsdale,United States,US,"GoDaddy.com, LLC",33.6119,-111.8906,"GoDaddy.com, LLC",23.229.221.194,AZ,Arizona,success,America/Phoenix,85260
carfaxdentalpractice.com,AS8560 1&1 Internet SE,Warsaw,Poland,PL,1&1 Internet AG,52.2297,21.0122,1&1 Internet AG,217.160.233.200,MZ,Masovian Voivodeship,success,Europe/Warsaw,
carfaxdiscount.com,AS62 CyrusOne LLC,Victoria,United States,US,CyrusOne LLC,28.8053,-97.0036,CyrusOne LLC,216.117.25.99,TX,Texas,success,America/Chicago,77903
carfaxdistribution.com,AS62 CyrusOne LLC,Victoria,United States,US,CyrusOne LLC,28.8053,-97.0036,CyrusOne LLC,216.117.25.99,TX,Texas,success,America/Chicago,77903
carfaxdubai.com,AS8560 1&1 Internet SE,Offenbach,Germany,DE,1&1 Internet AG,50.0748,8.75573,1&1 Internet AG,217.160.223.7,HE,Hesse,success,Europe/Berlin,
carfaxdubai.net,AS8560 1&1 Internet SE,Warsaw,Poland,PL,1&1 Internet AG,52.2297,21.0122,1&1 Internet AG,217.160.230.201,MZ,Masovian Voivodeship,success,Europe/Warsaw,
carfaxdubai.org,AS8560 1&1 Internet SE,Warsaw,Poland,PL,1&1 Internet AG,52.2297,21.0122,1&1 Internet AG,217.160.230.201,MZ,Masovian Voivodeship,success,Europe/Warsaw,
carfaxe.com,AS60781 LeaseWeb Netherlands B.V.,Amsterdam,Netherlands,NL,LeaseWeb Netherlands B.V.,52.371,4.9041,LeaseWeb Netherlands B.V.,95.211.219.67,NH,North Holland,success,Europe/Amsterdam,1011
carfaxed.com,AS62 CyrusOne LLC,Victoria,United States,US,CyrusOne LLC,28.8053,-97.0036,CyrusOne LLC,216.117.25.99,TX,Texas,success,America/Chicago,77903
carfaxeducation.com,AS8560 1&1 Internet SE,Offenbach,Germany,DE,1&1 Internet AG,50.0748,8.75573,1&1 Internet AG,217.160.223.109,HE,Hesse,success,Europe/Berlin,
carfaxeducation.net,AS8560 1&1 Internet SE,Offenbach,Germany,DE,1&1 Internet AG,50.0748,8.75573,1&1 Internet AG,217.160.223.109,HE,Hesse,success,Europe/Berlin,
carfaxeducation.org,AS8560 1&1 Internet SE,Offenbach,Germany,DE,1&1 Internet AG,50.0748,8.75573,1&1 Internet AG,217.160.223.109,HE,Hesse,success,Europe/Berlin,
carfaxeducation.info,AS8560 1&1 Internet SE,Offenbach,Germany,DE,1&1 Internet AG,50.0748,8.75573,1&1 Internet AG,217.160.223.109,HE,Hesse,success,Europe/Berlin,
carfaxemployment.com,AS62 CyrusOne LLC,Victoria,United States,US,CyrusOne LLC,28.8053,-97.0036,CyrusOne LLC,216.117.25.99,TX,Texas,success,America/Chicago,77903
carfaxes.com,AS62 CyrusOne LLC,Victoria,United States,US,CyrusOne LLC,28.8053,-97.0036,CyrusOne LLC,216.117.25.99,TX,Texas,success,America/Chicago,77903
carfaxespanol.com,AS62 CyrusOne LLC,Victoria,United States,US,CyrusOne LLC,28.8053,-97.0036,CyrusOne LLC,216.117.25.99,TX,Texas,success,America/Chicago,77903
carfaxespanol.net,AS62 CyrusOne LLC,Victoria,United States,US,CyrusOne LLC,28.8053,-97.0036,CyrusOne LLC,216.117.25.99,TX,Texas,success,America/Chicago,77903
carfaxespanol.org,AS62 CyrusOne LLC,Victoria,United States,US,CyrusOne LLC,28.8053,-97.0036,CyrusOne LLC,216.117.25.99,TX,Texas,success,America/Chicago,77903
carfaxespanol.biz,AS62 CyrusOne LLC,Victoria,United States,US,CyrusOne LLC,28.8053,-97.0036,CyrusOne LLC,216.117.25.99,TX,Texas,success,America/Chicago,77903
carfaxespanol.info,AS62 CyrusOne LLC,Victoria,United States,US,CyrusOne LLC,28.8053,-97.0036,CyrusOne LLC,216.117.25.99,TX,Texas,success,America/Chicago,77903
carfaxessentials.com,AS33070 Rackspace Ltd.,San Antonio,United States,US,Rackspace Hosting,29.4889,-98.3987,Rackspace Hosting,174.143.53.48,TX,Texas,success,America/Chicago,78218
carfaxeurope.com,AS24611 Datacenter Luxembourg S.A.,Bettembourg,Luxembourg,LU,Datacenter Luxembourg S.A.,49.5048,6.11237,Datacenter Luxembourg S.A.,80.92.65.53,L,District de Luxembourg,success,Europe/Luxembourg,
carfaxeurope.net,AS62 CyrusOne LLC,Victoria,United States,US,CyrusOne LLC,28.8053,-97.0036,CyrusOne LLC,216.117.25.99,TX,Texas,success,America/Chicago,77903
carfaxeurope.org,AS62 CyrusOne LLC,Victoria,United States,US,CyrusOne LLC,28.8053,-97.0036,CyrusOne LLC,216.117.25.99,TX,Texas,success,America/Chicago,77903
carfaxeurope.biz,AS62 CyrusOne LLC,Victoria,United States,US,CyrusOne LLC,28.8053,-97.0036,CyrusOne LLC,216.117.25.99,TX,Texas,success,America/Chicago,77903
carfaxeurope.info,AS62 CyrusOne LLC,Victoria,United States,US,CyrusOne LLC,28.8053,-97.0036,CyrusOne LLC,216.117.25.99,TX,Texas,success,America/Chicago,77903
carfaxeverywhere.com,AS62 CyrusOne LLC,Victoria,United States,US,CyrusOne LLC,28.8053,-97.0036,CyrusOne LLC,216.117.25.19,TX,Texas,success,America/Chicago,77903
carfaxfacts.com,"AS26496 GoDaddy.com, LLC",Scottsdale,United States,US,"GoDaddy.com, LLC",33.6119,-111.8906,"GoDaddy.com, LLC",50.63.202.34,AZ,Arizona,success,America/Phoenix,85260
carfaxfinland.com,AS62 CyrusOne LLC,Victoria,United States,US,CyrusOne LLC,28.8053,-97.0036,CyrusOne LLC,216.117.25.99,TX,Texas,success,America/Chicago,77903
carfaxfinland.net,AS62 CyrusOne LLC,Victoria,United States,US,CyrusOne LLC,28.8053,-97.0036,CyrusOne LLC,216.117.25.99,TX,Texas,success,America/Chicago,77903
carfaxfinland.org,AS62 CyrusOne LLC,Victoria,United States,US,CyrusOne LLC,28.8053,-97.0036,CyrusOne LLC,216.117.25.99,TX,Texas,success,America/Chicago,77903
carfaxfinland.biz,AS62 CyrusOne LLC,Victoria,United States,US,CyrusOne LLC,28.8053,-97.0036,CyrusOne LLC,216.117.25.99,TX,Texas,success,America/Chicago,77903
carfaxfinland.info,AS62 CyrusOne LLC,Victoria,United States,US,CyrusOne LLC,28.8053,-97.0036,CyrusOne LLC,216.117.25.99,TX,Texas,success,America/Chicago,77903
carfaxfootcare.com,AS13213 UK-2 Limited,London (The Truman Brewery),United Kingdom,GB,UK2.NET,51.5217,-0.0714423,UK2.NET,77.92.73.1,,England,success,Europe/London,
carfaxforclaims.com,AS62 CyrusOne LLC,Victoria,United States,US,CyrusOne LLC,28.8053,-97.0036,CyrusOne LLC,216.117.25.19,TX,Texas,success,America/Chicago,77903
carfaxforclaims.net,AS62 CyrusOne LLC,Victoria,United States,US,CyrusOne LLC,28.8053,-97.0036,CyrusOne LLC,216.117.25.19,TX,Texas,success,America/Chicago,77903
carfaxforclaims.org,AS62 CyrusOne LLC,Victoria,United States,US,CyrusOne LLC,28.8053,-97.0036,CyrusOne LLC,216.117.25.19,TX,Texas,success,America/Chicago,77903
carfaxfordealers.com,"AS32244 Liquid Web, L.L.C",Lansing,United States,US,"Liquid Web, L.L.C",42.7257,-84.636,"Liquid Web, L.L.C",67.227.229.113,MI,Michigan,success,America/Detroit,48917
carfaxfordogs.com,"AS16509 Amazon.com, Inc.",Ashburn,United States,US,Amazon.com,39.0481,-77.4728,Amazon.com,54.231.82.89,VA,Virginia,success,America/New_York,20149
carfaxforinsurance.com,AS62 CyrusOne LLC,Victoria,United States,US,CyrusOne LLC,28.8053,-97.0036,CyrusOne LLC,216.117.25.99,TX,Texas,success,America/Chicago,77903
carfaxforinsurers.com,AS62 CyrusOne LLC,Victoria,United States,US,CyrusOne LLC,28.8053,-97.0036,CyrusOne LLC,216.117.25.99,TX,Texas,success,America/Chicago,77903
carfaxformotorcycles.com,"AS26496 GoDaddy.com, LLC",Scottsdale,United States,US,"GoDaddy.com, LLC",33.6119,-111.8906,"GoDaddy.com, LLC",184.168.221.31,AZ,Arizona,success,America/Phoenix,85260
carfaxforpolice.com,AS62 CyrusOne LLC,Victoria,United States,US,CyrusOne LLC,28.8053,-97.0036,CyrusOne LLC,216.117.25.43,TX,Texas,success,America/Chicago,77903
carfaxforsalebyowner.info,AS62 CyrusOne LLC,Victoria,United States,US,CyrusOne LLC,28.8053,-97.0036,CyrusOne LLC,216.117.25.99,TX,Texas,success,America/Chicago,77903
carfaxforsellers.com,"AS26496 GoDaddy.com, LLC",Scottsdale,United States,US,"GoDaddy.com, LLC",33.6119,-111.8906,"GoDaddy.com, LLC",184.168.221.61,AZ,Arizona,success,America/Phoenix,85260
carfaxforus.com,AS62 CyrusOne LLC,Victoria,United States,US,CyrusOne LLC,28.8053,-97.0036,CyrusOne LLC,216.117.25.99,TX,Texas,success,America/Chicago,77903
carfaxfrance.com,AS62 CyrusOne LLC,Victoria,United States,US,CyrusOne LLC,28.8053,-97.0036,CyrusOne LLC,216.117.25.99,TX,Texas,success,America/Chicago,77903
carfaxfrance.net,AS62 CyrusOne LLC,Victoria,United States,US,CyrusOne LLC,28.8053,-97.0036,CyrusOne LLC,216.117.25.99,TX,Texas,success,America/Chicago,77903
carfaxfrance.org,AS62 CyrusOne LLC,Victoria,United States,US,CyrusOne LLC,28.8053,-97.0036,CyrusOne LLC,216.117.25.99,TX,Texas,success,America/Chicago,77903
carfaxfrance.biz,AS62 CyrusOne LLC,Victoria,United States,US,CyrusOne LLC,28.8053,-97.0036,CyrusOne LLC,216.117.25.99,TX,Texas,success,America/Chicago,77903
carfaxfrance.info,AS62 CyrusOne LLC,Victoria,United States,US,CyrusOne LLC,28.8053,-97.0036,CyrusOne LLC,216.117.25.99,TX,Texas,success,America/Chicago,77903
carfaxfree.com,AS62 CyrusOne LLC,Victoria,United States,US,CyrusOne LLC,28.8053,-97.0036,CyrusOne LLC,216.117.25.99,TX,Texas,success,America/Chicago,77903
carfaxfreereport.com,AS62 CyrusOne LLC,Victoria,United States,US,CyrusOne LLC,28.8053,-97.0036,CyrusOne LLC,216.117.25.99,TX,Texas,success,America/Chicago,77903
carfaxgermany.com,AS62 CyrusOne LLC,Victoria,United States,US,CyrusOne LLC,28.8053,-97.0036,CyrusOne LLC,216.117.25.99,TX,Texas,success,America/Chicago,77903
carfaxgermany.net,AS62 CyrusOne LLC,Victoria,United States,US,CyrusOne LLC,28.8053,-97.0036,CyrusOne LLC,216.117.25.99,TX,Texas,success,America/Chicago,77903
carfaxgermany.org,AS62 CyrusOne LLC,Victoria,United States,US,CyrusOne LLC,28.8053,-97.0036,CyrusOne LLC,216.117.25.99,TX,Texas,success,America/Chicago,77903
carfaxgermany.biz,AS62 CyrusOne LLC,Victoria,United States,US,CyrusOne LLC,28.8053,-97.0036,CyrusOne LLC,216.117.25.99,TX,Texas,success,America/Chicago,77903
carfaxgermany.info,AS62 CyrusOne LLC,Victoria,United States,US,CyrusOne LLC,28.8053,-97.0036,CyrusOne LLC,216.117.25.99,TX,Texas,success,America/Chicago,77903
carfaxglobal.com,AS62 CyrusOne LLC,Victoria,United States,US,CyrusOne LLC,28.8053,-97.0036,CyrusOne LLC,216.117.25.99,TX,Texas,success,America/Chicago,77903
carfaxglobal.net,AS62 CyrusOne LLC,Victoria,United States,US,CyrusOne LLC,28.8053,-97.0036,CyrusOne LLC,216.117.25.99,TX,Texas,success,America/Chicago,77903
carfaxglobal.org,AS62 CyrusOne LLC,Victoria,United States,US,CyrusOne LLC,28.8053,-97.0036,CyrusOne LLC,216.117.25.99,TX,Texas,success,America/Chicago,77903
carfaxglobal.biz,AS62 CyrusOne LLC,Victoria,United States,US,CyrusOne LLC,28.8053,-97.0036,CyrusOne LLC,216.117.25.99,TX,Texas,success,America/Chicago,77903
carfaxglobal.info,AS62 CyrusOne LLC,Victoria,United States,US,CyrusOne LLC,28.8053,-97.0036,CyrusOne LLC,216.117.25.99,TX,Texas,success,America/Chicago,77903
carfaxguardians.com,AS8560 1&1 Internet SE,Offenbach,Germany,DE,1&1 Internet AG,50.0748,8.75573,1&1 Internet AG,217.160.223.109,HE,Hesse,success,Europe/Berlin,
carfaxguardians.net,AS8560 1&1 Internet SE,Offenbach,Germany,DE,1&1 Internet AG,50.0748,8.75573,1&1 Internet AG,217.160.223.109,HE,Hesse,success,Europe/Berlin,
carfaxguardians.org,AS8560 1&1 Internet SE,Offenbach,Germany,DE,1&1 Internet AG,50.0748,8.75573,1&1 Internet AG,217.160.223.109,HE,Hesse,success,Europe/Berlin,
carfaxguardians.info,AS8560 1&1 Internet SE,Offenbach,Germany,DE,1&1 Internet AG,50.0748,8.75573,1&1 Internet AG,217.160.223.109,HE,Hesse,success,Europe/Berlin,
carfaxguide.com,AS62 CyrusOne LLC,Victoria,United States,US,CyrusOne LLC,28.8053,-97.0036,CyrusOne LLC,216.117.25.99,TX,Texas,success,America/Chicago,77903
carfaxhealthcare.com,AS20773 Host Europe GmbH,London,United Kingdom,GB,Host Europe GmbH,51.5092,-0.0955,Host Europe GmbH,94.136.40.82,ENG,England,success,Europe/London,EC4N
carfaxhistory.com,AS62 CyrusOne LLC,Victoria,United States,US,CyrusOne LLC,28.8053,-97.0036,CyrusOne LLC,216.117.25.99,TX,Texas,success,America/Chicago,77903
carfaxhistoryreport.com,AS62 CyrusOne LLC,Victoria,United States,US,CyrusOne LLC,28.8053,-97.0036,CyrusOne LLC,216.117.25.11,TX,Texas,success,America/Chicago,77903
carfaxhotlistings.com,AS62 CyrusOne LLC,Victoria,United States,US,CyrusOne LLC,28.8053,-97.0036,CyrusOne LLC,216.117.25.99,TX,Texas,success,America/Chicago,77903
carfaxhungary.com,AS62 CyrusOne LLC,Victoria,United States,US,CyrusOne LLC,28.8053,-97.0036,CyrusOne LLC,216.117.25.99,TX,Texas,success,America/Chicago,77903
carfaxhungary.net,AS62 CyrusOne LLC,Victoria,United States,US,CyrusOne LLC,28.8053,-97.0036,CyrusOne LLC,216.117.25.99,TX,Texas,success,America/Chicago,77903
carfaxhungary.org,AS62 CyrusOne LLC,Victoria,United States,US,CyrusOne LLC,28.8053,-97.0036,CyrusOne LLC,216.117.25.99,TX,Texas,success,America/Chicago,77903
carfaxhungary.biz,AS62 CyrusOne LLC,Victoria,United States,US,CyrusOne LLC,28.8053,-97.0036,CyrusOne LLC,216.117.25.99,TX,Texas,success,America/Chicago,77903
carfaxhungary.info,AS62 CyrusOne LLC,Victoria,United States,US,CyrusOne LLC,28.8053,-97.0036,CyrusOne LLC,216.117.25.99,TX,Texas,success,America/Chicago,77903
carfaxinc.com,"AS3356 Level 3 Communications, Inc.",Washington D.C.,United States,US,Level 3 Communications,38.9072,-77.0369,Level 3 Communications,166.90.97.119,,District of Columbia,success,America/New_York,
carfaxinspection.com,AS62 CyrusOne LLC,Victoria,United States,US,CyrusOne LLC,28.8053,-97.0036,CyrusOne LLC,216.117.25.99,TX,Texas,success,America/Chicago,77903
carfaxinspection.net,AS62 CyrusOne LLC,Victoria,United States,US,CyrusOne LLC,28.8053,-97.0036,CyrusOne LLC,216.117.25.99,TX,Texas,success,America/Chicago,77903
carfaxinspection.org,AS62 CyrusOne LLC,Victoria,United States,US,CyrusOne LLC,28.8053,-97.0036,CyrusOne LLC,216.117.25.99,TX,Texas,success,America/Chicago,77903
carfaxinspection.biz,AS62 CyrusOne LLC,Victoria,United States,US,CyrusOne LLC,28.8053,-97.0036,CyrusOne LLC,216.117.25.99,TX,Texas,success,America/Chicago,77903
carfaxinspection.info,AS62 CyrusOne LLC,Victoria,United States,US,CyrusOne LLC,28.8053,-97.0036,CyrusOne LLC,216.117.25.99,TX,Texas,success,America/Chicago,77903
carfaxinspectionandroadtest.com,AS62 CyrusOne LLC,Victoria,United States,US,CyrusOne LLC,28.8053,-97.0036,CyrusOne LLC,216.117.25.99,TX,Texas,success,America/Chicago,77903
carfaxinspections.com,AS62 CyrusOne LLC,Victoria,United States,US,CyrusOne LLC,28.8053,-97.0036,CyrusOne LLC,216.117.25.99,TX,Texas,success,America/Chicago,77903
carfaxinspections.net,AS62 CyrusOne LLC,Victoria,United States,US,CyrusOne LLC,28.8053,-97.0036,CyrusOne LLC,216.117.25.99,TX,Texas,success,America/Chicago,77903
carfaxinspections.org,AS62 CyrusOne LLC,Victoria,United States,US,CyrusOne LLC,28.8053,-97.0036,CyrusOne LLC,216.117.25.99,TX,Texas,success,America/Chicago,77903
carfaxinspections.biz,AS62 CyrusOne LLC,Victoria,United States,US,CyrusOne LLC,28.8053,-97.0036,CyrusOne LLC,216.117.25.99,TX,Texas,success,America/Chicago,77903
carfaxinspections.info,AS62 CyrusOne LLC,Victoria,United States,US,CyrusOne LLC,28.8053,-97.0036,CyrusOne LLC,216.117.25.99,TX,Texas,success,America/Chicago,77903
carfaxinspectionservice.com,AS62 CyrusOne LLC,Victoria,United States,US,CyrusOne LLC,28.8053,-97.0036,CyrusOne LLC,216.117.25.99,TX,Texas,success,America/Chicago,77903
carfaxinspectionservice.net,AS62 CyrusOne LLC,Victoria,United States,US,CyrusOne LLC,28.8053,-97.0036,CyrusOne LLC,216.117.25.99,TX,Texas,success,America/Chicago,77903
carfaxinspectionservice.org,AS62 CyrusOne LLC,Victoria,United States,US,CyrusOne LLC,28.8053,-97.0036,CyrusOne LLC,216.117.25.99,TX,Texas,success,America/Chicago,77903
carfaxinspectionservice.info,AS62 CyrusOne LLC,Victoria,United States,US,CyrusOne LLC,28.8053,-97.0036,CyrusOne LLC,216.117.25.99,TX,Texas,success,America/Chicago,77903
carfaxit.com,AS62 CyrusOne LLC,Victoria,United States,US,CyrusOne LLC,28.8053,-97.0036,CyrusOne LLC,216.117.25.99,TX,Texas,success,America/Chicago,77903
carfaxitaly.com,AS62 CyrusOne LLC,Victoria,United States,US,CyrusOne LLC,28.8053,-97.0036,CyrusOne LLC,216.117.25.99,TX,Texas,success,America/Chicago,77903
carfaxitaly.net,AS62 CyrusOne LLC,Victoria,United States,US,CyrusOne LLC,28.8053,-97.0036,CyrusOne LLC,216.117.25.99,TX,Texas,success,America/Chicago,77903
carfaxitaly.org,AS62 CyrusOne LLC,Victoria,United States,US,CyrusOne LLC,28.8053,-97.0036,CyrusOne LLC,216.117.25.99,TX,Texas,success,America/Chicago,77903
carfaxitaly.biz,AS62 CyrusOne LLC,Victoria,United States,US,CyrusOne LLC,28.8053,-97.0036,CyrusOne LLC,216.117.25.99,TX,Texas,success,America/Chicago,77903
carfaxitaly.info,AS62 CyrusOne LLC,Victoria,United States,US,CyrusOne LLC,28.8053,-97.0036,CyrusOne LLC,216.117.25.99,TX,Texas,success,America/Chicago,77903
carfaxjapan.com,AS46606 Unified Layer,Provo,United States,US,Unified Layer,40.2181,-111.6133,Unified Layer,66.147.244.143,UT,Utah,success,America/Denver,84606
carfaxjordan.com,AS20013 CyrusOne LLC,Houston,United States,US,Websitewelcome.com,29.8301,-95.4739,CyrusOne LLC,108.167.184.251,TX,Texas,success,America/Chicago,77092
carfaxkiller.com,"AS26496 GoDaddy.com, LLC",Scottsdale,United States,US,"GoDaddy.com, LLC",33.6119,-111.8906,"GoDaddy.com, LLC",50.63.202.49,AZ,Arizona,success,America/Phoenix,85260
carfaxknline.com,AS62 CyrusOne LLC,Victoria,United States,US,CyrusOne LLC,28.8053,-97.0036,CyrusOne LLC,216.117.25.99,TX,Texas,success,America/Chicago,77903
carfaxkroatia.com,AS62 CyrusOne LLC,Victoria,United States,US,CyrusOne LLC,28.8053,-97.0036,CyrusOne LLC,216.117.25.99,TX,Texas,success,America/Chicago,77903
carfaxkroatia.net,AS62 CyrusOne LLC,Victoria,United States,US,CyrusOne LLC,28.8053,-97.0036,CyrusOne LLC,216.117.25.99,TX,Texas,success,America/Chicago,77903
carfaxkroatia.org,AS62 CyrusOne LLC,Victoria,United States,US,CyrusOne LLC,28.8053,-97.0036,CyrusOne LLC,216.117.25.99,TX,Texas,success,America/Chicago,77903
carfaxkroatia.biz,AS62 CyrusOne LLC,Victoria,United States,US,CyrusOne LLC,28.8053,-97.0036,CyrusOne LLC,216.117.25.99,TX,Texas,success,America/Chicago,77903
carfaxkroatia.info,AS62 CyrusOne LLC,Victoria,United States,US,CyrusOne LLC,28.8053,-97.0036,CyrusOne LLC,216.117.25.99,TX,Texas,success,America/Chicago,77903
carfaxlatino.com,AS62 CyrusOne LLC,Victoria,United States,US,CyrusOne LLC,28.8053,-97.0036,CyrusOne LLC,216.117.25.99,TX,Texas,success,America/Chicago,77903
carfaxlatvia.com,AS62 CyrusOne LLC,Victoria,United States,US,CyrusOne LLC,28.8053,-97.0036,CyrusOne LLC,216.117.25.99,TX,Texas,success,America/Chicago,77903
carfaxlatvia.net,AS62 CyrusOne LLC,Victoria,United States,US,CyrusOne LLC,28.8053,-97.0036,CyrusOne LLC,216.117.25.99,TX,Texas,success,America/Chicago,77903
carfaxlatvia.org,AS62 CyrusOne LLC,Victoria,United States,US,CyrusOne LLC,28.8053,-97.0036,CyrusOne LLC,216.117.25.99,TX,Texas,success,America/Chicago,77903
carfaxlatvia.biz,AS62 CyrusOne LLC,Victoria,United States,US,CyrusOne LLC,28.8053,-97.0036,CyrusOne LLC,216.117.25.99,TX,Texas,success,America/Chicago,77903
carfaxlatvia.info,AS62 CyrusOne LLC,Victoria,United States,US,CyrusOne LLC,28.8053,-97.0036,CyrusOne LLC,216.117.25.99,TX,Texas,success,America/Chicago,77903
carfaxlb.com,"AS32475 SingleHop, Inc.",Chicago,United States,US,SingleHop,41.8825,-87.6441,SingleHop,173.236.99.82,IL,Illinois,success,America/Chicago,60661
carfaxlemoncheck.com,AS62 CyrusOne LLC,Victoria,United States,US,CyrusOne LLC,28.8053,-97.0036,CyrusOne LLC,216.117.25.99,TX,Texas,success,America/Chicago,77903
carfaxlemonchek.com,AS62 CyrusOne LLC,Victoria,United States,US,CyrusOne LLC,28.8053,-97.0036,CyrusOne LLC,216.117.25.99,TX,Texas,success,America/Chicago,77903
carfaxliencheck.com,AS62 CyrusOne LLC,Victoria,United States,US,CyrusOne LLC,28.8053,-97.0036,CyrusOne LLC,216.117.25.99,TX,Texas,success,America/Chicago,77903
carfaxlienreport.com,AS62 CyrusOne LLC,Victoria,United States,US,CyrusOne LLC,28.8053,-97.0036,CyrusOne LLC,216.117.25.99,TX,Texas,success,America/Chicago,77903
carfaxlithuania.com,AS62 CyrusOne LLC,Victoria,United States,US,CyrusOne LLC,28.8053,-97.0036,CyrusOne LLC,216.117.25.99,TX,Texas,success,America/Chicago,77903
carfaxlithuania.net,AS62 CyrusOne LLC,Victoria,United States,US,CyrusOne LLC,28.8053,-97.0036,CyrusOne LLC,216.117.25.99,TX,Texas,success,America/Chicago,77903
carfaxlithuania.org,AS62 CyrusOne LLC,Victoria,United States,US,CyrusOne LLC,28.8053,-97.0036,CyrusOne LLC,216.117.25.99,TX,Texas,success,America/Chicago,77903
carfaxlithuania.biz,AS62 CyrusOne LLC,Victoria,United States,US,CyrusOne LLC,28.8053,-97.0036,CyrusOne LLC,216.117.25.99,TX,Texas,success,America/Chicago,77903
carfaxlithuania.info,AS62 CyrusOne LLC,Victoria,United States,US,CyrusOne LLC,28.8053,-97.0036,CyrusOne LLC,216.117.25.99,TX,Texas,success,America/Chicago,77903
carfaxlnline.com,AS62 CyrusOne LLC,Victoria,United States,US,CyrusOne LLC,28.8053,-97.0036,CyrusOne LLC,216.117.25.99,TX,Texas,success,America/Chicago,77903
carfaxlogin.com,AS133618 Trellian Pty. Limited,Beaumaris,Australia,AU,Trellian Pty. Limited,-37.9867,145.035,Trellian Pty. Limited,103.224.212.247,VIC,Victoria,success,Australia/Melbourne,
carfaxluxembourg.com,AS62 CyrusOne LLC,Victoria,United States,US,CyrusOne LLC,28.8053,-97.0036,CyrusOne LLC,216.117.25.99,TX,Texas,success,America/Chicago,77903
carfaxluxembourg.net,AS62 CyrusOne LLC,Victoria,United States,US,CyrusOne LLC,28.8053,-97.0036,CyrusOne LLC,216.117.25.99,TX,Texas,success,America/Chicago,77903
carfaxluxembourg.org,AS62 CyrusOne LLC,Victoria,United States,US,CyrusOne LLC,28.8053,-97.0036,CyrusOne LLC,216.117.25.99,TX,Texas,success,America/Chicago,77903
carfaxluxembourg.biz,AS62 CyrusOne LLC,Victoria,United States,US,CyrusOne LLC,28.8053,-97.0036,CyrusOne LLC,216.117.25.99,TX,Texas,success,America/Chicago,77903
carfaxluxembourg.info,AS62 CyrusOne LLC,Victoria,United States,US,CyrusOne LLC,28.8053,-97.0036,CyrusOne LLC,216.117.25.99,TX,Texas,success,America/Chicago,77903
carfaxmarketing.com,"AS7349 Tierpoint, LLC",Hillsborough,United States,US,"Tierpoint, LLC",36.056,-79.0834,"Tierpoint, LLC",69.166.143.73,NC,North Carolina,success,America/New_York,
carfaxmedia.com,AS13213 UK-2 Limited,London,United Kingdom,GB,UK2.NET,51.5064,-0.022583,UK2.NET,109.123.77.12,ENG,England,success,Europe/London,
carfaxmonaco.com,AS8560 1&1 Internet SE,Offenbach,Germany,DE,1&1 Internet AG,50.0748,8.75573,1&1 Internet AG,217.160.223.7,HE,Hesse,success,Europe/Berlin,
carfaxmoscow.com,AS8560 1&1 Internet SE,Warsaw,Poland,PL,1&1 Internet AG,52.2297,21.0122,1&1 Internet AG,217.160.230.201,MZ,Masovian Voivodeship,success,Europe/Warsaw,
carfaxmoscow.net,AS8560 1&1 Internet SE,Warsaw,Poland,PL,1&1 Internet AG,52.2297,21.0122,1&1 Internet AG,217.160.230.201,MZ,Masovian Voivodeship,success,Europe/Warsaw,
carfaxmoscow.org,AS8560 1&1 Internet SE,Warsaw,Poland,PL,1&1 Internet AG,52.2297,21.0122,1&1 Internet AG,217.160.230.201,MZ,Masovian Voivodeship,success,Europe/Warsaw,
carfaxmotorcycles.com,AS62 CyrusOne LLC,Victoria,United States,US,CyrusOne LLC,28.8053,-97.0036,CyrusOne LLC,216.117.25.99,TX,Texas,success,America/Chicago,77903
carfaxmotors.com,AS19324 Dosarrest Internet Security LTD,New York,United States,US,Cogeco Peer 1,40.6888,-74.0203,Dosarrest Internet Security,69.172.201.153,NY,New York,success,America/New_York,10004
carfaxmotorsales.com,"AS26496 GoDaddy.com, LLC",Scottsdale,United States,US,"GoDaddy.com, LLC",33.6119,-111.8906,"GoDaddy.com, LLC",184.168.221.8,AZ,Arizona,success,America/Phoenix,85260
carfaxmusic.com,"AS53831 Squarespace, Inc.",Coopersburg,United States,US,Squarespace,40.5021,-75.3765,Squarespace,198.185.159.144,PA,Pennsylvania,success,America/New_York,18036
carfaxmyaccount.com,AS62 CyrusOne LLC,Victoria,United States,US,CyrusOne LLC,28.8053,-97.0036,CyrusOne LLC,216.117.25.99,TX,Texas,success,America/Chicago,77903
carfaxmyfirstcar.com,AS62 CyrusOne LLC,Victoria,United States,US,CyrusOne LLC,28.8053,-97.0036,CyrusOne LLC,216.117.25.99,TX,Texas,success,America/Chicago,77903
carfaxmyride.com,AS13335 CloudFlare,San Francisco,United States,US,CloudFlare,37.7697,-122.3933,CloudFlare,104.31.73.166,CA,California,success,America/Los_Angeles,94107
carfaxna.com,AS62 CyrusOne LLC,Victoria,United States,US,CyrusOne LLC,28.8053,-97.0036,CyrusOne LLC,216.117.25.99,TX,Texas,success,America/Chicago,77903
carfaxna.net,AS62 CyrusOne LLC,Victoria,United States,US,CyrusOne LLC,28.8053,-97.0036,CyrusOne LLC,216.117.25.99,TX,Texas,success,America/Chicago,77903
carfaxna.org,AS62 CyrusOne LLC,Victoria,United States,US,CyrusOne LLC,28.8053,-97.0036,CyrusOne LLC,216.117.25.99,TX,Texas,success,America/Chicago,77903
carfaxna.biz,AS62 CyrusOne LLC,Victoria,United States,US,CyrusOne LLC,28.8053,-97.0036,CyrusOne LLC,216.117.25.99,TX,Texas,success,America/Chicago,77903
carfaxna.info,AS62 CyrusOne LLC,Victoria,United States,US,CyrusOne LLC,28.8053,-97.0036,CyrusOne LLC,216.117.25.99,TX,Texas,success,America/Chicago,77903
carfaxnetherlands.com,AS62 CyrusOne LLC,Victoria,United States,US,CyrusOne LLC,28.8053,-97.0036,CyrusOne LLC,216.117.25.99,TX,Texas,success,America/Chicago,77903
carfaxnetherlands.net,AS62 CyrusOne LLC,Victoria,United States,US,CyrusOne LLC,28.8053,-97.0036,CyrusOne LLC,216.117.25.99,TX,Texas,success,America/Chicago,77903
carfaxnetherlands.org,AS62 CyrusOne LLC,Victoria,United States,US,CyrusOne LLC,28.8053,-97.0036,CyrusOne LLC,216.117.25.99,TX,Texas,success,America/Chicago,77903
carfaxnetherlands.biz,AS62 CyrusOne LLC,Victoria,United States,US,CyrusOne LLC,28.8053,-97.0036,CyrusOne LLC,216.117.25.99,TX,Texas,success,America/Chicago,77903
carfaxnetherlands.info,AS62 CyrusOne LLC,Victoria,United States,US,CyrusOne LLC,28.8053,-97.0036,CyrusOne LLC,216.117.25.99,TX,Texas,success,America/Chicago,77903
carfaxnewbrunswick.com,AS62 CyrusOne LLC,Victoria,United States,US,CyrusOne LLC,28.8053,-97.0036,CyrusOne LLC,216.117.25.99,TX,Texas,success,America/Chicago,77903
carfaxnewfoundland.com,AS62 CyrusOne LLC,Victoria,United States,US,CyrusOne LLC,28.8053,-97.0036,CyrusOne LLC,216.117.25.99,TX,Texas,success,America/Chicago,77903
carfaxnline.com,AS62 CyrusOne LLC,Victoria,United States,US,CyrusOne LLC,28.8053,-97.0036,CyrusOne LLC,216.117.25.99,TX,Texas,success,America/Chicago,77903
carfaxnonline.com,AS62 CyrusOne LLC,Victoria,United States,US,CyrusOne LLC,28.8053,-97.0036,CyrusOne LLC,216.117.25.99,TX,Texas,success,America/Chicago,77903
carfaxnorthamerica.com,AS62 CyrusOne LLC,Victoria,United States,US,CyrusOne LLC,28.8053,-97.0036,CyrusOne LLC,216.117.25.99,TX,Texas,success,America/Chicago,77903
carfaxnorthamerica.net,AS62 CyrusOne LLC,Victoria,United States,US,CyrusOne LLC,28.8053,-97.0036,CyrusOne LLC,216.117.25.99,TX,Texas,success,America/Chicago,77903
carfaxnorthamerica.org,AS62 CyrusOne LLC,Victoria,United States,US,CyrusOne LLC,28.8053,-97.0036,CyrusOne LLC,216.117.25.99,TX,Texas,success,America/Chicago,77903
carfaxnorthamerica.biz,AS62 CyrusOne LLC,Victoria,United States,US,CyrusOne LLC,28.8053,-97.0036,CyrusOne LLC,216.117.25.99,TX,Texas,success,America/Chicago,77903
carfaxnorthamerica.info,AS62 CyrusOne LLC,Victoria,United States,US,CyrusOne LLC,28.8053,-97.0036,CyrusOne LLC,216.117.25.99,TX,Texas,success,America/Chicago,77903
carfaxnorthwestterritories.com,AS62 CyrusOne LLC,Victoria,United States,US,CyrusOne LLC,28.8053,-97.0036,CyrusOne LLC,216.117.25.99,TX,Texas,success,America/Chicago,77903
carfaxnorway.com,AS62 CyrusOne LLC,Victoria,United States,US,CyrusOne LLC,28.8053,-97.0036,CyrusOne LLC,216.117.25.99,TX,Texas,success,America/Chicago,77903
carfaxnorway.net,AS62 CyrusOne LLC,Victoria,United States,US,CyrusOne LLC,28.8053,-97.0036,CyrusOne LLC,216.117.25.99,TX,Texas,success,America/Chicago,77903
carfaxnorway.org,AS62 CyrusOne LLC,Victoria,United States,US,CyrusOne LLC,28.8053,-97.0036,CyrusOne LLC,216.117.25.99,TX,Texas,success,America/Chicago,77903
carfaxnorway.biz,AS62 CyrusOne LLC,Victoria,United States,US,CyrusOne LLC,28.8053,-97.0036,CyrusOne LLC,216.117.25.99,TX,Texas,success,America/Chicago,77903
carfaxnorway.info,AS62 CyrusOne LLC,Victoria,United States,US,CyrusOne LLC,28.8053,-97.0036,CyrusOne LLC,216.117.25.99,TX,Texas,success,America/Chicago,77903
carfaxnovascotia.com,AS62 CyrusOne LLC,Victoria,United States,US,CyrusOne LLC,28.8053,-97.0036,CyrusOne LLC,216.117.25.99,TX,Texas,success,America/Chicago,77903
carfaxnow.com,"AS26496 GoDaddy.com, LLC",Scottsdale,United States,US,"GoDaddy.com, LLC",33.6119,-111.8906,"GoDaddy.com, LLC",184.168.221.96,AZ,Arizona,success,America/Phoenix,85260
carfaxnunavut.com,AS62 CyrusOne LLC,Victoria,United States,US,CyrusOne LLC,28.8053,-97.0036,CyrusOne LLC,216.117.25.99,TX,Texas,success,America/Chicago,77903
carfaxobline.com,AS62 CyrusOne LLC,Victoria,United States,US,CyrusOne LLC,28.8053,-97.0036,CyrusOne LLC,216.117.25.99,TX,Texas,success,America/Chicago,77903
carfaxodometerreading.com,AS62 CyrusOne LLC,Victoria,United States,US,CyrusOne LLC,28.8053,-97.0036,CyrusOne LLC,216.117.25.99,TX,Texas,success,America/Chicago,77903
carfaxoflaurel.com,AS62 CyrusOne LLC,Victoria,United States,US,CyrusOne LLC,28.8053,-97.0036,CyrusOne LLC,216.117.25.99,TX,Texas,success,America/Chicago,77903
carfaxolline.com,AS62 CyrusOne LLC,Victoria,United States,US,CyrusOne LLC,28.8053,-97.0036,CyrusOne LLC,216.117.25.99,TX,Texas,success,America/Chicago,77903
carfaxomline.com,AS15169 Google Inc.,Mountain View,United States,US,Google Cloud,37.386,-122.0838,Google Cloud,146.148.34.125,CA,California,success,America/Los_Angeles,94035
carfaxone-ownersale.com,AS62 CyrusOne LLC,Victoria,United States,US,CyrusOne LLC,28.8053,-97.0036,CyrusOne LLC,216.117.25.11,TX,Texas,success,America/Chicago,77903
carfaxone-ownersale.net,AS62 CyrusOne LLC,Victoria,United States,US,CyrusOne LLC,28.8053,-97.0036,CyrusOne LLC,216.117.25.11,TX,Texas,success,America/Chicago,77903
carfaxone-ownersale.org,AS62 CyrusOne LLC,Victoria,United States,US,CyrusOne LLC,28.8053,-97.0036,CyrusOne LLC,216.117.25.11,TX,Texas,success,America/Chicago,77903
carfaxone-ownersale.biz,AS62 CyrusOne LLC,Victoria,United States,US,CyrusOne LLC,28.8053,-97.0036,CyrusOne LLC,216.117.25.11,TX,Texas,success,America/Chicago,77903
carfaxone-ownersale.info,AS62 CyrusOne LLC,Victoria,United States,US,CyrusOne LLC,28.8053,-97.0036,CyrusOne LLC,216.117.25.11,TX,Texas,success,America/Chicago,77903
carfaxoneline.com,AS19324 Dosarrest Internet Security LTD,New York,United States,US,Cogeco Peer 1,40.6888,-74.0203,Dosarrest Internet Security,69.172.201.153,NY,New York,success,America/New_York,10004
carfaxoneowner.com,AS62 CyrusOne LLC,Victoria,United States,US,CyrusOne LLC,28.8053,-97.0036,CyrusOne LLC,216.117.25.11,TX,Texas,success,America/Chicago,77903
carfaxoneownercar.com,AS62 CyrusOne LLC,Victoria,United States,US,CyrusOne LLC,28.8053,-97.0036,CyrusOne LLC,216.117.25.11,TX,Texas,success,America/Chicago,77903
carfaxoneownercar.net,AS62 CyrusOne LLC,Victoria,United States,US,CyrusOne LLC,28.8053,-97.0036,CyrusOne LLC,216.117.25.11,TX,Texas,success,America/Chicago,77903
carfaxoneownercar.org,AS62 CyrusOne LLC,Victoria,United States,US,CyrusOne LLC,28.8053,-97.0036,CyrusOne LLC,216.117.25.11,TX,Texas,success,America/Chicago,77903
carfaxoneownercar.biz,AS62 CyrusOne LLC,Victoria,United States,US,CyrusOne LLC,28.8053,-97.0036,CyrusOne LLC,216.117.25.11,TX,Texas,success,America/Chicago,77903
carfaxoneownercar.info,AS62 CyrusOne LLC,Victoria,United States,US,CyrusOne LLC,28.8053,-97.0036,CyrusOne LLC,216.117.25.11,TX,Texas,success,America/Chicago,77903
carfaxoneownercars.com,AS62 CyrusOne LLC,Victoria,United States,US,CyrusOne LLC,28.8053,-97.0036,CyrusOne LLC,216.117.25.11,TX,Texas,success,America/Chicago,77903
carfaxoneownercars.net,AS62 CyrusOne LLC,Victoria,United States,US,CyrusOne LLC,28.8053,-97.0036,CyrusOne LLC,216.117.25.11,TX,Texas,success,America/Chicago,77903
carfaxoneownercars.org,AS62 CyrusOne LLC,Victoria,United States,US,CyrusOne LLC,28.8053,-97.0036,CyrusOne LLC,216.117.25.11,TX,Texas,success,America/Chicago,77903
carfaxoneownercars.biz,AS62 CyrusOne LLC,Victoria,United States,US,CyrusOne LLC,28.8053,-97.0036,CyrusOne LLC,216.117.25.11,TX,Texas,success,America/Chicago,77903
carfaxoneownercars.info,AS62 CyrusOne LLC,Victoria,United States,US,CyrusOne LLC,28.8053,-97.0036,CyrusOne LLC,216.117.25.11,TX,Texas,success,America/Chicago,77903
carfaxoneownersale.net,AS62 CyrusOne LLC,Victoria,United States,US,CyrusOne LLC,28.8053,-97.0036,CyrusOne LLC,216.117.25.11,TX,Texas,success,America/Chicago,77903
carfaxoneownersale.org,AS62 CyrusOne LLC,Victoria,United States,US,CyrusOne LLC,28.8053,-97.0036,CyrusOne LLC,216.117.25.11,TX,Texas,success,America/Chicago,77903
carfaxoneownersale.biz,AS62 CyrusOne LLC,Victoria,United States,US,CyrusOne LLC,28.8053,-97.0036,CyrusOne LLC,216.117.25.11,TX,Texas,success,America/Chicago,77903
carfaxoneownersale.info,AS62 CyrusOne LLC,Victoria,United States,US,CyrusOne LLC,28.8053,-97.0036,CyrusOne LLC,216.117.25.11,TX,Texas,success,America/Chicago,77903
carfaxoneownervehicle.com,AS62 CyrusOne LLC,Victoria,United States,US,CyrusOne LLC,28.8053,-97.0036,CyrusOne LLC,216.117.25.11,TX,Texas,success,America/Chicago,77903
carfaxoneownervehicle.net,AS62 CyrusOne LLC,Victoria,United States,US,CyrusOne LLC,28.8053,-97.0036,CyrusOne LLC,216.117.25.11,TX,Texas,success,America/Chicago,77903
carfaxoneownervehicle.org,AS62 CyrusOne LLC,Victoria,United States,US,CyrusOne LLC,28.8053,-97.0036,CyrusOne LLC,216.117.25.11,TX,Texas,success,America/Chicago,77903
carfaxoneownervehicle.biz,AS62 CyrusOne LLC,Victoria,United States,US,CyrusOne LLC,28.8053,-97.0036,CyrusOne LLC,216.117.25.11,TX,Texas,success,America/Chicago,77903
carfaxoneownervehicle.info,AS62 CyrusOne LLC,Victoria,United States,US,CyrusOne LLC,28.8053,-97.0036,CyrusOne LLC,216.117.25.11,TX,Texas,success,America/Chicago,77903
carfaxoneownervehicles.com,AS62 CyrusOne LLC,Victoria,United States,US,CyrusOne LLC,28.8053,-97.0036,CyrusOne LLC,216.117.25.11,TX,Texas,success,America/Chicago,77903
carfaxoneownervehicles.net,AS62 CyrusOne LLC,Victoria,United States,US,CyrusOne LLC,28.8053,-97.0036,CyrusOne LLC,216.117.25.11,TX,Texas,success,America/Chicago,77903
carfaxoneownervehicles.org,AS62 CyrusOne LLC,Victoria,United States,US,CyrusOne LLC,28.8053,-97.0036,CyrusOne LLC,216.117.25.11,TX,Texas,success,America/Chicago,77903
carfaxoneownervehicles.info,AS62 CyrusOne LLC,Victoria,United States,US,CyrusOne LLC,28.8053,-97.0036,CyrusOne LLC,216.117.25.11,TX,Texas,success,America/Chicago,77903
carfaxonine.com,AS62 CyrusOne LLC,Victoria,United States,US,CyrusOne LLC,28.8053,-97.0036,CyrusOne LLC,216.117.25.99,TX,Texas,success,America/Chicago,77903
carfaxonkine.com,AS62 CyrusOne LLC,Victoria,United States,US,CyrusOne LLC,28.8053,-97.0036,CyrusOne LLC,216.117.25.99,TX,Texas,success,America/Chicago,77903
carfaxonlene.com,AS62 CyrusOne LLC,Victoria,United States,US,CyrusOne LLC,28.8053,-97.0036,CyrusOne LLC,216.117.25.99,TX,Texas,success,America/Chicago,77903
carfaxonlie.com,AS62 CyrusOne LLC,Victoria,United States,US,CyrusOne LLC,28.8053,-97.0036,CyrusOne LLC,216.117.25.99,TX,Texas,success,America/Chicago,77903
carfaxonlien.com,AS62 CyrusOne LLC,Victoria,United States,US,CyrusOne LLC,28.8053,-97.0036,CyrusOne LLC,216.117.25.99,TX,Texas,success,America/Chicago,77903
carfaxonlin.com,AS27357 Rackspace Ltd.,San Antonio,United States,US,Rackspace Hosting,29.4889,-98.3987,Rackspace Hosting,172.99.89.224,TX,Texas,success,America/Chicago,78218
carfaxonline.com,AS62 CyrusOne LLC,Victoria,United States,US,CyrusOne LLC,28.8053,-97.0036,CyrusOne LLC,216.117.25.42,TX,Texas,success,America/Chicago,77903
carfaxonline.net,AS62 CyrusOne LLC,Victoria,United States,US,CyrusOne LLC,28.8053,-97.0036,CyrusOne LLC,216.117.25.99,TX,Texas,success,America/Chicago,77903
carfaxonline.org,AS62 CyrusOne LLC,Victoria,United States,US,CyrusOne LLC,28.8053,-97.0036,CyrusOne LLC,216.117.25.99,TX,Texas,success,America/Chicago,77903
carfaxonline.biz,AS62 CyrusOne LLC,Victoria,United States,US,CyrusOne LLC,28.8053,-97.0036,CyrusOne LLC,216.117.25.99,TX,Texas,success,America/Chicago,77903
carfaxonline.info,AS62 CyrusOne LLC,Victoria,United States,US,CyrusOne LLC,28.8053,-97.0036,CyrusOne LLC,216.117.25.99,TX,Texas,success,America/Chicago,77903
carfaxonline.mobi,AS62 CyrusOne LLC,Victoria,United States,US,CyrusOne LLC,28.8053,-97.0036,CyrusOne LLC,216.117.25.99,TX,Texas,success,America/Chicago,77903
carfaxonline-us.com,AS62 CyrusOne LLC,Victoria,United States,US,CyrusOne LLC,28.8053,-97.0036,CyrusOne LLC,216.117.25.99,TX,Texas,success,America/Chicago,77903
carfaxonlinedealers.com,AS62 CyrusOne LLC,Victoria,United States,US,CyrusOne LLC,28.8053,-97.0036,CyrusOne LLC,216.117.25.99,TX,Texas,success,America/Chicago,77903
carfaxonlini.com,AS62 CyrusOne LLC,Victoria,United States,US,CyrusOne LLC,28.8053,-97.0036,CyrusOne LLC,216.117.25.99,TX,Texas,success,America/Chicago,77903
carfaxonlne.com,AS62 CyrusOne LLC,Victoria,United States,US,CyrusOne LLC,28.8053,-97.0036,CyrusOne LLC,216.117.25.99,TX,Texas,success,America/Chicago,77903
carfaxonloine.com,"AS63949 Linode, LLC",Dallas,United States,US,Linode,32.7787,-96.8217,"Linode, LLC",45.33.9.234,TX,Texas,success,America/Chicago,75270
carfaxonne.com,AS62 CyrusOne LLC,Victoria,United States,US,CyrusOne LLC,28.8053,-97.0036,CyrusOne LLC,216.117.25.99,TX,Texas,success,America/Chicago,77903
carfaxontario.com,AS62 CyrusOne LLC,Victoria,United States,US,CyrusOne LLC,28.8053,-97.0036,CyrusOne LLC,216.117.25.99,TX,Texas,success,America/Chicago,77903
carfaxoregon.com,AS62 CyrusOne LLC,Victoria,United States,US,CyrusOne LLC,28.8053,-97.0036,CyrusOne LLC,216.117.25.99,TX,Texas,success,America/Chicago,77903
carfaxoxford.com,AS8560 1&1 Internet SE,Offenbach,Germany,DE,1&1 Internet AG,50.0748,8.75573,1&1 Internet AG,217.160.223.109,HE,Hesse,success,Europe/Berlin,
carfaxoxford.net,AS8560 1&1 Internet SE,Offenbach,Germany,DE,1&1 Internet AG,50.0748,8.75573,1&1 Internet AG,217.160.223.109,HE,Hesse,success,Europe/Berlin,
carfaxoxford.org,AS8560 1&1 Internet SE,Offenbach,Germany,DE,1&1 Internet AG,50.0748,8.75573,1&1 Internet AG,217.160.223.109,HE,Hesse,success,Europe/Berlin,
carfaxoxford.info,AS8560 1&1 Internet SE,Offenbach,Germany,DE,1&1 Internet AG,50.0748,8.75573,1&1 Internet AG,217.160.223.109,HE,Hesse,success,Europe/Berlin,
carfaxpartner.com,AS62 CyrusOne LLC,Victoria,United States,US,CyrusOne LLC,28.8053,-97.0036,CyrusOne LLC,216.117.25.99,TX,Texas,success,America/Chicago,77903
carfaxpassword.com,AS62 CyrusOne LLC,Victoria,United States,US,CyrusOne LLC,28.8053,-97.0036,CyrusOne LLC,216.117.25.99,TX,Texas,success,America/Chicago,77903
carfaxpei.com,AS62 CyrusOne LLC,Victoria,United States,US,CyrusOne LLC,28.8053,-97.0036,CyrusOne LLC,216.117.25.99,TX,Texas,success,America/Chicago,77903
carfaxplus.com,AS62 CyrusOne LLC,Victoria,United States,US,CyrusOne LLC,28.8053,-97.0036,CyrusOne LLC,216.117.25.99,TX,Texas,success,America/Chicago,77903
carfaxplus.net,AS32748 Steadfast,Pompano Beach,United States,US,Steadfast,26.2436,-80.2656,Steadfast,162.210.102.68,FL,Florida,success,America/New_York,33071
carfaxpnline.com,AS62 CyrusOne LLC,Victoria,United States,US,CyrusOne LLC,28.8053,-97.0036,CyrusOne LLC,216.117.25.99,TX,Texas,success,America/Chicago,77903
carfaxpoland.com,AS62 CyrusOne LLC,Victoria,United States,US,CyrusOne LLC,28.8053,-97.0036,CyrusOne LLC,216.117.25.99,TX,Texas,success,America/Chicago,77903
carfaxpoland.net,AS62 CyrusOne LLC,Victoria,United States,US,CyrusOne LLC,28.8053,-97.0036,CyrusOne LLC,216.117.25.99,TX,Texas,success,America/Chicago,77903
carfaxpoland.org,AS62 CyrusOne LLC,Victoria,United States,US,CyrusOne LLC,28.8053,-97.0036,CyrusOne LLC,216.117.25.99,TX,Texas,success,America/Chicago,77903
carfaxpoland.biz,AS62 CyrusOne LLC,Victoria,United States,US,CyrusOne LLC,28.8053,-97.0036,CyrusOne LLC,216.117.25.99,TX,Texas,success,America/Chicago,77903
carfaxpoland.info,AS62 CyrusOne LLC,Victoria,United States,US,CyrusOne LLC,28.8053,-97.0036,CyrusOne LLC,216.117.25.99,TX,Texas,success,America/Chicago,77903
carfaxpolice.com,AS62 CyrusOne LLC,Victoria,United States,US,CyrusOne LLC,28.8053,-97.0036,CyrusOne LLC,216.117.25.99,TX,Texas,success,America/Chicago,77903
carfaxportugal.com,AS62 CyrusOne LLC,Victoria,United States,US,CyrusOne LLC,28.8053,-97.0036,CyrusOne LLC,216.117.25.99,TX,Texas,success,America/Chicago,77903
carfaxportugal.net,AS62 CyrusOne LLC,Victoria,United States,US,CyrusOne LLC,28.8053,-97.0036,CyrusOne LLC,216.117.25.99,TX,Texas,success,America/Chicago,77903
carfaxportugal.org,AS62 CyrusOne LLC,Victoria,United States,US,CyrusOne LLC,28.8053,-97.0036,CyrusOne LLC,216.117.25.99,TX,Texas,success,America/Chicago,77903
carfaxportugal.biz,AS62 CyrusOne LLC,Victoria,United States,US,CyrusOne LLC,28.8053,-97.0036,CyrusOne LLC,216.117.25.99,TX,Texas,success,America/Chicago,77903
carfaxportugal.info,AS62 CyrusOne LLC,Victoria,United States,US,CyrusOne LLC,28.8053,-97.0036,CyrusOne LLC,216.117.25.99,TX,Texas,success,America/Chicago,77903
carfaxpr.com,AS3561 Savvis,Chesterfield,United States,US,Savvis,38.65,-90.5334,Savvis,206.31.27.100,MO,Missouri,success,America/Chicago,63017
carfaxpr.net,AS3561 Savvis,Chesterfield,United States,US,Savvis,38.65,-90.5334,Savvis,206.31.27.100,MO,Missouri,success,America/Chicago,63017
carfaxpr.org,AS3561 Savvis,Chesterfield,United States,US,Savvis,38.65,-90.5334,Savvis,206.31.27.100,MO,Missouri,success,America/Chicago,63017
carfaxpr.info,AS3561 Savvis,Chesterfield,United States,US,Savvis,38.65,-90.5334,Savvis,206.31.27.100,MO,Missouri,success,America/Chicago,63017
carfaxprice.com,AS62 CyrusOne LLC,Victoria,United States,US,CyrusOne LLC,28.8053,-97.0036,CyrusOne LLC,216.117.25.99,TX,Texas,success,America/Chicago,77903
carfaxprinceedwardisland.com,AS62 CyrusOne LLC,Victoria,United States,US,CyrusOne LLC,28.8053,-97.0036,CyrusOne LLC,216.117.25.99,TX,Texas,success,America/Chicago,77903
carfaxprint.com,AS198047 UK Webhosting Ltd,Slough,United Kingdom,GB,UK Webhosting Ltd,51.5208,-0.619895,UK Webhosting Ltd,91.198.165.130,ENG,England,success,Europe/London,
carfaxprojects.com,AS8560 1&1 Internet SE,Warsaw,Poland,PL,1&1 Internet AG,52.2297,21.0122,1&1 Internet AG,217.160.230.204,MZ,Masovian Voivodeship,success,Europe/Warsaw,
carfaxprojects.net,AS8560 1&1 Internet SE,Warsaw,Poland,PL,1&1 Internet AG,52.2297,21.0122,1&1 Internet AG,217.160.230.204,MZ,Masovian Voivodeship,success,Europe/Warsaw,
carfaxprojects.org,AS8560 1&1 Internet SE,Warsaw,Poland,PL,1&1 Internet AG,52.2297,21.0122,1&1 Internet AG,217.160.230.204,MZ,Masovian Voivodeship,success,Europe/Warsaw,
carfaxprojects.info,AS8560 1&1 Internet SE,Warsaw,Poland,PL,1&1 Internet AG,52.2297,21.0122,1&1 Internet AG,217.160.230.204,MZ,Masovian Voivodeship,success,Europe/Warsaw,
carfaxpublicrelations.com,AS3561 Savvis,Chesterfield,United States,US,Savvis,38.65,-90.5334,Savvis,206.31.27.100,MO,Missouri,success,America/Chicago,63017
carfaxpublicrelations.net,AS3561 Savvis,Chesterfield,United States,US,Savvis,38.65,-90.5334,Savvis,206.31.27.100,MO,Missouri,success,America/Chicago,63017
carfaxpublicrelations.org,AS3561 Savvis,Chesterfield,United States,US,Savvis,38.65,-90.5334,Savvis,206.31.27.100,MO,Missouri,success,America/Chicago,63017
carfaxpublicrelations.info,AS3561 Savvis,Chesterfield,United States,US,Savvis,38.65,-90.5334,Savvis,206.31.27.100,MO,Missouri,success,America/Chicago,63017
carfaxpupils.com,"AS26496 GoDaddy.com, LLC",Scottsdale,United States,US,"GoDaddy.com, LLC",33.6119,-111.8906,"GoDaddy.com, LLC",50.63.202.44,AZ,Arizona,success,America/Phoenix,85260
carfaxpupils.net,"AS26496 GoDaddy.com, LLC",Scottsdale,United States,US,"GoDaddy.com, LLC",33.6119,-111.8906,"GoDaddy.com, LLC",184.168.221.45,AZ,Arizona,success,America/Phoenix,85260
carfaxpupils.org,"AS26496 GoDaddy.com, LLC",Scottsdale,United States,US,"GoDaddy.com, LLC",33.6119,-111.8906,"GoDaddy.com, LLC",50.63.202.53,AZ,Arizona,success,America/Phoenix,85260
carfaxqc.com,AS62 CyrusOne LLC,Victoria,United States,US,CyrusOne LLC,28.8053,-97.0036,CyrusOne LLC,216.117.25.99,TX,Texas,success,America/Chicago,77903
carfaxqc.net,AS62 CyrusOne LLC,Victoria,United States,US,CyrusOne LLC,28.8053,-97.0036,CyrusOne LLC,216.117.25.99,TX,Texas,success,America/Chicago,77903
carfaxqc.org,AS62 CyrusOne LLC,Victoria,United States,US,CyrusOne LLC,28.8053,-97.0036,CyrusOne LLC,216.117.25.99,TX,Texas,success,America/Chicago,77903
carfaxquebec.com,AS62 CyrusOne LLC,Victoria,United States,US,CyrusOne LLC,28.8053,-97.0036,CyrusOne LLC,216.117.25.99,TX,Texas,success,America/Chicago,77903
carfaxquickcheck.com,AS62 CyrusOne LLC,Victoria,United States,US,CyrusOne LLC,28.8053,-97.0036,CyrusOne LLC,216.117.25.99,TX,Texas,success,America/Chicago,77903
carfaxquickcheck.net,AS62 CyrusOne LLC,Victoria,United States,US,CyrusOne LLC,28.8053,-97.0036,CyrusOne LLC,216.117.25.99,TX,Texas,success,America/Chicago,77903
carfaxquickcheck.org,AS62 CyrusOne LLC,Victoria,United States,US,CyrusOne LLC,28.8053,-97.0036,CyrusOne LLC,216.117.25.99,TX,Texas,success,America/Chicago,77903
carfaxrecallalert.com,AS62 CyrusOne LLC,Victoria,United States,US,CyrusOne LLC,28.8053,-97.0036,CyrusOne LLC,216.117.25.99,TX,Texas,success,America/Chicago,77903
carfaxrecallalert.net,AS62 CyrusOne LLC,Victoria,United States,US,CyrusOne LLC,28.8053,-97.0036,CyrusOne LLC,216.117.25.99,TX,Texas,success,America/Chicago,77903
carfaxrecallalert.org,AS62 CyrusOne LLC,Victoria,United States,US,CyrusOne LLC,28.8053,-97.0036,CyrusOne LLC,216.117.25.99,TX,Texas,success,America/Chicago,77903
carfaxrecruitment.com,AS8560 1&1 Internet SE,Warsaw,Poland,PL,1&1 Internet AG,52.2297,21.0122,1&1 Internet AG,217.160.230.204,MZ,Masovian Voivodeship,success,Europe/Warsaw,
carfaxrepairadvantage.com,AS62 CyrusOne LLC,Victoria,United States,US,CyrusOne LLC,28.8053,-97.0036,CyrusOne LLC,216.117.25.73,TX,Texas,success,America/Chicago,77903
carfaxrepairadvantage.net,AS62 CyrusOne LLC,Victoria,United States,US,CyrusOne LLC,28.8053,-97.0036,CyrusOne LLC,216.117.25.73,TX,Texas,success,America/Chicago,77903
carfaxrepairadvantage.org,AS62 CyrusOne LLC,Victoria,United States,US,CyrusOne LLC,28.8053,-97.0036,CyrusOne LLC,216.117.25.73,TX,Texas,success,America/Chicago,77903
carfaxrepairadvantage.info,AS62 CyrusOne LLC,Victoria,United States,US,CyrusOne LLC,28.8053,-97.0036,CyrusOne LLC,216.117.25.73,TX,Texas,success,America/Chicago,77903
carfaxrepairadvantageprogram.com,AS62 CyrusOne LLC,Victoria,United States,US,CyrusOne LLC,28.8053,-97.0036,CyrusOne LLC,216.117.25.73,TX,Texas,success,America/Chicago,77903
carfaxrepairadvantageprogram.net,AS62 CyrusOne LLC,Victoria,United States,US,CyrusOne LLC,28.8053,-97.0036,CyrusOne LLC,216.117.25.73,TX,Texas,success,America/Chicago,77903
carfaxrepairadvantageprogram.org,AS62 CyrusOne LLC,Victoria,United States,US,CyrusOne LLC,28.8053,-97.0036,CyrusOne LLC,216.117.25.73,TX,Texas,success,America/Chicago,77903
carfaxrepairadvantageprogram.info,AS62 CyrusOne LLC,Victoria,United States,US,CyrusOne LLC,28.8053,-97.0036,CyrusOne LLC,216.117.25.73,TX,Texas,success,America/Chicago,77903
carfaxreport.com,AS62 CyrusOne LLC,Victoria,United States,US,CyrusOne LLC,28.8053,-97.0036,CyrusOne LLC,216.117.25.99,TX,Texas,success,America/Chicago,77903
carfaxreport.net,AS62 CyrusOne LLC,Victoria,United States,US,CyrusOne LLC,28.8053,-97.0036,CyrusOne LLC,216.117.25.99,TX,Texas,success,America/Chicago,77903
carfaxreport.org,AS62 CyrusOne LLC,Victoria,United States,US,CyrusOne LLC,28.8053,-97.0036,CyrusOne LLC,216.117.25.99,TX,Texas,success,America/Chicago,77903
carfaxreport.biz,AS62 CyrusOne LLC,Victoria,United States,US,CyrusOne LLC,28.8053,-97.0036,CyrusOne LLC,216.117.25.99,TX,Texas,success,America/Chicago,77903
carfaxreport.info,AS62 CyrusOne LLC,Victoria,United States,US,CyrusOne LLC,28.8053,-97.0036,CyrusOne LLC,216.117.25.99,TX,Texas,success,America/Chicago,77903
carfaxreports.com,AS62 CyrusOne LLC,Victoria,United States,US,CyrusOne LLC,28.8053,-97.0036,CyrusOne LLC,216.117.25.99,TX,Texas,success,America/Chicago,77903
carfaxreports.net,AS62 CyrusOne LLC,Victoria,United States,US,CyrusOne LLC,28.8053,-97.0036,CyrusOne LLC,216.117.25.99,TX,Texas,success,America/Chicago,77903
carfaxromania.com,AS62 CyrusOne LLC,Victoria,United States,US,CyrusOne LLC,28.8053,-97.0036,CyrusOne LLC,216.117.25.99,TX,Texas,success,America/Chicago,77903
carfaxromania.net,AS62 CyrusOne LLC,Victoria,United States,US,CyrusOne LLC,28.8053,-97.0036,CyrusOne LLC,216.117.25.99,TX,Texas,success,America/Chicago,77903
carfaxromania.org,AS62 CyrusOne LLC,Victoria,United States,US,CyrusOne LLC,28.8053,-97.0036,CyrusOne LLC,216.117.25.99,TX,Texas,success,America/Chicago,77903
carfaxromania.biz,AS62 CyrusOne LLC,Victoria,United States,US,CyrusOne LLC,28.8053,-97.0036,CyrusOne LLC,216.117.25.99,TX,Texas,success,America/Chicago,77903
carfaxromania.info,AS62 CyrusOne LLC,Victoria,United States,US,CyrusOne LLC,28.8053,-97.0036,CyrusOne LLC,216.117.25.99,TX,Texas,success,America/Chicago,77903
carfaxrunning.com,"AS2635 Automattic, Inc",San Francisco,United States,US,Automattic,37.7484,-122.4156,Automattic,192.0.78.24,CA,California,success,America/Los_Angeles,94110
carfaxrussia.com,AS62 CyrusOne LLC,Victoria,United States,US,CyrusOne LLC,28.8053,-97.0036,CyrusOne LLC,216.117.25.99,TX,Texas,success,America/Chicago,77903
carfaxrussia.net,AS62 CyrusOne LLC,Victoria,United States,US,CyrusOne LLC,28.8053,-97.0036,CyrusOne LLC,216.117.25.99,TX,Texas,success,America/Chicago,77903
carfaxrussia.org,AS62 CyrusOne LLC,Victoria,United States,US,CyrusOne LLC,28.8053,-97.0036,CyrusOne LLC,216.117.25.99,TX,Texas,success,America/Chicago,77903
carfaxrussia.biz,AS62 CyrusOne LLC,Victoria,United States,US,CyrusOne LLC,28.8053,-97.0036,CyrusOne LLC,216.117.25.99,TX,Texas,success,America/Chicago,77903
carfaxrussia.info,AS62 CyrusOne LLC,Victoria,United States,US,CyrusOne LLC,28.8053,-97.0036,CyrusOne LLC,216.117.25.99,TX,Texas,success,America/Chicago,77903
carfaxs.com,"AS19867 Voodoo.com, Inc",Tampa,United States,US,Voodoo.com,28.0043,-82.546,Voodoo.com,192.64.147.164,FL,Florida,success,America/New_York,33634
carfaxsa.com,AS62 CyrusOne LLC,Victoria,United States,US,CyrusOne LLC,28.8053,-97.0036,CyrusOne LLC,216.117.25.99,TX,Texas,success,America/Chicago,77903
carfaxsa.net,AS62 CyrusOne LLC,Victoria,United States,US,CyrusOne LLC,28.8053,-97.0036,CyrusOne LLC,216.117.25.99,TX,Texas,success,America/Chicago,77903
carfaxsa.org,AS62 CyrusOne LLC,Victoria,United States,US,CyrusOne LLC,28.8053,-97.0036,CyrusOne LLC,216.117.25.99,TX,Texas,success,America/Chicago,77903
carfaxsa.biz,AS62 CyrusOne LLC,Victoria,United States,US,CyrusOne LLC,28.8053,-97.0036,CyrusOne LLC,216.117.25.99,TX,Texas,success,America/Chicago,77903
carfaxsa.info,AS62 CyrusOne LLC,Victoria,United States,US,CyrusOne LLC,28.8053,-97.0036,CyrusOne LLC,216.117.25.99,TX,Texas,success,America/Chicago,77903
carfaxsafety.com,AS62 CyrusOne LLC,Victoria,United States,US,CyrusOne LLC,28.8053,-97.0036,CyrusOne LLC,216.117.25.99,TX,Texas,success,America/Chicago,77903
carfaxsafety.net,AS62 CyrusOne LLC,Victoria,United States,US,CyrusOne LLC,28.8053,-97.0036,CyrusOne LLC,216.117.25.99,TX,Texas,success,America/Chicago,77903
carfaxsafety.org,AS62 CyrusOne LLC,Victoria,United States,US,CyrusOne LLC,28.8053,-97.0036,CyrusOne LLC,216.117.25.99,TX,Texas,success,America/Chicago,77903
carfaxsafety.biz,AS62 CyrusOne LLC,Victoria,United States,US,CyrusOne LLC,28.8053,-97.0036,CyrusOne LLC,216.117.25.99,TX,Texas,success,America/Chicago,77903
carfaxsafetyandreliability.com,AS62 CyrusOne LLC,Victoria,United States,US,CyrusOne LLC,28.8053,-97.0036,CyrusOne LLC,216.117.25.99,TX,Texas,success,America/Chicago,77903
carfaxsafetyandreliability.net,AS62 CyrusOne LLC,Victoria,United States,US,CyrusOne LLC,28.8053,-97.0036,CyrusOne LLC,216.117.25.99,TX,Texas,success,America/Chicago,77903
carfaxsafetyandreliability.org,AS62 CyrusOne LLC,Victoria,United States,US,CyrusOne LLC,28.8053,-97.0036,CyrusOne LLC,216.117.25.99,TX,Texas,success,America/Chicago,77903
carfaxsafetyandreliability.biz,AS62 CyrusOne LLC,Victoria,United States,US,CyrusOne LLC,28.8053,-97.0036,CyrusOne LLC,216.117.25.99,TX,Texas,success,America/Chicago,77903
carfaxsafetyandreliabilityreport.com,AS62 CyrusOne LLC,Victoria,United States,US,CyrusOne LLC,28.8053,-97.0036,CyrusOne LLC,216.117.25.99,TX,Texas,success,America/Chicago,77903
carfaxsafetyandreliabilityreport.net,AS62 CyrusOne LLC,Victoria,United States,US,CyrusOne LLC,28.8053,-97.0036,CyrusOne LLC,216.117.25.99,TX,Texas,success,America/Chicago,77903
carfaxsafetyandreliabilityreport.org,AS62 CyrusOne LLC,Victoria,United States,US,CyrusOne LLC,28.8053,-97.0036,CyrusOne LLC,216.117.25.99,TX,Texas,success,America/Chicago,77903
carfaxsale.net,AS62 CyrusOne LLC,Victoria,United States,US,CyrusOne LLC,28.8053,-97.0036,CyrusOne LLC,216.117.25.99,TX,Texas,success,America/Chicago,77903
carfaxsale.org,AS62 CyrusOne LLC,Victoria,United States,US,CyrusOne LLC,28.8053,-97.0036,CyrusOne LLC,216.117.25.99,TX,Texas,success,America/Chicago,77903
carfaxsale.biz,AS62 CyrusOne LLC,Victoria,United States,US,CyrusOne LLC,28.8053,-97.0036,CyrusOne LLC,216.117.25.99,TX,Texas,success,America/Chicago,77903
carfaxsale.info,AS62 CyrusOne LLC,Victoria,United States,US,CyrusOne LLC,28.8053,-97.0036,CyrusOne LLC,216.117.25.99,TX,Texas,success,America/Chicago,77903
carfaxsales.com,AS62 CyrusOne LLC,Victoria,United States,US,CyrusOne LLC,28.8053,-97.0036,CyrusOne LLC,216.117.25.99,TX,Texas,success,America/Chicago,77903
carfaxsales.net,AS62 CyrusOne LLC,Victoria,United States,US,CyrusOne LLC,28.8053,-97.0036,CyrusOne LLC,216.117.25.99,TX,Texas,success,America/Chicago,77903
carfaxsales.org,AS62 CyrusOne LLC,Victoria,United States,US,CyrusOne LLC,28.8053,-97.0036,CyrusOne LLC,216.117.25.99,TX,Texas,success,America/Chicago,77903
carfaxsales.biz,AS62 CyrusOne LLC,Victoria,United States,US,CyrusOne LLC,28.8053,-97.0036,CyrusOne LLC,216.117.25.99,TX,Texas,success,America/Chicago,77903
carfaxsales.info,AS62 CyrusOne LLC,Victoria,United States,US,CyrusOne LLC,28.8053,-97.0036,CyrusOne LLC,216.117.25.99,TX,Texas,success,America/Chicago,77903
carfaxsaskatchewan.com,AS62 CyrusOne LLC,Victoria,United States,US,CyrusOne LLC,28.8053,-97.0036,CyrusOne LLC,216.117.25.99,TX,Texas,success,America/Chicago,77903
carfaxsearch.com,AS62 CyrusOne LLC,Victoria,United States,US,CyrusOne LLC,28.8053,-97.0036,CyrusOne LLC,216.117.25.99,TX,Texas,success,America/Chicago,77903
carfaxseller.com,"AS26496 GoDaddy.com, LLC",Scottsdale,United States,US,"GoDaddy.com, LLC",33.6119,-111.8906,"GoDaddy.com, LLC",184.168.221.38,AZ,Arizona,success,America/Phoenix,85260
carfaxservice.com,AS62 CyrusOne LLC,Victoria,United States,US,CyrusOne LLC,28.8053,-97.0036,CyrusOne LLC,216.117.25.99,TX,Texas,success,America/Chicago,77903
carfaxserviceadvantage.com,AS62 CyrusOne LLC,Victoria,United States,US,CyrusOne LLC,28.8053,-97.0036,CyrusOne LLC,216.117.25.99,TX,Texas,success,America/Chicago,77903
carfaxserviceconnect.net,AS62 CyrusOne LLC,Victoria,United States,US,CyrusOne LLC,28.8053,-97.0036,CyrusOne LLC,216.117.25.99,TX,Texas,success,America/Chicago,77903
carfaxservicelink.com,AS62 CyrusOne LLC,Victoria,United States,US,CyrusOne LLC,28.8053,-97.0036,CyrusOne LLC,216.117.25.99,TX,Texas,success,America/Chicago,77903
carfaxservicenetwork.com,AS62 CyrusOne LLC,Victoria,United States,US,CyrusOne LLC,28.8053,-97.0036,CyrusOne LLC,216.117.25.99,TX,Texas,success,America/Chicago,77903
carfaxservicenetwork.net,AS62 CyrusOne LLC,Victoria,United States,US,CyrusOne LLC,28.8053,-97.0036,CyrusOne LLC,216.117.25.99,TX,Texas,success,America/Chicago,77903
carfaxservicenetwork.org,AS62 CyrusOne LLC,Victoria,United States,US,CyrusOne LLC,28.8053,-97.0036,CyrusOne LLC,216.117.25.99,TX,Texas,success,America/Chicago,77903
carfaxservicenetwork.info,AS62 CyrusOne LLC,Victoria,United States,US,CyrusOne LLC,28.8053,-97.0036,CyrusOne LLC,216.117.25.99,TX,Texas,success,America/Chicago,77903
carfaxserviceshop.com,AS62 CyrusOne LLC,Victoria,United States,US,CyrusOne LLC,28.8053,-97.0036,CyrusOne LLC,216.117.25.99,TX,Texas,success,America/Chicago,77903
carfaxserviceshops.com,AS62 CyrusOne LLC,Victoria,United States,US,CyrusOne LLC,28.8053,-97.0036,CyrusOne LLC,216.117.25.99,TX,Texas,success,America/Chicago,77903
carfaxshare.com,AS62 CyrusOne LLC,Victoria,United States,US,CyrusOne LLC,28.8053,-97.0036,CyrusOne LLC,216.117.25.99,TX,Texas,success,America/Chicago,77903
carfaxshop.com,AS62 CyrusOne LLC,Victoria,United States,US,CyrusOne LLC,28.8053,-97.0036,CyrusOne LLC,216.117.25.99,TX,Texas,success,America/Chicago,77903
carfaxshops.com,AS62 CyrusOne LLC,Victoria,United States,US,CyrusOne LLC,28.8053,-97.0036,CyrusOne LLC,216.117.25.99,TX,Texas,success,America/Chicago,77903
carfaxslovakia.com,AS62 CyrusOne LLC,Victoria,United States,US,CyrusOne LLC,28.8053,-97.0036,CyrusOne LLC,216.117.25.99,TX,Texas,success,America/Chicago,77903
carfaxslovakia.net,AS62 CyrusOne LLC,Victoria,United States,US,CyrusOne LLC,28.8053,-97.0036,CyrusOne LLC,216.117.25.99,TX,Texas,success,America/Chicago,77903
carfaxslovakia.org,AS62 CyrusOne LLC,Victoria,United States,US,CyrusOne LLC,28.8053,-97.0036,CyrusOne LLC,216.117.25.99,TX,Texas,success,America/Chicago,77903
carfaxslovakia.biz,AS62 CyrusOne LLC,Victoria,United States,US,CyrusOne LLC,28.8053,-97.0036,CyrusOne LLC,216.117.25.99,TX,Texas,success,America/Chicago,77903
carfaxslovakia.info,AS62 CyrusOne LLC,Victoria,United States,US,CyrusOne LLC,28.8053,-97.0036,CyrusOne LLC,216.117.25.99,TX,Texas,success,America/Chicago,77903
carfaxslovenia.com,AS62 CyrusOne LLC,Victoria,United States,US,CyrusOne LLC,28.8053,-97.0036,CyrusOne LLC,216.117.25.99,TX,Texas,success,America/Chicago,77903
carfaxslovenia.net,AS62 CyrusOne LLC,Victoria,United States,US,CyrusOne LLC,28.8053,-97.0036,CyrusOne LLC,216.117.25.99,TX,Texas,success,America/Chicago,77903
carfaxslovenia.org,AS62 CyrusOne LLC,Victoria,United States,US,CyrusOne LLC,28.8053,-97.0036,CyrusOne LLC,216.117.25.99,TX,Texas,success,America/Chicago,77903
carfaxslovenia.biz,AS62 CyrusOne LLC,Victoria,United States,US,CyrusOne LLC,28.8053,-97.0036,CyrusOne LLC,216.117.25.99,TX,Texas,success,America/Chicago,77903
carfaxslovenia.info,AS62 CyrusOne LLC,Victoria,United States,US,CyrusOne LLC,28.8053,-97.0036,CyrusOne LLC,216.117.25.99,TX,Texas,success,America/Chicago,77903
carfaxsouthamerica.com,AS62 CyrusOne LLC,Victoria,United States,US,CyrusOne LLC,28.8053,-97.0036,CyrusOne LLC,216.117.25.99,TX,Texas,success,America/Chicago,77903
carfaxsouthamerica.net,AS62 CyrusOne LLC,Victoria,United States,US,CyrusOne LLC,28.8053,-97.0036,CyrusOne LLC,216.117.25.99,TX,Texas,success,America/Chicago,77903
carfaxsouthamerica.org,AS62 CyrusOne LLC,Victoria,United States,US,CyrusOne LLC,28.8053,-97.0036,CyrusOne LLC,216.117.25.99,TX,Texas,success,America/Chicago,77903
carfaxsouthamerica.biz,AS62 CyrusOne LLC,Victoria,United States,US,CyrusOne LLC,28.8053,-97.0036,CyrusOne LLC,216.117.25.99,TX,Texas,success,America/Chicago,77903
carfaxsouthamerica.info,AS62 CyrusOne LLC,Victoria,United States,US,CyrusOne LLC,28.8053,-97.0036,CyrusOne LLC,216.117.25.99,TX,Texas,success,America/Chicago,77903
carfaxsp.com,AS62 CyrusOne LLC,Victoria,United States,US,CyrusOne LLC,28.8053,-97.0036,CyrusOne LLC,216.117.25.99,TX,Texas,success,America/Chicago,77903
carfaxsp.net,AS62 CyrusOne LLC,Victoria,United States,US,CyrusOne LLC,28.8053,-97.0036,CyrusOne LLC,216.117.25.99,TX,Texas,success,America/Chicago,77903
carfaxsp.org,AS62 CyrusOne LLC,Victoria,United States,US,CyrusOne LLC,28.8053,-97.0036,CyrusOne LLC,216.117.25.99,TX,Texas,success,America/Chicago,77903
carfaxsp.biz,AS62 CyrusOne LLC,Victoria,United States,US,CyrusOne LLC,28.8053,-97.0036,CyrusOne LLC,216.117.25.99,TX,Texas,success,America/Chicago,77903
carfaxsp.info,AS62 CyrusOne LLC,Victoria,United States,US,CyrusOne LLC,28.8053,-97.0036,CyrusOne LLC,216.117.25.99,TX,Texas,success,America/Chicago,77903
carfaxspain.com,AS62 CyrusOne LLC,Victoria,United States,US,CyrusOne LLC,28.8053,-97.0036,CyrusOne LLC,216.117.25.99,TX,Texas,success,America/Chicago,77903
carfaxspain.net,AS62 CyrusOne LLC,Victoria,United States,US,CyrusOne LLC,28.8053,-97.0036,CyrusOne LLC,216.117.25.99,TX,Texas,success,America/Chicago,77903
carfaxspain.org,AS62 CyrusOne LLC,Victoria,United States,US,CyrusOne LLC,28.8053,-97.0036,CyrusOne LLC,216.117.25.99,TX,Texas,success,America/Chicago,77903
carfaxspain.biz,AS62 CyrusOne LLC,Victoria,United States,US,CyrusOne LLC,28.8053,-97.0036,CyrusOne LLC,216.117.25.99,TX,Texas,success,America/Chicago,77903
carfaxspain.info,AS62 CyrusOne LLC,Victoria,United States,US,CyrusOne LLC,28.8053,-97.0036,CyrusOne LLC,216.117.25.99,TX,Texas,success,America/Chicago,77903
carfaxspanish.com,AS62 CyrusOne LLC,Victoria,United States,US,CyrusOne LLC,28.8053,-97.0036,CyrusOne LLC,216.117.25.99,TX,Texas,success,America/Chicago,77903
carfaxspanish.net,AS62 CyrusOne LLC,Victoria,United States,US,CyrusOne LLC,28.8053,-97.0036,CyrusOne LLC,216.117.25.99,TX,Texas,success,America/Chicago,77903
carfaxspanish.org,AS62 CyrusOne LLC,Victoria,United States,US,CyrusOne LLC,28.8053,-97.0036,CyrusOne LLC,216.117.25.99,TX,Texas,success,America/Chicago,77903
carfaxspanish.biz,AS62 CyrusOne LLC,Victoria,United States,US,CyrusOne LLC,28.8053,-97.0036,CyrusOne LLC,216.117.25.99,TX,Texas,success,America/Chicago,77903
carfaxspanish.info,AS62 CyrusOne LLC,Victoria,United States,US,CyrusOne LLC,28.8053,-97.0036,CyrusOne LLC,216.117.25.99,TX,Texas,success,America/Chicago,77903
carfaxspretattainture.xyz,AS13335 CloudFlare,San Francisco,United States,US,CloudFlare,37.7697,-122.3933,CloudFlare,104.18.62.221,CA,California,success,America/Los_Angeles,94107
carfaxstores.com,"AS20284 INETu, Inc.",Bethlehem,United States,US,INETu,40.6303,-75.3941,INETu,209.235.220.152,PA,Pennsylvania,success,America/New_York,18018
carfaxsubscriber.net,"AS10753 Level 3 Communications, Inc.",Columbia,United States,US,Level 3 Communications,39.0437,-92.2714,Hydrosoft Internet,64.193.21.57,MO,Missouri,success,America/Chicago,65202
carfaxsucks.com,AS62 CyrusOne LLC,Victoria,United States,US,CyrusOne LLC,28.8053,-97.0036,CyrusOne LLC,216.117.25.99,TX,Texas,success,America/Chicago,77903
carfaxsummer.com,"AS26496 GoDaddy.com, LLC",Scottsdale,United States,US,"GoDaddy.com, LLC",33.6119,-111.8906,"GoDaddy.com, LLC",184.168.221.38,AZ,Arizona,success,America/Phoenix,85260
carfaxsummer.net,"AS26496 GoDaddy.com, LLC",Scottsdale,United States,US,"GoDaddy.com, LLC",33.6119,-111.8906,"GoDaddy.com, LLC",50.63.202.45,AZ,Arizona,success,America/Phoenix,85260
carfaxsummer.org,"AS26496 GoDaddy.com, LLC",Scottsdale,United States,US,"GoDaddy.com, LLC",33.6119,-111.8906,"GoDaddy.com, LLC",184.168.221.59,AZ,Arizona,success,America/Phoenix,85260
carfaxsummer.info,"AS26496 GoDaddy.com, LLC",Scottsdale,United States,US,"GoDaddy.com, LLC",33.6119,-111.8906,"GoDaddy.com, LLC",50.63.202.59,AZ,Arizona,success,America/Phoenix,85260
carfaxsupersale.com,"AS26496 GoDaddy.com, LLC",Scottsdale,United States,US,"GoDaddy.com, LLC",33.6119,-111.8906,"GoDaddy.com, LLC",166.62.55.142,AZ,Arizona,success,America/Phoenix,85260
carfaxsupersale.net,"AS26496 GoDaddy.com, LLC",Scottsdale,United States,US,"GoDaddy.com, LLC",33.6119,-111.8906,"GoDaddy.com, LLC",166.62.55.142,AZ,Arizona,success,America/Phoenix,85260
carfaxsuperstore.com,"AS26496 GoDaddy.com, LLC",Scottsdale,United States,US,"GoDaddy.com, LLC",33.6119,-111.8906,"GoDaddy.com, LLC",166.62.55.142,AZ,Arizona,success,America/Phoenix,85260
carfaxsupport.com,"AS22612 Namecheap, Inc.",Los Angeles,United States,US,Namecheap,34.0355,-118.4298,Namecheap,162.255.119.249,CA,California,success,America/Los_Angeles,90064
carfaxsweden.com,AS62 CyrusOne LLC,Victoria,United States,US,CyrusOne LLC,28.8053,-97.0036,CyrusOne LLC,216.117.25.99,TX,Texas,success,America/Chicago,77903
carfaxsweden.net,AS62 CyrusOne LLC,Victoria,United States,US,CyrusOne LLC,28.8053,-97.0036,CyrusOne LLC,216.117.25.99,TX,Texas,success,America/Chicago,77903
carfaxsweden.org,AS62 CyrusOne LLC,Victoria,United States,US,CyrusOne LLC,28.8053,-97.0036,CyrusOne LLC,216.117.25.99,TX,Texas,success,America/Chicago,77903
carfaxsweden.biz,AS62 CyrusOne LLC,Victoria,United States,US,CyrusOne LLC,28.8053,-97.0036,CyrusOne LLC,216.117.25.99,TX,Texas,success,America/Chicago,77903
carfaxsweden.info,AS62 CyrusOne LLC,Victoria,United States,US,CyrusOne LLC,28.8053,-97.0036,CyrusOne LLC,216.117.25.99,TX,Texas,success,America/Chicago,77903
carfaxteam.com,AS62 CyrusOne LLC,Victoria,United States,US,CyrusOne LLC,28.8053,-97.0036,CyrusOne LLC,216.117.25.99,TX,Texas,success,America/Chicago,77903
carfaxtow.com,"AS26496 GoDaddy.com, LLC",Scottsdale,United States,US,"GoDaddy.com, LLC",33.6119,-111.8906,"GoDaddy.com, LLC",50.63.202.48,AZ,Arizona,success,America/Phoenix,85260
carfaxtt.com,AS13335 CloudFlare,San Francisco,United States,US,CloudFlare,37.7697,-122.3933,CloudFlare,104.16.87.230,CA,California,success,America/Los_Angeles,94107
carfaxtutors.com,AS8560 1&1 Internet SE,Offenbach,Germany,DE,1&1 Internet AG,50.0748,8.75573,1&1 Internet AG,217.160.223.109,HE,Hesse,success,Europe/Berlin,
carfaxtutors.net,AS8560 1&1 Internet SE,Offenbach,Germany,DE,1&1 Internet AG,50.0748,8.75573,1&1 Internet AG,217.160.223.109,HE,Hesse,success,Europe/Berlin,
carfaxtutors.org,AS8560 1&1 Internet SE,Offenbach,Germany,DE,1&1 Internet AG,50.0748,8.75573,1&1 Internet AG,217.160.223.109,HE,Hesse,success,Europe/Berlin,
carfaxtutors.info,AS8560 1&1 Internet SE,Offenbach,Germany,DE,1&1 Internet AG,50.0748,8.75573,1&1 Internet AG,217.160.223.109,HE,Hesse,success,Europe/Berlin,
carfaxuae.com,AS8560 1&1 Internet SE,London,United Kingdom,GB,1&1 Internet AG,51.5074,-0.127758,1&1 Internet AG,82.165.22.132,ENG,England,success,Europe/London,
carfaxuae.net,AS8560 1&1 Internet SE,London,United Kingdom,GB,1&1 Internet AG,51.5074,-0.127758,1&1 Internet AG,82.165.22.132,ENG,England,success,Europe/London,
carfaxuae.org,AS8560 1&1 Internet SE,London,United Kingdom,GB,1&1 Internet AG,51.5074,-0.127758,1&1 Internet AG,82.165.22.132,ENG,England,success,Europe/London,
carfaxupdate.com,AS62 CyrusOne LLC,Victoria,United States,US,CyrusOne LLC,28.8053,-97.0036,CyrusOne LLC,216.117.25.99,TX,Texas,success,America/Chicago,77903
carfaxusa.com,AS62 CyrusOne LLC,Victoria,United States,US,CyrusOne LLC,28.8053,-97.0036,CyrusOne LLC,216.117.25.99,TX,Texas,success,America/Chicago,77903
carfaxusedcarpricing.net,AS62 CyrusOne LLC,Victoria,United States,US,CyrusOne LLC,28.8053,-97.0036,CyrusOne LLC,216.117.25.99,TX,Texas,success,America/Chicago,77903
carfaxusedcars.com,"AS63949 Linode, LLC",Newark,United States,US,Linode,40.7357,-74.1724,Linode,97.107.129.31,NJ,New Jersey,success,America/New_York,07175
carfaxvehicleconditionreport.com,"AS26496 GoDaddy.com, LLC",Scottsdale,United States,US,"GoDaddy.com, LLC",33.6119,-111.8906,"GoDaddy.com, LLC",50.63.202.44,AZ,Arizona,success,America/Phoenix,85260
carfaxvehiclehistory.com,AS62 CyrusOne LLC,Victoria,United States,US,CyrusOne LLC,28.8053,-97.0036,CyrusOne LLC,216.117.25.99,TX,Texas,success,America/Chicago,77903
carfaxvehiclehistoryreport.com,AS62 CyrusOne LLC,Victoria,United States,US,CyrusOne LLC,28.8053,-97.0036,CyrusOne LLC,216.117.25.99,TX,Texas,success,America/Chicago,77903
carfaxvehicleinspection.com,AS62 CyrusOne LLC,Victoria,United States,US,CyrusOne LLC,28.8053,-97.0036,CyrusOne LLC,216.117.25.99,TX,Texas,success,America/Chicago,77903
carfaxvehicleinspection.net,AS62 CyrusOne LLC,Victoria,United States,US,CyrusOne LLC,28.8053,-97.0036,CyrusOne LLC,216.117.25.99,TX,Texas,success,America/Chicago,77903
carfaxvehicleinspection.org,AS62 CyrusOne LLC,Victoria,United States,US,CyrusOne LLC,28.8053,-97.0036,CyrusOne LLC,216.117.25.99,TX,Texas,success,America/Chicago,77903
carfaxvehicleinspection.info,AS62 CyrusOne LLC,Victoria,United States,US,CyrusOne LLC,28.8053,-97.0036,CyrusOne LLC,216.117.25.99,TX,Texas,success,America/Chicago,77903
carfaxvehiclepricing.net,AS62 CyrusOne LLC,Victoria,United States,US,CyrusOne LLC,28.8053,-97.0036,CyrusOne LLC,216.117.25.99,TX,Texas,success,America/Chicago,77903
carfaxvehiclereport.com,AS62 CyrusOne LLC,Victoria,United States,US,CyrusOne LLC,28.8053,-97.0036,CyrusOne LLC,216.117.25.99,TX,Texas,success,America/Chicago,77903
carfaxvehicles.com,"AS26496 GoDaddy.com, LLC",Scottsdale,United States,US,"GoDaddy.com, LLC",33.6119,-111.8906,"GoDaddy.com, LLC",107.180.43.14,AZ,Arizona,success,America/Phoenix,85260
carfaxvhs.com,AS62 CyrusOne LLC,Victoria,United States,US,CyrusOne LLC,28.8053,-97.0036,CyrusOne LLC,216.117.25.99,TX,Texas,success,America/Chicago,77903
carfaxvins.com,AS62 CyrusOne LLC,Victoria,United States,US,CyrusOne LLC,28.8053,-97.0036,CyrusOne LLC,216.117.25.99,TX,Texas,success,America/Chicago,77903
carfaxwholesale.com,AS62 CyrusOne LLC,Victoria,United States,US,CyrusOne LLC,28.8053,-97.0036,CyrusOne LLC,216.117.25.99,TX,Texas,success,America/Chicago,77903
carfaxworld.com,AS62 CyrusOne LLC,Victoria,United States,US,CyrusOne LLC,28.8053,-97.0036,CyrusOne LLC,216.117.25.99,TX,Texas,success,America/Chicago,77903
carfaxx.com,AS27357 Rackspace Ltd.,San Antonio,United States,US,Rackspace Hosting,29.4889,-98.3987,Rackspace Hosting,172.99.89.200,TX,Texas,success,America/Chicago,78218
carfaxx.xyz,AS27357 Rackspace Ltd.,San Antonio,United States,US,Rackspace Hosting,29.4889,-98.3987,Rackspace Hosting,172.99.89.200,TX,Texas,success,America/Chicago,78218
carfaxyukon.com,AS62 CyrusOne LLC,Victoria,United States,US,CyrusOne LLC,28.8053,-97.0036,CyrusOne LLC,216.117.25.99,TX,Texas,success,America/Chicago,77903
carfaxz.com,AS62 CyrusOne LLC,Victoria,United States,US,CyrusOne LLC,28.8053,-97.0036,CyrusOne LLC,216.117.25.99,TX,Texas,success,America/Chicago,77903
