Domain,as,city,country,countryCode,isp,lat,lon,org,query,region,regionName,status,timezone,zip
defcon.com,"AS31815 Media Temple, Inc.",Culver City,United States,US,Media Temple,34.0202,-118.3928,Media Temple,64.13.192.72,CA,California,success,America/Los_Angeles,90232
defcon.biz,AS47792 Abo Net Srl,Câmpina,Romania,RO,Abo Net Srl,45.1393,25.7528,Abo Net Srl,91.206.207.207,,Prahova,success,Europe/Bucharest,
defcon.info,AS8560 1&1 Internet SE,Karlsruhe (Südweststadt),Germany,DE,1&1 Internet AG,48.9997,8.38573,1&1 Internet AG,87.106.122.160,,Baden-Württemberg,success,Europe/Berlin,
defcon.live,AS13335 CloudFlare,San Francisco,United States,US,CloudFlare,37.7697,-122.3933,CloudFlare,104.18.45.7,CA,California,success,America/Los_Angeles,94107
defcon.xyz,"AS22612 Namecheap, Inc.",Los Angeles,United States,US,Namecheap,34.0355,-118.4298,Namecheap,162.255.119.248,CA,California,success,America/Los_Angeles,90064
defcon.news,"AS63949 Linode, LLC",Dallas,United States,US,Linode,32.7787,-96.8217,Linode,72.14.182.225,TX,Texas,success,America/Chicago,75270
defcon.website,"AS26496 GoDaddy.com, LLC",Scottsdale,United States,US,"GoDaddy.com, LLC",33.6119,-111.8906,"GoDaddy.com, LLC",50.63.202.26,AZ,Arizona,success,America/Phoenix,85260
defcon.pro,AS13335 CloudFlare,San Francisco,United States,US,CloudFlare,37.7697,-122.3933,CloudFlare,104.24.111.199,CA,California,success,America/Los_Angeles,94107
defcon.one,AS15598 QSC AG,Starnberg,Germany,DE,united-domains AG,48.0052,11.3509,united-domains AG,89.31.143.16,BY,Bavaria,success,Europe/Berlin,
defcon.black,AS19324 Dosarrest Internet Security LTD,New York,United States,US,Cogeco Peer 1,40.6888,-74.0203,Dosarrest Internet Security,69.172.201.153,NY,New York,success,America/New_York,10004
defcon.store,"AS22612 Namecheap, Inc.",Los Angeles,United States,US,Namecheap,34.0355,-118.4298,Namecheap,162.255.119.48,CA,California,success,America/Los_Angeles,90064
defcon.zone,"AS53665 Bodis, LLC",New York,United States,US,"Bodis, LLC",40.7391,-73.9826,"Bodis, LLC",199.59.243.120,NY,New York,success,America/New_York,10010
defcon.email,"AS22612 Namecheap, Inc.",Los Angeles,United States,US,Namecheap,34.0355,-118.4298,Namecheap,162.255.119.250,CA,California,success,America/Los_Angeles,90064
defcon.systems,AS394695 PDR,Houston,United States,US,YHC Corporation,29.7702,-95.3628,YHC Corporation,209.99.17.27,TX,Texas,success,America/Chicago,77002
defcon.kiwi,AS4770 ICONZ Ltd,Wellington,New Zealand,NZ,Internet Company Of New Zealand Limited,-41.2829,174.7842,Internet Company Of New Zealand Limited,210.48.108.70,WGN,Wellington,success,Pacific/Auckland,6011
defcon.expert,"AS26496 GoDaddy.com, LLC",Scottsdale,United States,US,"GoDaddy.com, LLC",33.6119,-111.8906,"GoDaddy.com, LLC",184.168.221.27,AZ,Arizona,success,America/Phoenix,85260
defcon.tech,"AS7922 Comcast Cable Communications, LLC",Kennesaw,United States,US,Comcast Cable,34.0331,-84.6011,Comcast Cable,98.251.112.70,GA,Georgia,success,America/New_York,30144
defcon.ninja,"AS26496 GoDaddy.com, LLC",Scottsdale,United States,US,"GoDaddy.com, LLC",33.6119,-111.8906,"GoDaddy.com, LLC",50.63.202.22,AZ,Arizona,success,America/Phoenix,85260
defcon.studio,"AS21740 eNom, Incorporated",Kirkland,United States,US,"eNom, Incorporated",47.6727,-122.1873,"eNom, Incorporated",98.124.243.33,WA,Washington,success,America/Los_Angeles,98033
defcon.cloud,AS25577 Connexions4London Ltd,Christchurch,United Kingdom,GB,DHMS Ltd,50.7333,-1.7667,DHMS Ltd,81.27.94.75,ENG,England,success,Europe/London,BH23
defcon.codes,AS9371 SAKURA Internet Inc.,Osaka,Japan,JP,SAKURA Internet,34.6864,135.52,SAKURA Internet,219.94.163.141,27,Ōsaka,success,Asia/Tokyo,540-0008
defcon.team,"AS45454 Web24 Virtual & Dedicated hosting service provider, Melb, Australia",Forest Hill (64),Australia,AU,Web24 Virtual & Dedicated hosting service provider,-37.8418,145.167,Web24 Virtual & Dedicated hosting service provider,223.27.17.159,,Victoria,success,Australia/Melbourne,
defcon.group,"AS22612 Namecheap, Inc.",Los Angeles,United States,US,Namecheap,34.0355,-118.4298,Namecheap,162.255.119.47,CA,California,success,America/Los_Angeles,90064
defcon.moscow,"AS36459 GitHub, Inc.",San Francisco,United States,US,GitHub,37.7697,-122.3933,GitHub,192.30.252.154,CA,California,success,America/Los_Angeles,94107
defcon.shop,AS51167 Contabo GmbH,Munich (Ramersdorf - Perlach),Germany,DE,Contabo GmbH,48.1044,11.601,Contabo GmbH,178.238.230.119,,Bavaria,success,Europe/Berlin,
defcon-1.com,"AS29873 The Endurance International Group, Inc.",Burlington,United States,US,The Endurance International Group,42.5051,-71.2047,The Endurance International Group,66.96.133.10,MA,Massachusetts,success,America/New_York,01803
defcon-1.net,AS46606 Unified Layer,Provo,United States,US,Unified Layer,40.2181,-111.6133,Unified Layer,69.89.21.89,UT,Utah,success,America/Denver,84606
defcon-1.info,"AS19871 Network Solutions, LLC",Jacksonville,United States,US,"Network Solutions, LLC",30.1438,-81.5401,"Network Solutions, LLC",205.178.189.131,FL,Florida,success,America/New_York,32258
defcon-1.xyz,"AS26496 GoDaddy.com, LLC",Scottsdale,United States,US,"GoDaddy.com, LLC",33.6119,-111.8906,"GoDaddy.com, LLC",50.63.202.48,AZ,Arizona,success,America/Phoenix,85260
defcon-2.com,"AS26496 GoDaddy.com, LLC",Scottsdale,United States,US,"GoDaddy.com, LLC",33.6119,-111.8906,"GoDaddy.com, LLC",184.168.221.59,AZ,Arizona,success,America/Phoenix,85260
defcon-3.com,AS8560 1&1 Internet SE,Beebe,United States,US,1&1 Internet AG,35.1144,-91.9067,1&1 Internet AG,74.208.215.252,AR,Arkansas,success,America/Chicago,72012
defcon-3.net,"AS63949 Linode, LLC",Dallas,United States,US,Linode,32.7787,-96.8217,Linode,66.228.55.159,TX,Texas,success,America/Chicago,75270
defcon-5.com,AS20021 HostMySite,Newark,United States,US,HostMySite,39.6155,-75.7044,HostMySite,204.12.60.146,DE,Delaware,success,America/New_York,19702
defcon-5.info,AS25074 Host Europe GmbH,Baumholder,Germany,DE,Level 3 Communications,49.627,7.33126,PlusServer Deutschland GmbH,212.162.56.36,RP,Rheinland-Pfalz,success,Europe/Berlin,
defcon-6.com,"AS26496 GoDaddy.com, LLC",Amsterdam (De Omval),Netherlands,NL,Go Daddy Netherlands B.V.,52.3365,4.93189,Hosting,188.121.59.128,,North Holland,success,Europe/Amsterdam,
defcon-7.com,AS16276 OVH SAS,Roubaix,France,FR,OVH SAS,50.6917,3.20014,OVH SAS,213.186.33.5,O,Nord-Pas-de-Calais,success,Europe/Paris,
defcon-alert.org,"AS26496 GoDaddy.com, LLC",Scottsdale,United States,US,"GoDaddy.com, LLC",33.6119,-111.8906,"GoDaddy.com, LLC",192.169.226.115,AZ,Arizona,success,America/Phoenix,85260
defcon-b.com,AS6724 Strato AG,Berlin,Germany,DE,Strato AG,52.5155,13.4062,Strato AG,81.169.145.80,BE,Land Berlin,success,Europe/Berlin,10317
defcon-bangalore.org,AS9371 SAKURA Internet Inc.,Osaka,Japan,JP,XServer,34.6864,135.52,XServer,183.90.232.14,27,Ōsaka,success,Asia/Tokyo,540-0008
defcon-cc.org,AS3209 Vodafone GmbH,Hagen,Germany,DE,Vodafone DSL,51.3987,7.4901,Vodafone DSL,178.6.114.40,NW,North Rhine-Westphalia,success,Europe/Berlin,58099
defcon-customs.com,AS15598 QSC AG,Starnberg,Germany,DE,united-domains AG,48.0052,11.3509,united-domains AG,89.31.143.16,BY,Bavaria,success,Europe/Berlin,
defcon-event.com,AS8560 1&1 Internet SE,Offenbach,Germany,DE,1&1 Internet AG,50.0748,8.75573,1&1 Internet AG,217.160.223.150,HE,Hesse,success,Europe/Berlin,
defcon-film.com,AS6724 Strato AG,Berlin,Germany,DE,Strato AG,52.5155,13.4062,Strato AG,81.169.145.74,BE,Land Berlin,success,Europe/Berlin,10317
defcon-industries.com,"AS209 Qwest Communications Company, LLC",Vashon,United States,US,CenturyLink,47.4206,-122.4509,CenturyLink,98.125.223.228,WA,Washington,success,America/Los_Angeles,98070
defcon-it.com,AS6724 Strato AG,Berlin,Germany,DE,Strato AG,52.5155,13.4062,Strato AG,81.169.145.170,BE,Land Berlin,success,Europe/Berlin,10317
defcon-japan.org,AS2501 The University of Tokyo,Bunkyō,Japan,JP,The University of Tokyo,35.7134,139.762,The University of Tokyo,133.11.140.162,,Chiba,success,Asia/Tokyo,
defcon-labs.com,AS8560 1&1 Internet SE,Offenbach,Germany,DE,1&1 Internet AG,50.0748,8.75573,1&1 Internet AG,217.160.223.191,HE,Hesse,success,Europe/Berlin,
defcon-lb.com,"AS26496 GoDaddy.com, LLC",Scottsdale,United States,US,"GoDaddy.com, LLC",33.6119,-111.8906,"GoDaddy.com, LLC",160.153.129.38,AZ,Arizona,success,America/Phoenix,85260
defcon-llc.com,"AS53831 Squarespace, Inc.",Coopersburg,United States,US,Squarespace,40.5021,-75.3765,Squarespace,198.185.159.144,PA,Pennsylvania,success,America/New_York,18036
defcon-moscow.org,"AS197695 Domain names registrar REG.RU, Ltd",Moscow,Russia,RU,"Domain names registrar REG.RU, Ltd",55.7485,37.6184,"Domain names registrar REG.RU, Ltd",31.31.204.163,MOW,Moscow,success,Europe/Moscow,101194
defcon-one.com,AS15598 QSC AG,Starnberg,Germany,DE,united-domains AG,48.0052,11.3509,united-domains AG,89.31.143.16,BY,Bavaria,success,Europe/Berlin,
defcon-one.xyz,"AS26496 GoDaddy.com, LLC",Scottsdale,United States,US,"GoDaddy.com, LLC",33.6119,-111.8906,"GoDaddy.com, LLC",184.168.221.49,AZ,Arizona,success,America/Phoenix,85260
defcon-racing.com,AS32748 Steadfast,Norman (Larsh / Miller),United States,US,Steadfast,35.2214,-97.4413,Steadfast,162.249.125.90,,Oklahoma,success,America/Chicago,
defcon-rsps.com,AS47583 Hostinger International Limited,Greenville,United States,US,Hostinger International Limited,34.8526,-82.394,Hostinger International Limited,31.220.53.100,SC,South Carolina,success,America/New_York,
defcon-services.com,AS31034 Aruba S.p.A.,Arezzo,Italy,IT,Aruba S.p.A.,43.4167,11.8833,Aruba S.p.A. - Shared Hosting and Mail services,62.149.128.72,52,Tuscany,success,Europe/Rome,52100
defcon-sg.com,"AS33182 HostDime.com, Inc.",Windermere,United States,US,HostDime.com,28.4807,-81.5518,HostDime.com,138.128.166.170,FL,Florida,success,America/New_York,34786
defcon-solutions.com,AS15169 Google Inc.,Mountain View,United States,US,Google Cloud,37.386,-122.0838,Google Cloud,23.236.62.147,CA,California,success,America/Los_Angeles,94035
defcon-switzerland.com,AS6830 Liberty Global Operations B.V.,Jona,Switzerland,CH,Softronics Communication AG,47.2302,8.84554,Softronics Communication AG,91.214.168.194,SG,Saint Gallen,success,Europe/Zurich,
defcon-switzerland.org,AS6830 Liberty Global Operations B.V.,Jona,Switzerland,CH,Softronics Communication AG,47.2302,8.84554,Softronics Communication AG,91.214.168.194,SG,Saint Gallen,success,Europe/Zurich,
defcon-systems.com,AS8560 1&1 Internet SE,Offenbach,Germany,DE,1&1 Internet AG,50.0748,8.75573,1&1 Internet AG,217.160.223.113,HE,Hesse,success,Europe/Berlin,
defcon-tac.com,"AS29873 The Endurance International Group, Inc.",Burlington,United States,US,The Endurance International Group,42.5051,-71.2047,The Endurance International Group,66.96.149.32,MA,Massachusetts,success,America/New_York,01803
defcon-tactical.com,AS8560 1&1 Internet SE,Offenbach,Germany,DE,1&1 Internet AG,50.0748,8.75573,1&1 Internet AG,212.227.247.109,HE,Hesse,success,Europe/Berlin,
defcon-two.com,AS31034 Aruba S.p.A.,Arezzo,Italy,IT,Aruba S.p.A.,43.4167,11.8833,Aruba S.p.A. - Shared Hosting and Mail services,62.149.128.166,52,Tuscany,success,Europe/Rome,52100
defcon-unlimited.com,AS15598 QSC AG,Starnberg,Germany,DE,united-domains AG,48.0052,11.3509,united-domains AG,89.31.143.16,BY,Bavaria,success,Europe/Berlin,
defcon-usa.com,AS15348 Tucows.com Co.,Thornhill,Canada,CA,Tucows.com Co.,43.8,-79.4167,Tucows.com Co.,216.40.47.17,ON,Ontario,success,America/Toronto,M2M
defcon-weaponry.com,AS13335 CloudFlare,San Francisco,United States,US,CloudFlare,37.7697,-122.3933,CloudFlare,104.31.68.193,CA,California,success,America/Los_Angeles,94107
defcon-whq.com,AS20773 Host Europe GmbH,Hoest,Germany,DE,Host Europe GmbH,51.65,6.1833,Hosteurope GmbH,176.28.22.146,NW,North Rhine-Westphalia,success,Europe/Berlin,47652
defcon-wireless-village.com,"AS63949 Linode, LLC",Newark,United States,US,Linode,40.7357,-74.1724,Linode,66.228.36.191,NJ,New Jersey,success,America/New_York,07175
defcon-wireless-village.net,"AS63949 Linode, LLC",Newark,United States,US,Linode,40.7357,-74.1724,Linode,66.228.36.191,NJ,New Jersey,success,America/New_York,07175
defcon-wireless-village.org,"AS63949 Linode, LLC",Newark,United States,US,Linode,40.7357,-74.1724,Linode,66.228.36.191,NJ,New Jersey,success,America/New_York,07175
defcon-x.net,"AS22612 Namecheap, Inc.",Los Angeles,United States,US,Namecheap,34.0355,-118.4298,Namecheap,162.255.119.250,CA,California,success,America/Los_Angeles,90064
defcon-zero.com,"AS7506 GMO Internet,Inc",Chūō,Japan,JP,"GMO Internet,Inc",35.6804,139.772,"GMO Internet,Inc",150.95.255.38,,Tokyo,success,Asia/Tokyo,
defcon-zone.com,AS47583 Hostinger International Limited,Singapore,Singapore,SG,Hostinger International Limited,1.28009,103.851,Hostinger International Limited,31.220.110.133,,Central Singapore,success,Asia/Singapore,
defcon0.com,"AS14618 Amazon.com, Inc.",Ashburn,United States,US,Amazon.com,39.0481,-77.4728,Amazon.com,54.85.127.70,VA,Virginia,success,America/New_York,20149
defcon01.com,AS8560 1&1 Internet SE,Warsaw,Poland,PL,1&1 Internet AG,52.2297,21.0122,1&1 Internet AG,217.160.233.203,MZ,Masovian Voivodeship,success,Europe/Warsaw,
defcon1.com,"AS63949 Linode, LLC",Dallas,United States,US,Linode,32.7787,-96.8217,Linode,50.116.25.185,TX,Texas,success,America/Chicago,75270
defcon1.net,AS15699 OGIC Informatica S.L.,Madrid,Spain,ES,Adam ecoTECH S.A.,40.4167,-3.6838,Adam ecoTECH S.A.,37.46.74.133,MD,Madrid,success,Europe/Madrid,28001
defcon1.org,"AS7922 Comcast Cable Communications, LLC",Indianapolis,United States,US,Comcast Business,39.9051,-86.1159,Comcast Business,50.195.243.146,IN,Indiana,success,America/Indiana/Indianapolis,46240
defcon1.info,"AS26496 GoDaddy.com, LLC",Scottsdale,United States,US,"GoDaddy.com, LLC",33.6119,-111.8906,"GoDaddy.com, LLC",50.63.202.46,AZ,Arizona,success,America/Phoenix,85260
defcon1.guru,"AS29873 The Endurance International Group, Inc.",Burlington,United States,US,The Endurance International Group,42.5051,-71.2047,The Endurance International Group,66.96.147.96,MA,Massachusetts,success,America/New_York,01803
defcon1.click,AS9371 SAKURA Internet Inc.,Osaka,Japan,JP,XServer,34.6864,135.52,XServer,157.112.145.21,27,Ōsaka,success,Asia/Tokyo,540-0008
defcon1-gh.com,"AS29873 The Endurance International Group, Inc.",Burlington,United States,US,The Endurance International Group,42.5051,-71.2047,The Endurance International Group,66.96.149.32,MA,Massachusetts,success,America/New_York,01803
defcon1-security.com,AS8560 1&1 Internet SE,Warsaw,Poland,PL,1&1 Internet AG,52.2297,21.0122,1&1 Internet AG,217.160.231.201,MZ,Masovian Voivodeship,success,Europe/Warsaw,
defcon101.com,"AS26496 GoDaddy.com, LLC",Scottsdale,United States,US,"GoDaddy.com, LLC",33.6119,-111.8906,"GoDaddy.com, LLC",50.63.202.32,AZ,Arizona,success,America/Phoenix,85260
defcon101.net,"AS26496 GoDaddy.com, LLC",Scottsdale,United States,US,"GoDaddy.com, LLC",33.6119,-111.8906,"GoDaddy.com, LLC",50.63.202.46,AZ,Arizona,success,America/Phoenix,85260
defcon101.org,"AS26496 GoDaddy.com, LLC",Scottsdale,United States,US,"GoDaddy.com, LLC",33.6119,-111.8906,"GoDaddy.com, LLC",184.168.221.23,AZ,Arizona,success,America/Phoenix,85260
defcon110.com,"AS21740 eNom, Incorporated",Seattle,United States,US,"eNom, Incorporated",47.6854,-122.2872,"eNom, Incorporated",69.64.147.242,WA,Washington,success,America/Los_Angeles,98115
defcon13.com,AS13768 Peer 1 Network (USA) Inc.,Austin,United States,US,Peer 1 Dedicated Hosting,30.1678,-97.8225,Peer 1 Network (USA),209.15.20.228,TX,Texas,success,America/Chicago,78748
defcon13ejuice.com,"AS63949 Linode, LLC",Dallas,United States,US,Linode,32.7787,-96.8217,"Linode, LLC",45.33.9.234,TX,Texas,success,America/Chicago,75270
defcon17pics.com,AS8560 1&1 Internet SE,Wayne,United States,US,1&1 Internet AG,40.0548,-75.4083,1&1 Internet AG,216.250.120.254,PA,Pennsylvania,success,America/New_York,19087
defcon1africa.com,"AS29873 The Endurance International Group, Inc.",Burlington,United States,US,The Endurance International Group,42.5051,-71.2047,The Endurance International Group,66.96.145.128,MA,Massachusetts,success,America/New_York,01803
defcon1airsoft.com,AS8560 1&1 Internet SE,Karlsruhe,Germany,DE,1&1 Internet AG,48.9923,8.38317,1&1 Internet AG,87.106.111.76,BW,Baden-Württemberg Region,success,Europe/Berlin,
defcon1apparel.com,AS36351 SoftLayer Technologies Inc.,Austin,United States,US,Bigcommerce,30.4295,-97.8419,SoftLayer Technologies,192.200.179.3,TX,Texas,success,America/Chicago,78726
defcon1autotransport.com,"AS26228 DataPipe, Inc.",Jersey City,United States,US,DataPipe,40.7209,-74.0468,DataPipe,216.121.29.37,NJ,New Jersey,success,America/New_York,07302
defcon1bags.com,"AS26496 GoDaddy.com, LLC",Scottsdale,United States,US,"GoDaddy.com, LLC",33.6119,-111.8906,"GoDaddy.com, LLC",50.63.202.53,AZ,Arizona,success,America/Phoenix,85260
defcon1blog.com,"AS26496 GoDaddy.com, LLC",Scottsdale,United States,US,"GoDaddy.com, LLC",33.6119,-111.8906,"GoDaddy.com, LLC",107.180.40.28,AZ,Arizona,success,America/Phoenix,85260
defcon1carcare.com,AS8560 1&1 Internet SE,Warsaw,Poland,PL,1&1 Internet AG,52.2297,21.0122,1&1 Internet AG,217.160.231.4,MZ,Masovian Voivodeship,success,Europe/Warsaw,
defcon1ccw.com,"AS26496 GoDaddy.com, LLC",Scottsdale,United States,US,"GoDaddy.com, LLC",33.6119,-111.8906,"GoDaddy.com, LLC",50.63.202.32,AZ,Arizona,success,America/Phoenix,85260
defcon1coc.com,"AS26496 GoDaddy.com, LLC",Scottsdale,United States,US,"GoDaddy.com, LLC",33.6119,-111.8906,"GoDaddy.com, LLC",50.63.202.59,AZ,Arizona,success,America/Phoenix,85260
defcon1defender.com,"AS29873 The Endurance International Group, Inc.",Burlington,United States,US,The Endurance International Group,42.5051,-71.2047,The Endurance International Group,66.96.149.1,MA,Massachusetts,success,America/New_York,01803
defcon1electric.com,AS15244 Lunar Pages,Anaheim,United States,US,Lunar Pages,33.8502,-117.7912,Lunar Pages,64.50.186.175,CA,California,success,America/Los_Angeles,92807
defcon1electric.net,"AS19871 Network Solutions, LLC",Jacksonville,United States,US,"Network Solutions, LLC",30.1438,-81.5401,"Network Solutions, LLC",205.178.189.131,FL,Florida,success,America/New_York,32258
defcon1firearms.com,"AS26496 GoDaddy.com, LLC",Scottsdale,United States,US,"GoDaddy.com, LLC",33.6119,-111.8906,"GoDaddy.com, LLC",50.63.202.33,AZ,Arizona,success,America/Phoenix,85260
defcon1firearmstraining.com,"AS26496 GoDaddy.com, LLC",Scottsdale,United States,US,"GoDaddy.com, LLC",33.6119,-111.8906,"GoDaddy.com, LLC",184.168.221.55,AZ,Arizona,success,America/Phoenix,85260
defcon1it.com,"AS26496 GoDaddy.com, LLC",Scottsdale,United States,US,"GoDaddy.com, LLC",33.6119,-111.8906,"GoDaddy.com, LLC",184.168.221.96,AZ,Arizona,success,America/Phoenix,85260
defcon1networks.com,AS8560 1&1 Internet SE,Wayne,United States,US,1&1 Internet AG,40.0548,-75.4083,1&1 Internet AG,216.250.120.160,PA,Pennsylvania,success,America/New_York,19087
defcon1nracourses.com,"AS26496 GoDaddy.com, LLC",Scottsdale,United States,US,"GoDaddy.com, LLC",33.6119,-111.8906,"GoDaddy.com, LLC",184.168.221.54,AZ,Arizona,success,America/Phoenix,85260
defcon1production.com,"AS26496 GoDaddy.com, LLC",Scottsdale,United States,US,"GoDaddy.com, LLC",33.6119,-111.8906,"GoDaddy.com, LLC",50.63.202.41,AZ,Arizona,success,America/Phoenix,85260
defcon1production.net,"AS26496 GoDaddy.com, LLC",Scottsdale,United States,US,"GoDaddy.com, LLC",33.6119,-111.8906,"GoDaddy.com, LLC",184.168.221.33,AZ,Arizona,success,America/Phoenix,85260
defcon1production.org,"AS26496 GoDaddy.com, LLC",Scottsdale,United States,US,"GoDaddy.com, LLC",33.6119,-111.8906,"GoDaddy.com, LLC",50.63.202.54,AZ,Arizona,success,America/Phoenix,85260
defcon1production.info,"AS26496 GoDaddy.com, LLC",Scottsdale,United States,US,"GoDaddy.com, LLC",33.6119,-111.8906,"GoDaddy.com, LLC",50.63.202.50,AZ,Arizona,success,America/Phoenix,85260
defcon1productions.com,"AS26496 GoDaddy.com, LLC",Scottsdale,United States,US,"GoDaddy.com, LLC",33.6119,-111.8906,"GoDaddy.com, LLC",198.71.232.3,AZ,Arizona,success,America/Phoenix,85260
defcon1productions.net,"AS26496 GoDaddy.com, LLC",Scottsdale,United States,US,"GoDaddy.com, LLC",33.6119,-111.8906,"GoDaddy.com, LLC",184.168.221.41,AZ,Arizona,success,America/Phoenix,85260
defcon1productions.org,"AS26496 GoDaddy.com, LLC",Scottsdale,United States,US,"GoDaddy.com, LLC",33.6119,-111.8906,"GoDaddy.com, LLC",184.168.221.50,AZ,Arizona,success,America/Phoenix,85260
defcon1productions.info,"AS26496 GoDaddy.com, LLC",Scottsdale,United States,US,"GoDaddy.com, LLC",33.6119,-111.8906,"GoDaddy.com, LLC",50.63.202.43,AZ,Arizona,success,America/Phoenix,85260
defcon1recordings.com,AS46606 Unified Layer,Provo,United States,US,Unified Layer,40.2181,-111.6133,Unified Layer,50.87.149.43,UT,Utah,success,America/Denver,84606
defcon1rv.com,AS46606 Unified Layer,Orem,United States,US,Unified Layer,40.2968,-111.6761,Unified Layer,74.220.199.8,UT,Utah,success,America/Denver,84097
defcon1santander.com,AS8560 1&1 Internet SE,Neubrandenburg,Germany,DE,1&1 Internet AG,53.5486,13.2715,1&1 Internet AG,217.160.0.37,MV,Mecklenburg-Vorpommern,success,Europe/Berlin,
defcon1security.com,AS197902 Hostnet B.V.,Amsterdam (Haarlemmerbuurt),Netherlands,NL,Hostnet B.V.,52.3823,4.89515,Hostnet BV Network Operations,91.184.19.46,,North Holland,success,Europe/Amsterdam,
defcon1services.com,AS15169 Google Inc.,Mountain View,United States,US,Google Cloud,37.386,-122.0838,Google Cloud,23.236.62.147,CA,California,success,America/Los_Angeles,94035
defcon1systems.com,"AS26496 GoDaddy.com, LLC",Scottsdale,United States,US,"GoDaddy.com, LLC",33.6119,-111.8906,"GoDaddy.com, LLC",208.109.181.24,AZ,Arizona,success,America/Phoenix,85260
defcon1tactical.com,"AS26496 GoDaddy.com, LLC",Scottsdale,United States,US,"GoDaddy.com, LLC",33.6119,-111.8906,"GoDaddy.com, LLC",50.63.202.38,AZ,Arizona,success,America/Phoenix,85260
defcon1tactical.net,"AS26496 GoDaddy.com, LLC",Scottsdale,United States,US,"GoDaddy.com, LLC",33.6119,-111.8906,"GoDaddy.com, LLC",50.63.202.59,AZ,Arizona,success,America/Phoenix,85260
defcon1tactical.org,"AS26496 GoDaddy.com, LLC",Scottsdale,United States,US,"GoDaddy.com, LLC",33.6119,-111.8906,"GoDaddy.com, LLC",50.63.202.55,AZ,Arizona,success,America/Phoenix,85260
defcon1tactical.info,"AS26496 GoDaddy.com, LLC",Scottsdale,United States,US,"GoDaddy.com, LLC",33.6119,-111.8906,"GoDaddy.com, LLC",50.63.202.39,AZ,Arizona,success,America/Phoenix,85260
defcon1training.com,"AS26496 GoDaddy.com, LLC",Scottsdale,United States,US,"GoDaddy.com, LLC",33.6119,-111.8906,"GoDaddy.com, LLC",184.168.221.46,AZ,Arizona,success,America/Phoenix,85260
defcon2.com,"AS32787 Akamai Technologies, Inc.",Cambridge,United States,US,Akamai Technologies,42.3626,-71.0843,Akamai Technologies,72.52.4.119,MA,Massachusetts,success,America/New_York,02142
defcon2.net,AS29119 ServiHosting Networks S.L.,Madrid,Spain,ES,Stackscale BV,40.4165,-3.7026,Stackscale BV,5.57.225.115,MD,Madrid,success,Europe/Madrid,28037
defcon201.org,"AS14061 Digital Ocean, Inc.",Clifton,United States,US,Digital Ocean,40.8326,-74.1307,Digital Ocean,138.197.87.22,NJ,New Jersey,success,America/New_York,07014
defcon225.org,"AS36459 GitHub, Inc.",San Francisco,United States,US,GitHub,37.7697,-122.3933,GitHub,192.30.252.154,CA,California,success,America/Los_Angeles,94107
defcon24.com,AS36351 SoftLayer Technologies Inc.,Dallas,United States,US,ThePlanet.com Internet Services,32.7787,-96.8217,SoftLayer Technologies,184.173.112.230,TX,Texas,success,America/Chicago,75270
defcon25.com,"AS22612 Namecheap, Inc.",Los Angeles,United States,US,Namecheap,34.0355,-118.4298,Namecheap,192.64.119.231,CA,California,success,America/Los_Angeles,90064
defcon2600.com,"AS22612 Namecheap, Inc.",Los Angeles,United States,US,Namecheap,34.0355,-118.4298,Namecheap,198.54.115.116,CA,California,success,America/Los_Angeles,90064
defcon2records.com,AS20773 Host Europe GmbH,London,United Kingdom,GB,Host Europe GmbH,51.5092,-0.0955,Host Europe GmbH,94.136.40.82,ENG,England,success,Europe/London,EC4N
defcon3.com,"AS55002 Defense.Net, Inc",Jacksonville,United States,US,"Network Solutions, LLC",30.1438,-81.5401,Defense.Net,206.188.193.194,FL,Florida,success,America/New_York,32258
defcon3.org,"AS55002 Defense.Net, Inc",Jacksonville,United States,US,"Network Solutions, LLC",30.1438,-81.5401,Defense.Net,206.188.193.194,FL,Florida,success,America/New_York,32258
defcon3.biz,"AS16371 acens Technologies, S.L.",Alcorcón,Spain,ES,"acens Technologies, S.L.",40.3458,-3.8249,"acens Technologies, S.L.",82.194.91.37,MD,Madrid,success,Europe/Madrid,28921
defcon314.org,"AS22612 Namecheap, Inc.",Los Angeles,United States,US,Namecheap,34.0355,-118.4298,Namecheap,162.255.119.249,CA,California,success,America/Los_Angeles,90064
defcon360.com,AS38719 Dreamscape Networks Limited,"Perth (Ground Floor, Durack Centre)",Australia,AU,CrazyDomains,-31.9584,115.865,CrazyDomains,203.170.80.250,,Western Australia,success,Australia/Perth,
defcon3asesoresfiscales.com,"AS26496 GoDaddy.com, LLC",Scottsdale,United States,US,"GoDaddy.com, LLC",33.6119,-111.8906,"GoDaddy.com, LLC",184.168.221.47,AZ,Arizona,success,America/Phoenix,85260
defcon4.com,AS46606 Unified Layer,Houston,United States,US,Websitewelcome.com,29.8301,-95.4739,Unified Layer,192.254.227.141,TX,Texas,success,America/Chicago,77092
defcon4.net,AS20115 Charter Communications,Monterey Park,United States,US,Charter Communications,34.0514,-118.1456,Charter Communications,47.37.157.108,CA,California,success,America/Los_Angeles,91754
defcon415.com,"AS2635 Automattic, Inc",San Francisco,United States,US,Automattic,37.7484,-122.4156,Automattic,192.0.78.25,CA,California,success,America/Los_Angeles,94110
defcon420.com,AS15169 Google Inc.,Mountain View,United States,US,Google Cloud,37.4192,-122.0574,Google Cloud,130.211.231.115,CA,California,success,America/Los_Angeles,94043
defcon5.com,AS198047 UK Webhosting Ltd,Slough,United Kingdom,GB,Compila Ltd,51.5208,-0.619895,Compila Ltd,185.119.173.191,ENG,England,success,Europe/London,
defcon5.net,"AS16509 Amazon.com, Inc.",Boardman,United States,US,Amazon.com,45.8696,-119.688,Amazon.com,35.162.194.217,OR,Oregon,success,America/Los_Angeles,97818
defcon5.org,AS8447 A1 Telekom Austria AG,Leonding,Austria,AT,Telekom Austria,48.2667,14.25,Telekom Austria,93.83.209.230,4,Upper Austria,success,Europe/Vienna,4060
defcon5.biz,"AS22612 Namecheap, Inc.",Los Angeles,United States,US,Namecheap,34.0355,-118.4298,Namecheap,68.65.123.205,CA,California,success,America/Los_Angeles,90064
defcon5.tech,"AS26496 GoDaddy.com, LLC",Scottsdale,United States,US,"GoDaddy.com, LLC",33.6119,-111.8906,"GoDaddy.com, LLC",50.63.202.3,AZ,Arizona,success,America/Phoenix,85260
defcon50.com,"AS21740 eNom, Incorporated",Kirkland,United States,US,"eNom, Incorporated",47.6727,-122.1873,"eNom, Incorporated",98.124.243.42,WA,Washington,success,America/Los_Angeles,98033
defcon50.net,"AS21740 eNom, Incorporated",Kirkland,United States,US,"eNom, Incorporated",47.6727,-122.1873,"eNom, Incorporated",98.124.243.37,WA,Washington,success,America/Los_Angeles,98033
defcon505.org,"AS29873 The Endurance International Group, Inc.",Burlington,United States,US,The Endurance International Group,42.5051,-71.2047,The Endurance International Group,66.96.162.136,MA,Massachusetts,success,America/New_York,01803
defcon54321.com,"AS26496 GoDaddy.com, LLC",Scottsdale,United States,US,"GoDaddy.com, LLC",33.6119,-111.8906,"GoDaddy.com, LLC",184.168.221.62,AZ,Arizona,success,America/Phoenix,85260
defcon54321.net,"AS26496 GoDaddy.com, LLC",Scottsdale,United States,US,"GoDaddy.com, LLC",33.6119,-111.8906,"GoDaddy.com, LLC",184.168.221.60,AZ,Arizona,success,America/Phoenix,85260
defcon54321.org,"AS26496 GoDaddy.com, LLC",Scottsdale,United States,US,"GoDaddy.com, LLC",33.6119,-111.8906,"GoDaddy.com, LLC",50.63.202.38,AZ,Arizona,success,America/Phoenix,85260
defcon54321.info,"AS26496 GoDaddy.com, LLC",Scottsdale,United States,US,"GoDaddy.com, LLC",33.6119,-111.8906,"GoDaddy.com, LLC",50.63.202.39,AZ,Arizona,success,America/Phoenix,85260
defcon5airsoft.com,"AS26496 GoDaddy.com, LLC",Scottsdale,United States,US,"GoDaddy.com, LLC",33.6119,-111.8906,"GoDaddy.com, LLC",184.168.221.33,AZ,Arizona,success,America/Phoenix,85260
defcon5crew.com,"AS53831 Squarespace, Inc.",New York,United States,US,Squarespace,40.7214,-74.0052,Squarespace,198.49.23.145,NY,New York,success,America/New_York,10013
defcon5france.com,AS7859 pair Networks,Pittsburgh,United States,US,pair Networks,40.4223,-79.9791,pair Networks,64.130.13.29,PA,Pennsylvania,success,America/New_York,15203
defcon5italy.com,AS7859 pair Networks,Pittsburgh,United States,US,pair Networks,40.4223,-79.9791,pair Networks,64.130.13.29,PA,Pennsylvania,success,America/New_York,15203
defcon5media.com,"AS22612 Namecheap, Inc.",Los Angeles,United States,US,Namecheap,34.0355,-118.4298,Namecheap,192.64.119.87,CA,California,success,America/Los_Angeles,90064
defcon5studios.com,"AS26496 GoDaddy.com, LLC",Scottsdale,United States,US,"GoDaddy.com, LLC",33.6119,-111.8906,"GoDaddy.com, LLC",50.63.202.62,AZ,Arizona,success,America/Phoenix,85260
defcon5tech.com,"AS26496 GoDaddy.com, LLC",Scottsdale,United States,US,"GoDaddy.com, LLC",33.6119,-111.8906,"GoDaddy.com, LLC",184.168.221.28,AZ,Arizona,success,America/Phoenix,85260
defcon5usa.com,AS46606 Unified Layer,Provo,United States,US,Unified Layer,40.2181,-111.6133,Unified Layer,69.89.31.125,UT,Utah,success,America/Denver,84606
defcon6.com,"AS26347 New Dream Network, LLC",Brea,United States,US,"New Dream Network, LLC",33.9269,-117.8612,"New Dream Network, LLC",69.163.162.66,CA,California,success,America/Los_Angeles,92821
defcon6.biz,AS15169 Google Inc.,Aptos,United States,US,Google,37.0082,-121.8777,Google,216.239.34.21,CA,California,success,America/Los_Angeles,95003
defcon613.com,AS13335 CloudFlare,San Francisco,United States,US,CloudFlare,37.7697,-122.3933,CloudFlare,104.24.101.2,CA,California,success,America/Los_Angeles,94107
defcon6x6.com,AS8560 1&1 Internet SE,Gloucester,United Kingdom,GB,1&1 Internet AG,51.8333,-2.25,1&1 Internet AG,213.171.195.105,ENG,England,success,Europe/London,GL1
defcon734.org,"AS22612 Namecheap, Inc.",Los Angeles,United States,US,Namecheap,34.0355,-118.4298,Namecheap,192.64.119.43,CA,California,success,America/Los_Angeles,90064
defcon7even.com,"AS26496 GoDaddy.com, LLC",Scottsdale,United States,US,"GoDaddy.com, LLC",33.6119,-111.8906,"GoDaddy.com, LLC",184.168.221.40,AZ,Arizona,success,America/Phoenix,85260
defcon8.com,AS8560 1&1 Internet SE,Neubrandenburg,Germany,DE,1&1 Internet AG,53.5486,13.2715,1&1 Internet AG,217.160.0.27,MV,Mecklenburg-Vorpommern,success,Europe/Berlin,
defcon806.org,"AS26347 New Dream Network, LLC",Brea,United States,US,"New Dream Network, LLC",33.9269,-117.8612,"New Dream Network, LLC",208.97.149.216,CA,California,success,America/Los_Angeles,92821
defcon813.com,"AS26496 GoDaddy.com, LLC",Scottsdale,United States,US,"GoDaddy.com, LLC",33.6119,-111.8906,"GoDaddy.com, LLC",50.63.202.57,AZ,Arizona,success,America/Phoenix,85260
defcon813.net,"AS26496 GoDaddy.com, LLC",Scottsdale,United States,US,"GoDaddy.com, LLC",33.6119,-111.8906,"GoDaddy.com, LLC",184.168.221.41,AZ,Arizona,success,America/Phoenix,85260
defcon813.org,AS13335 CloudFlare,San Francisco,United States,US,CloudFlare,37.7697,-122.3933,CloudFlare,104.28.19.183,CA,California,success,America/Los_Angeles,94107
defcon828.com,AS8560 1&1 Internet SE,Wayne,United States,US,1&1 Internet AG,40.0548,-75.4083,1&1 Internet AG,74.208.236.73,PA,Pennsylvania,success,America/New_York,19087
defcon956.org,"AS22612 Namecheap, Inc.",Los Angeles,United States,US,Namecheap,34.0355,-118.4298,Namecheap,68.65.122.49,CA,California,success,America/Los_Angeles,90064
defconairsoft.com,AS8560 1&1 Internet SE,Gloucester,United Kingdom,GB,1&1 Internet AG,51.8333,-2.25,1&1 Internet AG,213.171.195.105,ENG,England,success,Europe/London,GL1
defconalert.com,"AS14618 Amazon.com, Inc.",Ashburn,United States,US,Amazon.com,39.0481,-77.4728,Amazon.com,54.85.65.246,VA,Virginia,success,America/New_York,20149
defconalpha.com,"AS26496 GoDaddy.com, LLC",Scottsdale,United States,US,"GoDaddy.com, LLC",33.6119,-111.8906,"GoDaddy.com, LLC",50.63.202.32,AZ,Arizona,success,America/Phoenix,85260
defconamerica.org,"AS7506 GMO Internet,Inc",Chiyoda-ku,Japan,JP,"GMO Internet,Inc",35.694,139.754,"GMO Internet,Inc",133.130.24.81,13,Tōkyō,success,Asia/Tokyo,
defconammo.com,"AS26496 GoDaddy.com, LLC",Scottsdale,United States,US,"GoDaddy.com, LLC",33.6119,-111.8906,"GoDaddy.com, LLC",50.63.202.44,AZ,Arizona,success,America/Phoenix,85260
defconammo.net,"AS26496 GoDaddy.com, LLC",Scottsdale,United States,US,"GoDaddy.com, LLC",33.6119,-111.8906,"GoDaddy.com, LLC",184.168.221.51,AZ,Arizona,success,America/Phoenix,85260
defconammo.org,"AS26496 GoDaddy.com, LLC",Scottsdale,United States,US,"GoDaddy.com, LLC",33.6119,-111.8906,"GoDaddy.com, LLC",50.63.202.57,AZ,Arizona,success,America/Phoenix,85260
defconammo.info,"AS26496 GoDaddy.com, LLC",Scottsdale,United States,US,"GoDaddy.com, LLC",33.6119,-111.8906,"GoDaddy.com, LLC",50.63.202.60,AZ,Arizona,success,America/Phoenix,85260
defconammunition.com,"AS26496 GoDaddy.com, LLC",Scottsdale,United States,US,"GoDaddy.com, LLC",33.6119,-111.8906,"GoDaddy.com, LLC",184.168.221.48,AZ,Arizona,success,America/Phoenix,85260
defconammunition.net,"AS26496 GoDaddy.com, LLC",Scottsdale,United States,US,"GoDaddy.com, LLC",33.6119,-111.8906,"GoDaddy.com, LLC",50.63.202.53,AZ,Arizona,success,America/Phoenix,85260
defconammunition.org,"AS26496 GoDaddy.com, LLC",Scottsdale,United States,US,"GoDaddy.com, LLC",33.6119,-111.8906,"GoDaddy.com, LLC",50.63.202.51,AZ,Arizona,success,America/Phoenix,85260
defconammunition.info,"AS26496 GoDaddy.com, LLC",Scottsdale,United States,US,"GoDaddy.com, LLC",33.6119,-111.8906,"GoDaddy.com, LLC",50.63.202.45,AZ,Arizona,success,America/Phoenix,85260
defconapocalypse.com,"AS26496 GoDaddy.com, LLC",Scottsdale,United States,US,"GoDaddy.com, LLC",33.6119,-111.8906,"GoDaddy.com, LLC",107.180.0.85,AZ,Arizona,success,America/Phoenix,85260
defconartists.com,AS32181 GigeNET,Arlington Heights,United States,US,GigeNET,42.0643,-87.9921,GigeNET,69.65.33.122,IL,Illinois,success,America/Chicago,60005
defconasia.com,AS9790 CallPlus Services Limited,Auckland,New Zealand,NZ,CallPlus Services Limited,-36.8667,174.7667,CallPlus Services Limited,203.184.52.71,AUK,Auckland,success,Pacific/Auckland,1150
defconations.com,AS27257 Webair Internet Development Company Inc.,Garden City,United States,US,Webair Internet Development Company,40.7276,-73.6344,Webair Internet Development Company,213.247.47.190,NY,New York,success,America/New_York,11530
defconaudio.com,"AS22612 Namecheap, Inc.",Los Angeles,United States,US,Namecheap,34.0355,-118.4298,Namecheap,162.255.119.249,CA,California,success,America/Los_Angeles,90064
defconaz.com,"AS26496 GoDaddy.com, LLC",Scottsdale,United States,US,"GoDaddy.com, LLC",33.6119,-111.8906,"GoDaddy.com, LLC",184.168.221.59,AZ,Arizona,success,America/Phoenix,85260
defconbadge.com,AS40034 Confluence Networks Inc,Freienbach (Pfäffikon),Switzerland,CH,Rook Media GmbH,47.2016,8.77734,Rook Media GmbH,141.8.224.93,,Zurich,success,Europe/Zurich,
defconbathroomcam.com,"AS63949 Linode, LLC",Cedar Knolls,United States,US,Linode,40.8221,-74.4564,Linode,207.192.72.161,NJ,New Jersey,success,America/New_York,07927
defconbc.com,"AS26496 GoDaddy.com, LLC",Scottsdale,United States,US,"GoDaddy.com, LLC",33.6119,-111.8906,"GoDaddy.com, LLC",173.201.216.5,AZ,Arizona,success,America/Phoenix,85260
defconbd.org,AS23956 AmberIT Limited,Dhaka,Bangladesh,BD,DhakaCom Limited,23.7231,90.4086,AmberIT Limited,202.4.96.15,C,Dhaka Division,success,Asia/Dhaka,1000
defconbikes.com,"AS19871 Network Solutions, LLC",Jacksonville,United States,US,"Network Solutions, LLC",30.1438,-81.5401,"Network Solutions, LLC",205.178.189.131,FL,Florida,success,America/New_York,32258
defconbiohackingvillage.org,"AS26347 New Dream Network, LLC",Fullerton,United States,US,"New Dream Network, LLC",33.8768,-117.8931,"New Dream Network, LLC",75.119.200.72,CA,California,success,America/Los_Angeles,92831
defconblog.com,AS46606 Unified Layer,Orem,United States,US,Unified Layer,40.2968,-111.6761,Unified Layer,74.220.215.241,UT,Utah,success,America/Denver,84097
defconblog.org,"AS21740 eNom, Incorporated",Seattle,United States,US,"eNom, Incorporated",47.6854,-122.2872,"eNom, Incorporated",69.64.147.243,WA,Washington,success,America/Los_Angeles,98115
defconblue.com,"AS14618 Amazon.com, Inc.",Ashburn,United States,US,Amazon.com,39.0481,-77.4728,Amazon.com,54.85.127.70,VA,Virginia,success,America/New_York,20149
defconblue.net,"AS14618 Amazon.com, Inc.",Ashburn,United States,US,Amazon.com,39.0481,-77.4728,Amazon.com,23.23.211.206,VA,Virginia,success,America/New_York,20149
defconbots.org,"AS26347 New Dream Network, LLC",Brea,United States,US,"New Dream Network, LLC",33.9269,-117.8612,"New Dream Network, LLC",208.113.175.63,CA,California,success,America/Los_Angeles,92821
defconbrix.com,"AS26496 GoDaddy.com, LLC",Phoenix,United States,US,"GoDaddy.com, LLC",33.3048,-112.1024,"GoDaddy.com, LLC",166.62.111.174,AZ,Arizona,success,America/Phoenix,85045
defconbrown.com,"AS26496 GoDaddy.com, LLC",Scottsdale,United States,US,"GoDaddy.com, LLC",33.6119,-111.8906,"GoDaddy.com, LLC",50.63.202.47,AZ,Arizona,success,America/Phoenix,85260
defconcafe.net,AS57367 ATM S.A.,Krosno,Poland,PL,ATM S.A.,49.6833,21.7833,ATM S.A.,185.36.168.127,PK,Subcarpathian Voivodeship,success,Europe/Warsaw,38-402
defconcare.com,"AS26496 GoDaddy.com, LLC",Scottsdale,United States,US,"GoDaddy.com, LLC",33.6119,-111.8906,"GoDaddy.com, LLC",184.168.221.61,AZ,Arizona,success,America/Phoenix,85260
defconcepts.com,"AS31815 Media Temple, Inc.",Culver City,United States,US,Media Temple,34.0202,-118.3928,Media Temple,72.47.224.85,CA,California,success,America/Los_Angeles,90232
defconclown.com,"AS26496 GoDaddy.com, LLC",Scottsdale,United States,US,"GoDaddy.com, LLC",33.6119,-111.8906,"GoDaddy.com, LLC",50.63.202.37,AZ,Arizona,success,America/Phoenix,85260
defconcol.com,"AS14618 Amazon.com, Inc.",Ashburn,United States,US,Amazon.com,39.0481,-77.4728,Amazon.com,52.204.129.22,VA,Virginia,success,America/New_York,20149
defconcombat.com,AS15169 Google Inc.,Mountain View,United States,US,Google Cloud,37.386,-122.0838,Google Cloud,23.236.62.147,CA,California,success,America/Los_Angeles,94035
defconcomics.com,"AS26496 GoDaddy.com, LLC",Scottsdale,United States,US,"GoDaddy.com, LLC",33.6119,-111.8906,"GoDaddy.com, LLC",50.63.202.39,AZ,Arizona,success,America/Phoenix,85260
defconcomputers.com,"AS14618 Amazon.com, Inc.",Ashburn,United States,US,Amazon.com,39.0481,-77.4728,Amazon.com,52.204.129.22,VA,Virginia,success,America/New_York,20149
defconconsulting.com,AS19975 CASCADELINK INC,Seattle,United States,US,Cascadelink,47.5716,-122.3327,Cascadelink,162.222.171.222,WA,Washington,success,America/Los_Angeles,98134
defconconsulting.net,AS19975 CASCADELINK INC,Seattle,United States,US,Cascadelink,47.5716,-122.3327,Cascadelink,162.222.171.222,WA,Washington,success,America/Los_Angeles,98134
defconcookie.com,"AS14618 Amazon.com, Inc.",Ashburn,United States,US,Amazon.com,39.0481,-77.4728,Amazon.com,174.129.25.170,VA,Virginia,success,America/New_York,20149
defconcorp.com,"AS26496 GoDaddy.com, LLC",Scottsdale,United States,US,"GoDaddy.com, LLC",33.6119,-111.8906,"GoDaddy.com, LLC",107.180.2.157,AZ,Arizona,success,America/Phoenix,85260
defconcp.com,AS27257 Webair Internet Development Company Inc.,Garden City,United States,US,Webair Internet Development Company,40.7276,-73.6344,Webair Internet Development Company,213.247.47.190,NY,New York,success,America/New_York,11530
defconculture.com,"AS53831 Squarespace, Inc.",Coopersburg,United States,US,Squarespace,40.5021,-75.3765,Squarespace,198.185.159.145,PA,Pennsylvania,success,America/New_York,18036
defconcyber.com,AS15169 Google Inc.,Mountain View,United States,US,Google Cloud,37.386,-122.0838,Google Cloud,23.236.62.147,CA,California,success,America/Los_Angeles,94035
defconcyber.net,"AS26496 GoDaddy.com, LLC",Scottsdale,United States,US,"GoDaddy.com, LLC",33.6119,-111.8906,"GoDaddy.com, LLC",184.168.221.33,AZ,Arizona,success,America/Phoenix,85260
defconcyber.org,"AS26496 GoDaddy.com, LLC",Scottsdale,United States,US,"GoDaddy.com, LLC",33.6119,-111.8906,"GoDaddy.com, LLC",50.63.202.56,AZ,Arizona,success,America/Phoenix,85260
defconcyber.info,"AS26496 GoDaddy.com, LLC",Scottsdale,United States,US,"GoDaddy.com, LLC",33.6119,-111.8906,"GoDaddy.com, LLC",184.168.221.44,AZ,Arizona,success,America/Phoenix,85260
defconcybersecurity.com,"AS26496 GoDaddy.com, LLC",Scottsdale,United States,US,"GoDaddy.com, LLC",33.6119,-111.8906,"GoDaddy.com, LLC",184.168.221.41,AZ,Arizona,success,America/Phoenix,85260
defconcycles.com,"AS133165 Digital Ocean, Inc.",Singapore,Singapore,SG,DigitalOcean,1.2855,103.8565,DigitalOcean,128.199.72.103,01,Central Singapore Community Development Council,success,Asia/Singapore,
defcondance.com,AS15169 Google Inc.,Mountain View,United States,US,Google Cloud,37.4192,-122.0574,Google Cloud,104.198.111.137,CA,California,success,America/Los_Angeles,94043
defcondarth.com,"AS26496 GoDaddy.com, LLC",Scottsdale,United States,US,"GoDaddy.com, LLC",33.6119,-111.8906,"GoDaddy.com, LLC",184.168.221.48,AZ,Arizona,success,America/Phoenix,85260
defcondarth.net,"AS26496 GoDaddy.com, LLC",Scottsdale,United States,US,"GoDaddy.com, LLC",33.6119,-111.8906,"GoDaddy.com, LLC",50.63.202.55,AZ,Arizona,success,America/Phoenix,85260
defcondarth.org,"AS26496 GoDaddy.com, LLC",Scottsdale,United States,US,"GoDaddy.com, LLC",33.6119,-111.8906,"GoDaddy.com, LLC",184.168.221.44,AZ,Arizona,success,America/Phoenix,85260
defcondata.com,"AS26496 GoDaddy.com, LLC",Scottsdale,United States,US,"GoDaddy.com, LLC",33.6119,-111.8906,"GoDaddy.com, LLC",184.168.221.44,AZ,Arizona,success,America/Phoenix,85260
defcondefense.com,"AS14061 Digital Ocean, Inc.",London,United Kingdom,GB,Digital Ocean,51.5092,-0.0955,Digital Ocean,178.62.125.29,ENG,England,success,Europe/London,EC4N
defcondelta.net,"AS26496 GoDaddy.com, LLC",Scottsdale,United States,US,"GoDaddy.com, LLC",33.6119,-111.8906,"Mega International Investment Trust Co., Ltd.",184.168.221.35,AZ,Arizona,success,America/Phoenix,85260
defcondelta.org,"AS26496 GoDaddy.com, LLC",Scottsdale,United States,US,"GoDaddy.com, LLC",33.6119,-111.8906,"GoDaddy.com, LLC",50.63.202.44,AZ,Arizona,success,America/Phoenix,85260
defcondelta.info,"AS26496 GoDaddy.com, LLC",Scottsdale,United States,US,"GoDaddy.com, LLC",33.6119,-111.8906,"GoDaddy.com, LLC",50.63.202.45,AZ,Arizona,success,America/Phoenix,85260
defcondelta.company,"AS26496 GoDaddy.com, LLC",Scottsdale,United States,US,"GoDaddy.com, LLC",33.6119,-111.8906,"GoDaddy.com, LLC",184.168.221.56,AZ,Arizona,success,America/Phoenix,85260
defcondelta.solutions,"AS26496 GoDaddy.com, LLC",Scottsdale,United States,US,"GoDaddy.com, LLC",33.6119,-111.8906,"GoDaddy.com, LLC",50.63.202.62,AZ,Arizona,success,America/Phoenix,85260
defcondeltagaming.com,"AS26496 GoDaddy.com, LLC",Scottsdale,United States,US,"GoDaddy.com, LLC",33.6119,-111.8906,"GoDaddy.com, LLC",107.180.41.13,AZ,Arizona,success,America/Phoenix,85260
defcondepot.com,"AS26496 GoDaddy.com, LLC",Scottsdale,United States,US,"GoDaddy.com, LLC",33.6119,-111.8906,"GoDaddy.com, LLC",184.168.221.40,AZ,Arizona,success,America/Phoenix,85260
defcondesign.com,AS20021 HostMySite,Newark,United States,US,HostMySite,39.6155,-75.7044,HostMySite,76.12.146.142,DE,Delaware,success,America/New_York,19702
defcondesigns.com,AS8560 1&1 Internet SE,Wayne,United States,US,1&1 Internet AG,40.0548,-75.4083,1&1 Internet AG,216.250.120.144,PA,Pennsylvania,success,America/New_York,19087
defcondevelopment.com,"AS29873 The Endurance International Group, Inc.",Burlington (300),United States,US,The Endurance International Group,42.4969,-71.1936,The Endurance International Group,65.254.227.224,,Massachusetts,success,America/New_York,
defcondigital.com,"AS22612 Namecheap, Inc.",Los Angeles,United States,US,Namecheap,34.0355,-118.4298,Namecheap,162.255.119.13,CA,California,success,America/Los_Angeles,90064
defcondomes.com,AS32491 Tucows.com Co.,Toronto,Canada,CA,Tucows.com Co.,43.6383,-79.4301,Tucows.com Co.,64.98.145.30,ON,Ontario,success,America/Toronto,m6k 3m1
defcondon.com,"AS26496 GoDaddy.com, LLC",Scottsdale,United States,US,"GoDaddy.com, LLC",33.6119,-111.8906,"GoDaddy.com, LLC",50.63.202.51,AZ,Arizona,success,America/Phoenix,85260
defcondoninternational.com,"AS31815 Media Temple, Inc.",Culver City,United States,US,Media Temple,34.0202,-118.3928,Media Temple,70.32.77.65,CA,California,success,America/Los_Angeles,90232
defcondoom.com,"AS26496 GoDaddy.com, LLC",Scottsdale,United States,US,"GoDaddy.com, LLC",33.6119,-111.8906,"GoDaddy.com, LLC",50.63.202.35,AZ,Arizona,success,America/Phoenix,85260
defcondos.com,"AS197712 10dencehispahard, S.L.",Ribadeo,Spain,ES,"10dencehispahard, S.L.",43.5418,-7.04158,"10dencehispahard, S.L.",185.42.104.33,GA,Galicia,success,Europe/Madrid,
defcondrone.com,AS20738 Host Europe GmbH,London,United Kingdom,GB,Host Europe GmbH,51.5074,-0.127758,Host Europe GmbH,217.199.187.194,ENG,England,success,Europe/London,
defcondrones.com,"AS62679 Shopify, Inc.",Ottawa,Canada,CA,Shopify,45.4166,-75.6904,Shopify,23.227.38.32,ON,Ontario,success,America/Toronto,k2p 1l4
defcone.com,AS63859 PT. Eka Mas Republik,Jakarta,Indonesia,ID,MyRepublic ID,-6.1744,106.8294,PT. Eka Mas Republik,66.96.237.107,JK,Jakarta,success,Asia/Jakarta,
defcone.org,"AS26496 GoDaddy.com, LLC",Scottsdale,United States,US,"GoDaddy.com, LLC",33.6119,-111.8906,"GoDaddy.com, LLC",184.168.221.60,AZ,Arizona,success,America/Phoenix,85260
defconenduro.com,"AS19871 Network Solutions, LLC",Jacksonville,United States,US,"Network Solutions, LLC",30.1438,-81.5401,"Network Solutions, LLC",205.178.189.131,FL,Florida,success,America/New_York,32258
defconengaged.com,AS20013 CyrusOne LLC,Houston,United States,US,Websitewelcome.com,29.8301,-95.4739,CyrusOne LLC,192.185.41.38,TX,Texas,success,America/Chicago,77092
defconent.com,"AS29873 The Endurance International Group, Inc.",Burlington,United States,US,The Endurance International Group,42.5051,-71.2047,The Endurance International Group,66.96.149.1,MA,Massachusetts,success,America/New_York,01803
defconetworks.com,"AS26496 GoDaddy.com, LLC",Scottsdale,United States,US,"GoDaddy.com, LLC",33.6119,-111.8906,"GoDaddy.com, LLC",107.180.50.213,AZ,Arizona,success,America/Phoenix,85260
defconevents.org,AS19975 CASCADELINK INC,Seattle,United States,US,Cascadelink,47.5716,-122.3327,Cascadelink,162.222.171.222,WA,Washington,success,America/Los_Angeles,98134
defconex.org,AS13335 CloudFlare,Newark,United States,US,CloudFlare,40.7357,-74.1724,CloudFlare,2400:cb00:2048:1::681b:a875,NJ,New Jersey,success,America/New_York,
defconexperts.com,"AS26496 GoDaddy.com, LLC",Scottsdale,United States,US,"GoDaddy.com, LLC",33.6119,-111.8906,"GoDaddy.com, LLC",184.168.221.96,AZ,Arizona,success,America/Phoenix,85260
defconexterminating.com,AS15348 Tucows.com Co.,Thornhill,Canada,CA,Tucows.com Co.,43.8,-79.4167,Tucows.com Co.,216.40.47.17,ON,Ontario,success,America/Toronto,M2M
defconf.com,AS34282 UKDedicated LTD,Hemel Hempstead,United Kingdom,GB,UKDedicated LTD,51.75,-0.4667,UKDedicated LTD,81.19.186.233,ENG,England,success,Europe/London,HP3
defconfalling.com,AS13768 Peer 1 Network (USA) Inc.,Herndon,United States,US,Peer 1 Network (USA),38.9266,-77.3936,ServerBeach,64.34.202.48,VA,Virginia,success,America/New_York,20171
defconfalling.net,"AS26496 GoDaddy.com, LLC",Scottsdale,United States,US,"GoDaddy.com, LLC",33.6119,-111.8906,"GoDaddy.com, LLC",184.168.221.96,AZ,Arizona,success,America/Phoenix,85260
defconfiber.com,"AS22612 Namecheap, Inc.",Los Angeles,United States,US,Namecheap,34.0355,-118.4298,Namecheap,162.255.119.249,CA,California,success,America/Los_Angeles,90064
defconfiber.net,"AS22612 Namecheap, Inc.",Los Angeles,United States,US,Namecheap,34.0355,-118.4298,Namecheap,162.255.119.249,CA,California,success,America/Los_Angeles,90064
defconfidant.com,"AS26496 GoDaddy.com, LLC",Scottsdale,United States,US,"GoDaddy.com, LLC",33.6119,-111.8906,"GoDaddy.com, LLC",50.63.202.29,AZ,Arizona,success,America/Phoenix,85260
defconfilm.com,"AS26496 GoDaddy.com, LLC",Scottsdale,United States,US,"GoDaddy.com, LLC",33.6119,-111.8906,"GoDaddy.com, LLC",184.168.221.22,AZ,Arizona,success,America/Phoenix,85260
defconfilms.com,"AS26496 GoDaddy.com, LLC",Scottsdale,United States,US,"GoDaddy.com, LLC",33.6119,-111.8906,"GoDaddy.com, LLC",50.63.202.32,AZ,Arizona,success,America/Phoenix,85260
defconfinancial.com,AS40034 Confluence Networks Inc,Thalwil,Switzerland,CH,Rook Media GmbH,47.2839,8.56491,Rook Media GmbH,141.8.225.76,ZH,Zurich,success,Europe/Zurich,
defconfit.com,"AS19237 Omnis Network, LLC",Tempe,United States,US,"Omnis Network, LLC",33.4001,-111.929,"Omnis Network, LLC",216.239.130.220,AZ,Arizona,success,America/Phoenix,85282
defconfit.net,"AS19237 Omnis Network, LLC",Tempe,United States,US,"Omnis Network, LLC",33.4001,-111.929,"Omnis Network, LLC",216.239.130.220,AZ,Arizona,success,America/Phoenix,85282
defconfitness.com,"AS26496 GoDaddy.com, LLC",Scottsdale,United States,US,"GoDaddy.com, LLC",33.6119,-111.8906,"GoDaddy.com, LLC",184.168.221.43,AZ,Arizona,success,America/Phoenix,85260
defconfive.com,"AS14618 Amazon.com, Inc.",Ashburn,United States,US,Amazon.com,39.0481,-77.4728,Amazon.com,54.85.127.70,VA,Virginia,success,America/New_York,20149
defconfl.com,AS8560 1&1 Internet SE,Wayne,United States,US,1&1 Internet AG,40.0548,-75.4083,1&1 Internet AG,192.195.77.238,PA,Pennsylvania,success,America/New_York,19087
defconflorida.com,"AS26496 GoDaddy.com, LLC",Scottsdale,United States,US,"GoDaddy.com, LLC",33.6119,-111.8906,"GoDaddy.com, LLC",198.71.232.3,AZ,Arizona,success,America/Phoenix,85260
defconforce.com,"AS26496 GoDaddy.com, LLC",Scottsdale,United States,US,"GoDaddy.com, LLC",33.6119,-111.8906,"GoDaddy.com, LLC",50.63.202.4,AZ,Arizona,success,America/Phoenix,85260
defconfoundation.com,AS20013 CyrusOne LLC,Bell,United States,US,Websitewelcome.com,33.9775,-118.187,CyrusOne LLC,192.185.0.218,CA,California,success,America/Los_Angeles,90202
defconfoundation.org,AS20013 CyrusOne LLC,Bell,United States,US,Websitewelcome.com,33.9775,-118.187,CyrusOne LLC,192.185.0.218,CA,California,success,America/Los_Angeles,90202
defconfour.com,"AS26496 GoDaddy.com, LLC",Scottsdale,United States,US,"GoDaddy.com, LLC",33.6119,-111.8906,"GoDaddy.com, LLC",184.168.221.96,AZ,Arizona,success,America/Phoenix,85260
defconfrank.com,AS11426 Time Warner Cable Internet LLC,Winston-Salem,United States,US,Time Warner Cable,36.0004,-80.1748,Time Warner Cable,66.26.229.112,NC,North Carolina,success,America/New_York,27107
defconfs.com,AS6724 Strato AG,Berlin,Germany,DE,Strato AG,52.5155,13.4062,Strato AG,81.169.145.157,BE,Land Berlin,success,Europe/Berlin,10317
defconfurries.com,"AS22612 Namecheap, Inc.",Los Angeles,United States,US,Namecheap,34.0355,-118.4298,Namecheap,162.255.119.248,CA,California,success,America/Los_Angeles,90064
defconfurs.com,"AS22612 Namecheap, Inc.",Los Angeles,United States,US,Namecheap,34.0355,-118.4298,Namecheap,162.255.119.248,CA,California,success,America/Los_Angeles,90064
defcongamers.com,AS13335 CloudFlare,San Francisco,United States,US,CloudFlare,37.7697,-122.3933,CloudFlare,104.28.0.10,CA,California,success,America/Los_Angeles,94107
defcongames.com,AS15169 Google Inc.,Mountain View,United States,US,Google Cloud,37.386,-122.0838,Google Cloud,23.236.62.147,CA,California,success,America/Los_Angeles,94035
defcongames.net,AS57367 ATM S.A.,Krosno,Poland,PL,ATM S.A.,49.6833,21.7833,ATM S.A.,185.36.168.127,PK,Subcarpathian Voivodeship,success,Europe/Warsaw,38-402
defcongaming.com,"AS14618 Amazon.com, Inc.",Ashburn,United States,US,Amazon.com,39.0481,-77.4728,Amazon.com,54.85.127.70,VA,Virginia,success,America/New_York,20149
defcongaming.net,"AS22612 Namecheap, Inc.",Los Angeles,United States,US,Namecheap,34.0355,-118.4298,Namecheap,162.255.119.62,CA,California,success,America/Los_Angeles,90064
defcongear.com,"AS26496 GoDaddy.com, LLC",Scottsdale,United States,US,"GoDaddy.com, LLC",33.6119,-111.8906,"GoDaddy.com, LLC",184.168.221.28,AZ,Arizona,success,America/Phoenix,85260
defcongeochallenge.com,AS13768 Peer 1 Network (USA) Inc.,Atlanta,United States,US,Peer 1 Dedicated Hosting,33.748,-84.3858,Peer 1 Network (USA),216.157.88.123,GA,Georgia,success,America/New_York,30303
defconglazing.com,AS46606 Unified Layer,Orem,United States,US,Unified Layer,40.2968,-111.6761,Unified Layer,74.220.199.6,UT,Utah,success,America/Denver,84097
defconglazing.glass,AS394695 PDR,Houston,United States,US,YHC Corporation,29.7702,-95.3628,YHC Corporation,209.99.17.27,TX,Texas,success,America/Chicago,77002
defconglobal.com,"AS26496 GoDaddy.com, LLC",Scottsdale,United States,US,"GoDaddy.com, LLC",33.6119,-111.8906,"GoDaddy.com, LLC",50.63.97.1,AZ,Arizona,success,America/Phoenix,85260
defconglobalsecurity.com,"AS26496 GoDaddy.com, LLC",Scottsdale,United States,US,"GoDaddy.com, LLC",33.6119,-111.8906,"GoDaddy.com, LLC",50.63.202.10,AZ,Arizona,success,America/Phoenix,85260
defcongloves.com,AS46606 Unified Layer,Provo,United States,US,Unified Layer,40.3563,-111.7325,Unified Layer,162.144.97.84,UT,Utah,success,America/Denver,84602
defcongoononline.com,"AS22612 Namecheap, Inc.",Los Angeles,United States,US,Namecheap,34.0355,-118.4298,Namecheap,192.64.119.49,CA,California,success,America/Los_Angeles,90064
defcongps.com,"AS22612 Namecheap, Inc.",Los Angeles,United States,US,Namecheap,34.0355,-118.4298,Namecheap,192.64.119.228,CA,California,success,America/Los_Angeles,90064
defcongps.net,"AS22612 Namecheap, Inc.",Los Angeles,United States,US,Namecheap,34.0355,-118.4298,Namecheap,192.64.119.134,CA,California,success,America/Los_Angeles,90064
defcongravity.com,AS20013 CyrusOne LLC,Houston,United States,US,Websitewelcome.com,29.8301,-95.4739,CyrusOne LLC,108.167.133.16,TX,Texas,success,America/Chicago,77092
defcongreen.com,"AS26496 GoDaddy.com, LLC",Scottsdale,United States,US,"GoDaddy.com, LLC",33.6119,-111.8906,"GoDaddy.com, LLC",184.168.221.63,AZ,Arizona,success,America/Phoenix,85260
defcongroup.com,"AS29873 The Endurance International Group, Inc.",Burlington,United States,US,The Endurance International Group,42.5051,-71.2047,The Endurance International Group,66.96.147.105,MA,Massachusetts,success,America/New_York,01803
defcongroups.com,AS19975 CASCADELINK INC,Seattle,United States,US,Cascadelink,47.5716,-122.3327,Cascadelink,162.222.171.222,WA,Washington,success,America/Los_Angeles,98134
defcongroups.net,AS19975 CASCADELINK INC,Seattle,United States,US,Cascadelink,47.5716,-122.3327,Cascadelink,162.222.171.222,WA,Washington,success,America/Los_Angeles,98134
defcongroups.org,AS19975 CASCADELINK INC,Seattle,United States,US,Cascadelink,47.5716,-122.3327,Cascadelink,162.222.171.220,WA,Washington,success,America/Los_Angeles,98134
defconguns.com,"AS33182 HostDime.com, Inc.",Orlando,United States,US,HostDime.com,28.5887,-81.1893,HostDime.com,184.171.249.2,FL,Florida,success,America/New_York,32826
defconhack.com,AS6724 Strato AG,Berlin,Germany,DE,Strato AG,52.5155,13.4062,Strato AG,85.214.143.133,BE,Land Berlin,success,Europe/Berlin,10317
defconhero.com,"AS26496 GoDaddy.com, LLC",Scottsdale,United States,US,"GoDaddy.com, LLC",33.6119,-111.8906,"GoDaddy.com, LLC",184.168.221.32,AZ,Arizona,success,America/Phoenix,85260
defconhotsauce.com,"AS26496 GoDaddy.com, LLC",Scottsdale,United States,US,"GoDaddy.com, LLC",33.6119,-111.8906,"GoDaddy.com, LLC",50.63.202.6,AZ,Arizona,success,America/Phoenix,85260
defconian.com,AS51468 One.com A/S,Copenhagen,Denmark,DK,One.com A/S,55.6667,12.5833,One.com A/S,46.30.213.130,84,Capital Region,success,Europe/Copenhagen,1513
defconiii.com,AS6724 Strato AG,Berlin,Germany,DE,Strato AG,52.5155,13.4062,Strato AG,81.169.145.161,BE,Land Berlin,success,Europe/Berlin,10317
defconik.com,AS46606 Unified Layer,Provo,United States,US,Unified Layer,40.2181,-111.6133,Unified Layer,198.57.180.64,UT,Utah,success,America/Denver,84606
defconinc.com,"AS14618 Amazon.com, Inc.",Ashburn,United States,US,Amazon.com,39.0481,-77.4728,Amazon.com,54.85.127.70,VA,Virginia,success,America/New_York,20149
defconindustries.com,AS8560 1&1 Internet SE,Wayne,United States,US,1&1 Internet AG,40.0548,-75.4083,1&1 Internet AG,192.195.77.185,PA,Pennsylvania,success,America/New_York,19087
defconindustries.net,"AS26496 GoDaddy.com, LLC",Scottsdale,United States,US,"GoDaddy.com, LLC",33.6119,-111.8906,"GoDaddy.com, LLC",184.168.221.10,AZ,Arizona,success,America/Phoenix,85260
defconinfinity.com,"AS26496 GoDaddy.com, LLC",Scottsdale,United States,US,"GoDaddy.com, LLC",33.6119,-111.8906,"GoDaddy.com, LLC",184.168.221.45,AZ,Arizona,success,America/Phoenix,85260
defconinformatica.com,AS15699 OGIC Informatica S.L.,Madrid,Spain,ES,Adam ecoTECH S.A.,40.4167,-3.6838,Adam ecoTECH S.A.,37.46.74.133,MD,Madrid,success,Europe/Madrid,28001
defconinternational.com,AS46606 Unified Layer,Orem,United States,US,Unified Layer,40.2968,-111.6761,Unified Layer,74.220.219.66,UT,Utah,success,America/Denver,84097
defconisc.com,AS13335 CloudFlare,Newark,United States,US,CloudFlare,40.7357,-74.1724,CloudFlare,2400:cb00:2048:1::681c:d30,NJ,New Jersey,success,America/New_York,
defconit.com,AS50056 Ai Networks Limited,Stevenage,United Kingdom,GB,Ai Networks Limited,51.9022,-0.2026,Ai Networks Limited,94.126.40.154,ENG,England,success,Europe/London,SG1
defconit.net,AS8972 Host Europe GmbH,Hoest,Germany,DE,Host Europe GmbH,51.65,6.1833,BSB-SERVICE Dedicated Server Hosting,85.25.144.92,NW,North Rhine-Westphalia,success,Europe/Berlin,47652
defconjive.com,"AS26496 GoDaddy.com, LLC",Scottsdale,United States,US,"GoDaddy.com, LLC",33.6119,-111.8906,"GoDaddy.com, LLC",50.63.202.6,AZ,Arizona,success,America/Phoenix,85260
defconjobs.com,"AS32787 Akamai Technologies, Inc.",Cambridge,United States,US,Akamai Technologies,42.3626,-71.0843,Akamai Technologies,72.52.4.119,MA,Massachusetts,success,America/New_York,02142
defconjournal.com,"AS63949 Linode, LLC",Newark,United States,US,Linode,40.7357,-74.1724,"Linode, LLC",45.79.129.137,NJ,New Jersey,success,America/New_York,07175
defconjuan.com,AS10297 eNET Inc.,Columbus,United States,US,eNET,40.0842,-82.9378,XLHost.com,209.190.48.61,OH,Ohio,success,America/New_York,43231
defconkids.com,AS19975 CASCADELINK INC,Seattle,United States,US,Cascadelink,47.5716,-122.3327,Cascadelink,162.222.171.222,WA,Washington,success,America/Los_Angeles,98134
defconkids.net,AS19975 CASCADELINK INC,Seattle,United States,US,Cascadelink,47.5716,-122.3327,Cascadelink,162.222.171.222,WA,Washington,success,America/Los_Angeles,98134
defconkids.org,AS19975 CASCADELINK INC,Seattle,United States,US,Cascadelink,47.5716,-122.3327,Cascadelink,162.222.171.222,WA,Washington,success,America/Los_Angeles,98134
defconkit.com,"AS26496 GoDaddy.com, LLC",Scottsdale,United States,US,"GoDaddy.com, LLC",33.6119,-111.8906,"GoDaddy.com, LLC",184.168.221.43,AZ,Arizona,success,America/Phoenix,85260
defconkl.com,AS8075 Microsoft Corporation,Des Moines,United States,US,Microsoft Corporation,41.6005,-93.6091,Microsoft Azure,40.78.149.5,IA,Iowa,success,America/Chicago,50307
defconlabs.com,"AS26496 GoDaddy.com, LLC",Scottsdale,United States,US,"GoDaddy.com, LLC",33.6119,-111.8906,"GoDaddy.com, LLC",50.63.202.44,AZ,Arizona,success,America/Phoenix,85260
defconlauncher.com,AS20013 CyrusOne LLC,Houston,United States,US,Websitewelcome.com,29.8301,-95.4739,CyrusOne LLC,108.167.181.155,TX,Texas,success,America/Chicago,77092
defconlaywer.com,"AS26496 GoDaddy.com, LLC",Scottsdale,United States,US,"GoDaddy.com, LLC",33.6119,-111.8906,"GoDaddy.com, LLC",184.168.221.40,AZ,Arizona,success,America/Phoenix,85260
defconled.com,"AS26496 GoDaddy.com, LLC",Scottsdale,United States,US,"GoDaddy.com, LLC",33.6119,-111.8906,"GoDaddy.com, LLC",198.71.232.3,AZ,Arizona,success,America/Phoenix,85260
defconlegal.com,AS8560 1&1 Internet SE,Warsaw,Poland,PL,1&1 Internet AG,52.2297,21.0122,1&1 Internet AG,217.160.230.116,MZ,Masovian Voivodeship,success,Europe/Warsaw,
defconlegion.com,"AS26496 GoDaddy.com, LLC",Scottsdale,United States,US,"GoDaddy.com, LLC",33.6119,-111.8906,"GoDaddy.com, LLC",198.71.232.3,AZ,Arizona,success,America/Phoenix,85260
defconlevel.com,"AS7922 Comcast Cable Communications, LLC",Portland,United States,US,Comcast Business,45.4407,-122.6157,Comcast Business,50.240.29.12,OR,Oregon,success,America/Los_Angeles,97222
defconlevels.com,"AS7922 Comcast Cable Communications, LLC",Portland,United States,US,Comcast Business,45.4407,-122.6157,Comcast Business,50.240.29.12,OR,Oregon,success,America/Los_Angeles,97222
defconlights.com,"AS26496 GoDaddy.com, LLC",Scottsdale,United States,US,"GoDaddy.com, LLC",33.6119,-111.8906,"GoDaddy.com, LLC",184.168.221.17,AZ,Arizona,success,America/Phoenix,85260
defconllc.com,AS13335 CloudFlare,San Francisco,United States,US,CloudFlare,37.7697,-122.3933,CloudFlare,104.28.29.62,CA,California,success,America/Los_Angeles,94107
defconlock.com,AS31103 Keyweb AG,Eriskirch,Germany,DE,Keyweb AG,47.6279,9.52917,Keyweb AG,217.114.219.221,BW,Baden-Württemberg Region,success,Europe/Berlin,
defconlock.net,AS32592 HuntTel,George Town,Cayman Islands,KY,DirectNIC,19.3443,-81.381,HuntTel,74.117.222.18,,George Town,success,America/Cayman,
defconlords.com,AS53667 FranTech Solutions,Las Vegas,United States,US,FranTech Solutions,36.175,-115.13720000000001,FranTech Solutions,209.141.57.82,NV,Nevada,success,America/Los_Angeles,89101
defconltd.com,"AS26496 GoDaddy.com, LLC",Scottsdale,United States,US,"GoDaddy.com, LLC",33.6119,-111.8906,"GoDaddy.com, LLC",184.168.221.24,AZ,Arizona,success,America/Phoenix,85260
defconmail.com,"AS26496 GoDaddy.com, LLC",Scottsdale,United States,US,"GoDaddy.com, LLC",33.6119,-111.8906,"GoDaddy.com, LLC",184.168.193.216,AZ,Arizona,success,America/Phoenix,85260
defconmail.net,"AS26496 GoDaddy.com, LLC",Scottsdale,United States,US,"GoDaddy.com, LLC",33.6119,-111.8906,"GoDaddy.com, LLC",50.63.202.52,AZ,Arizona,success,America/Phoenix,85260
defconmail.org,"AS26496 GoDaddy.com, LLC",Scottsdale,United States,US,"GoDaddy.com, LLC",33.6119,-111.8906,"GoDaddy.com, LLC",184.168.221.55,AZ,Arizona,success,America/Phoenix,85260
defconmail.info,"AS26496 GoDaddy.com, LLC",Scottsdale,United States,US,"GoDaddy.com, LLC",33.6119,-111.8906,"GoDaddy.com, LLC",184.168.221.37,AZ,Arizona,success,America/Phoenix,85260
defconmarketing.com,AS38532 USONYX PTE LTD,Singapore,Singapore,SG,Exabytes Network (Singapore) Pte.,1.2855,103.8565,Exabytes Network (Singapore) Pte.,43.229.84.119,01,Central Singapore Community Development Council,success,Asia/Singapore,
defconmatrix.com,"AS32475 SingleHop, Inc.",Chicago,United States,US,SingleHop,41.8825,-87.6441,SingleHop,65.60.52.130,IL,Illinois,success,America/Chicago,60661
defconmax.com,"AS26496 GoDaddy.com, LLC",Scottsdale,United States,US,"GoDaddy.com, LLC",33.6119,-111.8906,"GoDaddy.com, LLC",72.167.232.116,AZ,Arizona,success,America/Phoenix,85260
defconmedia.com,"AS53831 Squarespace, Inc.",Coopersburg,United States,US,Squarespace,40.5021,-75.3765,Squarespace,198.185.159.144,PA,Pennsylvania,success,America/New_York,18036
defconmike.com,AS17139 Corporate Colocation Inc.,Riverside,United States,US,Corporate Colocation,33.968,-117.3194,Corporate Colocation,74.124.205.130,CA,California,success,America/Los_Angeles,92507
defconmilsim.com,AS15169 Google Inc.,Mountain View,United States,US,Google Cloud,37.386,-122.0838,Google Cloud,23.236.62.147,CA,California,success,America/Los_Angeles,94035
defconmom.com,"AS2635 Automattic, Inc",San Francisco,United States,US,Automattic,37.7484,-122.4156,Automattic,192.0.78.25,CA,California,success,America/Los_Angeles,94110
defconmom.club,AS47846 SEDO GmbH,Cologne (Neustadt/Nord),Germany,DE,SEDO GmbH,50.9488,6.94438,SEDO GmbH,91.195.240.135,,North Rhine-Westphalia,success,Europe/Berlin,
defconmum.com,"AS2635 Automattic, Inc",San Francisco,United States,US,Automattic,37.7484,-122.4156,Automattic,192.0.78.24,CA,California,success,America/Los_Angeles,94110
defconmum.club,AS47846 SEDO GmbH,Cologne (Neustadt/Nord),Germany,DE,SEDO GmbH,50.9488,6.94438,SEDO GmbH,91.195.240.135,,North Rhine-Westphalia,success,Europe/Berlin,
defconmuseum.com,"AS26496 GoDaddy.com, LLC",Scottsdale,United States,US,"GoDaddy.com, LLC",33.6119,-111.8906,"GoDaddy.com, LLC",50.63.202.32,AZ,Arizona,success,America/Phoenix,85260
defconn.com,AS27257 Webair Internet Development Company Inc.,The Bronx,United States,US,Webair Internet Development Company,40.8499,-73.8769,Webair Internet Development Company,173.239.23.228,NY,New York,success,America/New_York,10460
defconnation-nations.com,AS15169 Google Inc.,Mountain View,United States,US,Google,37.4192,-122.0574,Google,216.239.38.21,CA,California,success,America/Los_Angeles,94043
defconnations.com,"AS32751 Nuclearfallout Enterprises, Inc.",Fountain Valley,United States,US,Savvis,33.71,-117.9478,Nuclearfallout Enterprises,208.146.35.148,CA,California,success,America/Los_Angeles,92708
defconnations.net,AS47583 Hostinger International Limited,Greenville,United States,US,Hostinger International Limited,34.8526,-82.394,Main Hosting Servers,31.170.161.135,SC,South Carolina,success,America/New_York,
defconnect.com,AS34282 UKDedicated LTD,Hemel Hempstead,United Kingdom,GB,UKDedicated LTD,51.7643,-0.432563,UKDedicated LTD,85.92.68.117,ENG,England,success,Europe/London,
defconnegative.com,"AS26496 GoDaddy.com, LLC",Scottsdale,United States,US,"GoDaddy.com, LLC",33.6119,-111.8906,"GoDaddy.com, LLC",50.63.202.56,AZ,Arizona,success,America/Phoenix,85260
defconnetworking.org,"AS7018 AT&T Services, Inc.",Austin,United States,US,AT&T Internet Services,30.2623,-97.7465,AT&T Internet Services,99.91.198.11,TX,Texas,success,America/Chicago,78713
defconnetworks.com,AS13335 CloudFlare,Newark,United States,US,CloudFlare,40.7357,-74.1724,CloudFlare,2400:cb00:2048:1::681c:c03,NJ,New Jersey,success,America/New_York,
defconnetworks.net,"AS26496 GoDaddy.com, LLC",Scottsdale,United States,US,"GoDaddy.com, LLC",33.6119,-111.8906,"GoDaddy.com, LLC",50.63.202.42,AZ,Arizona,success,America/Phoenix,85260
defconnetworks.org,"AS26496 GoDaddy.com, LLC",Scottsdale,United States,US,"GoDaddy.com, LLC",33.6119,-111.8906,"GoDaddy.com, LLC",184.168.221.51,AZ,Arizona,success,America/Phoenix,85260
defconone.com,AS8166 PrismNet Inc.,Austin,United States,US,PrismNet,30.384,-97.7073,PrismNet,209.198.130.31,TX,Texas,success,America/Chicago,78758
defconone.net,AS61969 Team Internet AG,Munich (Altstadt-Lehel),Germany,DE,Team Internet AG,48.1333,11.5842,Team Internet AG,185.53.179.8,,Bavaria,success,Europe/Berlin,
defconone.org,"AS14618 Amazon.com, Inc.",Ashburn,United States,US,Amazon.com,39.0481,-77.4728,Amazon.com,23.21.19.20,VA,Virginia,success,America/New_York,20149
defcononearms.com,"AS32244 Liquid Web, L.L.C",Lansing,United States,US,"Liquid Web, L.L.C",42.7257,-84.636,"Liquid Web, L.L.C",50.28.65.243,MI,Michigan,success,America/Detroit,48917
defcononebags.com,"AS26496 GoDaddy.com, LLC",Scottsdale,United States,US,"GoDaddy.com, LLC",33.6119,-111.8906,"GoDaddy.com, LLC",184.168.221.37,AZ,Arizona,success,America/Phoenix,85260
defcononeproduction.com,"AS26496 GoDaddy.com, LLC",Scottsdale,United States,US,"GoDaddy.com, LLC",33.6119,-111.8906,"GoDaddy.com, LLC",50.63.202.35,AZ,Arizona,success,America/Phoenix,85260
defcononeproduction.net,"AS26496 GoDaddy.com, LLC",Scottsdale,United States,US,"GoDaddy.com, LLC",33.6119,-111.8906,"GoDaddy.com, LLC",50.63.202.36,AZ,Arizona,success,America/Phoenix,85260
defcononeproduction.org,"AS26496 GoDaddy.com, LLC",Scottsdale,United States,US,"GoDaddy.com, LLC",33.6119,-111.8906,"GoDaddy.com, LLC",50.63.202.34,AZ,Arizona,success,America/Phoenix,85260
defcononeproduction.info,"AS26496 GoDaddy.com, LLC",Scottsdale,United States,US,"GoDaddy.com, LLC",33.6119,-111.8906,"GoDaddy.com, LLC",50.63.202.49,AZ,Arizona,success,America/Phoenix,85260
defcononeproductions.com,"AS26496 GoDaddy.com, LLC",Scottsdale,United States,US,"GoDaddy.com, LLC",33.6119,-111.8906,"GoDaddy.com, LLC",50.63.103.1,AZ,Arizona,success,America/Phoenix,85260
defcononesecurity.com,"AS63949 Linode, LLC",Dallas,United States,US,Linode,32.7787,-96.8217,Linode,96.126.113.250,TX,Texas,success,America/Chicago,75270
defcononesurvival.com,"AS26496 GoDaddy.com, LLC",Scottsdale,United States,US,"GoDaddy.com, LLC",33.6119,-111.8906,"GoDaddy.com, LLC",50.62.172.232,AZ,Arizona,success,America/Phoenix,85260
defcononline.com,"AS22612 Namecheap, Inc.",Los Angeles,United States,US,Namecheap,34.0355,-118.4298,Namecheap,162.255.119.249,CA,California,success,America/Los_Angeles,90064
defconoptics.com,AS20013 CyrusOne LLC,Houston,United States,US,Websitewelcome.com,29.8301,-95.4739,CyrusOne LLC,192.185.46.34,TX,Texas,success,America/Chicago,77092
defconoptions.com,"AS26496 GoDaddy.com, LLC",Scottsdale,United States,US,"GoDaddy.com, LLC",33.6119,-111.8906,"GoDaddy.com, LLC",184.168.221.61,AZ,Arizona,success,America/Phoenix,85260
defconpaintball.com,AS13768 Peer 1 Network (USA) Inc.,Toronto,Canada,CA,Peer 1 Dedicated Hosting,43.623,-79.3936,Peer 1 Network (USA),209.15.238.107,ON,Ontario,success,America/Toronto,m5j 2n1
defconpaintball.biz,AS36351 SoftLayer Technologies Inc.,Houston,United States,US,ThePlanet.com Internet Services,29.7702,-95.3628,ThePlanet.com Internet Services,70.85.232.2,TX,Texas,success,America/Chicago,77002
defconpaintball.info,AS36351 SoftLayer Technologies Inc.,Houston,United States,US,ThePlanet.com Internet Services,29.7702,-95.3628,ThePlanet.com Internet Services,70.85.232.2,TX,Texas,success,America/Chicago,77002
defconpaintballgear.com,AS36351 SoftLayer Technologies Inc.,Austin,United States,US,Bigcommerce,30.4295,-97.8419,SoftLayer Technologies,192.200.179.84,TX,Texas,success,America/Chicago,78726
defconparties.com,AS15169 Google Inc.,Mountain View,United States,US,Google,37.4192,-122.0574,Google,216.239.38.21,CA,California,success,America/Los_Angeles,94043
defconparties.info,"AS26496 GoDaddy.com, LLC",Scottsdale,United States,US,"GoDaddy.com, LLC",33.6119,-111.8906,"GoDaddy.com, LLC",50.63.202.20,AZ,Arizona,success,America/Phoenix,85260
defconpartychallenge.com,"AS36063 Arrownet, Inc.",Indiantown,United States,US,Arrownet,27.0972,-80.5329,Arrownet,66.203.130.200,FL,Florida,success,America/New_York,34956
defconpb.com,AS13768 Peer 1 Network (USA) Inc.,Toronto,Canada,CA,Peer 1 Dedicated Hosting,43.623,-79.3936,Peer 1 Network (USA),209.15.238.107,ON,Ontario,success,America/Toronto,m5j 2n1
defconpc.com,AS12996 Domeneshop AS,Oslo,Norway,NO,Domeneshop AS,59.905,10.7487,Domeneshop AS,194.63.248.70,03,Oslo County,success,Europe/Oslo,0001
defconpestcontrol.com,AS26101 Yahoo!,Sunnyvale,United States,US,Yahoo!,37.4249,-122.0074,Yahoo!,98.139.135.129,CA,California,success,America/Los_Angeles,94089
defconpet.info,AS13335 CloudFlare,San Francisco,United States,US,CloudFlare,37.7697,-122.3933,CloudFlare,104.27.175.68,CA,California,success,America/Los_Angeles,94107
defconpgp.com,"AS53831 Squarespace, Inc.",Coopersburg,United States,US,Squarespace,40.5021,-75.3765,Squarespace,198.185.159.144,PA,Pennsylvania,success,America/New_York,18036
defconpgp.mobi,AS55172 9217-0182 Quebec inc.,Montreal,Canada,CA,9217-0182 Quebec,45.504,-73.574700000000007,9217-0182 Quebec,162.210.224.254,QC,Quebec,success,America/Toronto,h3a 0a5
defconphotos.com,"AS26347 New Dream Network, LLC",Brea,United States,US,"New Dream Network, LLC",33.9269,-117.8612,"New Dream Network, LLC",208.113.218.157,CA,California,success,America/Los_Angeles,92821
defconpics.com,"AS14618 Amazon.com, Inc.",Ashburn,United States,US,Amazon.com,39.0481,-77.4728,Amazon.com,54.85.127.70,VA,Virginia,success,America/New_York,20149
defconpictures.com,AS30447 InternetNamesForBusiness.com,Toronto (Old Toronto),Canada,CA,Cogent Communications,43.6446,-79.3842,InternetNamesForBusiness.com,149.115.16.62,,Ontario,success,America/Toronto,
defconplay.com,AS3352 Telefonica De Espana,Madrid,Spain,ES,Telefonica de Espana,40.4167,-3.6838,Telefonica de Espana,194.224.72.187,MD,Madrid,success,Europe/Madrid,28001
defconpoetryjam.com,"AS26496 GoDaddy.com, LLC",Scottsdale,United States,US,"GoDaddy.com, LLC",33.6119,-111.8906,"GoDaddy.com, LLC",184.168.221.58,AZ,Arizona,success,America/Phoenix,85260
defconporn.com,AS13335 CloudFlare,San Francisco,United States,US,CloudFlare,37.7697,-122.3933,CloudFlare,104.27.137.156,CA,California,success,America/Los_Angeles,94107
defconporn.net,AS16276 OVH SAS,Montreal,Canada,CA,OVH Hosting,45.504,-73.574700000000007,OVH Hosting,167.114.156.214,QC,Quebec,success,America/Toronto,h3a 1k2
defconpowersport.com,"AS26496 GoDaddy.com, LLC",Scottsdale,United States,US,"GoDaddy.com, LLC",33.6119,-111.8906,"GoDaddy.com, LLC",50.63.202.33,AZ,Arizona,success,America/Phoenix,85260
defconpowersport.net,"AS26496 GoDaddy.com, LLC",Scottsdale,United States,US,"GoDaddy.com, LLC",33.6119,-111.8906,"GoDaddy.com, LLC",50.63.202.38,AZ,Arizona,success,America/Phoenix,85260
defconpowersports.com,"AS46841 Fork Networking, LLC",Portland,United States,US,"Fork Networking, LLC",45.4763,-122.6408,"Fork Networking, LLC",199.87.230.83,OR,Oregon,success,America/Los_Angeles,97202
defconpowersports.net,"AS26496 GoDaddy.com, LLC",Scottsdale,United States,US,"GoDaddy.com, LLC",33.6119,-111.8906,"GoDaddy.com, LLC",50.63.202.39,AZ,Arizona,success,America/Phoenix,85260
defconpro.com,"AS26496 GoDaddy.com, LLC",Scottsdale,United States,US,"GoDaddy.com, LLC",33.6119,-111.8906,"GoDaddy.com, LLC",50.63.202.44,AZ,Arizona,success,America/Phoenix,85260
defconpro.net,"AS26496 GoDaddy.com, LLC",Scottsdale,United States,US,"GoDaddy.com, LLC",33.6119,-111.8906,"GoDaddy.com, LLC",184.168.221.55,AZ,Arizona,success,America/Phoenix,85260
defconpro.org,"AS26496 GoDaddy.com, LLC",Scottsdale,United States,US,"GoDaddy.com, LLC",33.6119,-111.8906,"GoDaddy.com, LLC",50.63.202.36,AZ,Arizona,success,America/Phoenix,85260
defconpro.info,"AS26496 GoDaddy.com, LLC",Scottsdale,United States,US,"GoDaddy.com, LLC",33.6119,-111.8906,"GoDaddy.com, LLC",50.63.202.45,AZ,Arizona,success,America/Phoenix,85260
defconproductions.com,"AS29854 WestHost, Inc.",Providence,United States,US,WestHost,41.6929,-111.8147,WestHost,208.131.145.101,UT,Utah,success,America/Denver,84332
defconproject.com,AS13768 Peer 1 Network (USA) Inc.,Parksville,Canada,CA,Peer 1 Network (USA),49.3163,-124.3194,Peer 1 Network (USA),64.69.92.164,BC,British Columbia,success,America/Vancouver,v9p 2h5
defconpropaganda.com,"AS62679 Shopify, Inc.",Ottawa,Canada,CA,Shopify,45.4166,-75.6904,Shopify,23.227.38.32,ON,Ontario,success,America/Toronto,k2p 1l4
defconpropaganda.net,AS20013 CyrusOne LLC,Bell,United States,US,Websitewelcome.com,33.9775,-118.187,CyrusOne LLC,192.185.0.218,CA,California,success,America/Los_Angeles,90202
defconpropaganda.org,AS20013 CyrusOne LLC,Bell,United States,US,Websitewelcome.com,33.9775,-118.187,CyrusOne LLC,192.185.0.218,CA,California,success,America/Los_Angeles,90202
defconprotec.com,AS36943 webafrica,Cape Town (Zonnebloem),South Africa,ZA,Web Africa,-33.9307,18.4394,Web Africa,41.185.8.171,,Western Cape,success,Africa/Johannesburg,
defconprotection.com,"AS14618 Amazon.com, Inc.",Ashburn,United States,US,Amazon.com,39.0481,-77.4728,Amazon.com,52.204.129.22,VA,Virginia,success,America/New_York,20149
defconquebec.com,AS15169 Google Inc.,Mountain View,United States,US,Google Cloud,37.386,-122.0838,Google Cloud,23.236.62.147,CA,California,success,America/Los_Angeles,94035
defconracing.com,AS32748 Steadfast,Norman (Larsh / Miller),United States,US,Steadfast,35.2214,-97.4413,Steadfast,162.249.125.90,,Oklahoma,success,America/Chicago,
defconracing.net,"AS26496 GoDaddy.com, LLC",Scottsdale,United States,US,"GoDaddy.com, LLC",33.6119,-111.8906,"GoDaddy.com, LLC",50.63.202.45,AZ,Arizona,success,America/Phoenix,85260
defconradio.com,"AS21740 eNom, Incorporated",Costa Mesa,United States,US,Level 3 Communications,33.6748,-117.9089,"eNom, Incorporated",8.5.1.51,CA,California,success,America/Los_Angeles,92626
defconradio.org,AS10913 Internap Network Services Corporation,Washington,United States,US,Internap Network Services Corporation,38.8951,-77.0364,Internap Network Services Corporation,74.217.87.107,DC,District of Columbia,success,America/New_York,20068
defconrd.com,"AS26496 GoDaddy.com, LLC",Scottsdale,United States,US,"GoDaddy.com, LLC",33.6119,-111.8906,"GoDaddy.com, LLC",107.180.46.143,AZ,Arizona,success,America/Phoenix,85260
defconrecordings.com,AS20738 Host Europe GmbH,Bishop's Stortford,United Kingdom,GB,Host Europe GmbH,51.9475,0.1355,Host Europe GmbH,46.32.240.33,ENG,England,success,Europe/London,CM23
defconrecords.com,"AS14618 Amazon.com, Inc.",Ashburn,United States,US,Amazon.com,39.0481,-77.4728,Amazon.com,54.85.127.70,VA,Virginia,success,America/New_York,20149
defconrecruitment.com,"AS14618 Amazon.com, Inc.",Ashburn,United States,US,Amazon.com,39.0481,-77.4728,Amazon.com,54.85.127.70,VA,Virginia,success,America/New_York,20149
defconrepeater.org,"AS23367 Genesis Adaptive, INC.",Elk Grove Village,United States,US,Genesis Adaptive,42.0152,-87.9901,Genesis Adaptive,64.250.115.156,IL,Illinois,success,America/Chicago,60007
defconroasters.com,"AS16509 Amazon.com, Inc.",Dublin,Ireland,IE,Amazon.com,53.3389,-6.2595,Amazon.com,54.72.130.67,L,Leinster,success,Europe/Dublin,
defconrock.com,AS9371 SAKURA Internet Inc.,Osaka,Japan,JP,XServer,34.6864,135.52,XServer,120.136.10.4,27,Ōsaka,success,Asia/Tokyo,540-0008
defconroofing.com,"AS26496 GoDaddy.com, LLC",Scottsdale,United States,US,"GoDaddy.com, LLC",33.6119,-111.8906,"GoDaddy.com, LLC",50.63.202.38,AZ,Arizona,success,America/Phoenix,85260
defconrsps.com,AS20013 CyrusOne LLC,Houston,United States,US,Websitewelcome.com,29.8301,-95.4739,CyrusOne LLC,108.167.172.159,TX,Texas,success,America/Chicago,77092
defconrsps.net,"AS21740 eNom, Incorporated",Kirkland,United States,US,"eNom, Incorporated",47.6727,-122.1873,"eNom, Incorporated",98.124.243.30,WA,Washington,success,America/Los_Angeles,98033
defcons.com,"AS53665 Bodis, LLC",New York,United States,US,"Bodis, LLC",40.7391,-73.9826,"Bodis, LLC",199.59.243.120,NY,New York,success,America/New_York,10010
defconsafe.com,"AS26496 GoDaddy.com, LLC",Scottsdale,United States,US,"GoDaddy.com, LLC",33.6119,-111.8906,"GoDaddy.com, LLC",50.63.202.34,AZ,Arizona,success,America/Phoenix,85260
defconsafes.com,"AS26496 GoDaddy.com, LLC",Scottsdale,United States,US,"GoDaddy.com, LLC",33.6119,-111.8906,"GoDaddy.com, LLC",184.168.221.58,AZ,Arizona,success,America/Phoenix,85260
defconsafes.info,"AS26496 GoDaddy.com, LLC",Scottsdale,United States,US,"GoDaddy.com, LLC",33.6119,-111.8906,"GoDaddy.com, LLC",50.63.202.38,AZ,Arizona,success,America/Phoenix,85260
defconsafes.store,"AS26496 GoDaddy.com, LLC",Scottsdale,United States,US,"GoDaddy.com, LLC",33.6119,-111.8906,"GoDaddy.com, LLC",184.168.221.40,AZ,Arizona,success,America/Phoenix,85260
defconsauce.com,"AS26496 GoDaddy.com, LLC",Scottsdale,United States,US,"GoDaddy.com, LLC",33.6119,-111.8906,"GoDaddy.com, LLC",50.63.202.24,AZ,Arizona,success,America/Phoenix,85260
defconsauces.com,"AS55002 Defense.Net, Inc",Jacksonville,United States,US,"Network Solutions, LLC",30.1438,-81.5401,Defense.Net,206.188.192.101,FL,Florida,success,America/New_York,32258
defconscavhunt.com,"AS26347 New Dream Network, LLC",Fullerton,United States,US,"New Dream Network, LLC",33.8768,-117.8931,"New Dream Network, LLC",75.119.204.217,CA,California,success,America/Los_Angeles,92831
defconsean.com,"AS26496 GoDaddy.com, LLC",Scottsdale,United States,US,"GoDaddy.com, LLC",33.6119,-111.8906,"GoDaddy.com, LLC",184.168.221.36,AZ,Arizona,success,America/Phoenix,85260
defconsec.com,AS26101 Yahoo!,Sunnyvale,United States,US,Yahoo!,37.4249,-122.0074,Yahoo!,98.139.135.129,CA,California,success,America/Los_Angeles,94089
defconsecurities.com,"AS26496 GoDaddy.com, LLC",Scottsdale,United States,US,"GoDaddy.com, LLC",33.6119,-111.8906,"GoDaddy.com, LLC",50.63.202.38,AZ,Arizona,success,America/Phoenix,85260
defconsecuritys.com,AS16276 OVH SAS,Madrid,Spain,ES,OVH Hosting,40.4168,-3.70379,OVH Hosting,188.165.128.109,MD,Madrid,success,Europe/Madrid,
defconseguridad.com,AS3352 Telefonica De Espana,Palma,Spain,ES,Telefonica de Espana,39.5694,2.6502,Telefonica de Espana,195.57.58.70,IB,Balearic Islands,success,Europe/Madrid,07003
defconseries.com,"AS209 Qwest Communications Company, LLC",Vashon,United States,US,CenturyLink,47.4206,-122.4509,CenturyLink,98.125.223.228,WA,Washington,success,America/Los_Angeles,98070
defconservers.com,"AS14618 Amazon.com, Inc.",Ashburn,United States,US,Amazon.com,39.0481,-77.4728,Amazon.com,52.204.129.22,VA,Virginia,success,America/New_York,20149
defconservices.com,"AS29873 The Endurance International Group, Inc.",Burlington,United States,US,The Endurance International Group,42.5051,-71.2047,The Endurance International Group,66.96.149.18,MA,Massachusetts,success,America/New_York,01803
defconshop.com,AS15699 OGIC Informatica S.L.,Madrid,Spain,ES,Adam ecoTECH S.A.,40.4167,-3.6838,Adam ecoTECH S.A.,37.46.74.133,MD,Madrid,success,Europe/Madrid,28001
defconsix.com,"AS26496 GoDaddy.com, LLC",Scottsdale,United States,US,"GoDaddy.com, LLC",33.6119,-111.8906,"GoDaddy.com, LLC",184.168.221.41,AZ,Arizona,success,America/Phoenix,85260
defconsoftware.com,AS32592 HuntTel,George Town,Cayman Islands,KY,DirectNIC,19.3443,-81.381,HuntTel,74.117.221.22,,George Town,success,America/Cayman,
defconsolar.com,"AS19867 Voodoo.com, Inc",Tampa,United States,US,Voodoo.com,28.0043,-82.546,Voodoo.com,192.64.147.177,FL,Florida,success,America/New_York,33634
defconsolutions.com,AS20013 CyrusOne LLC,Houston,United States,US,Websitewelcome.com,29.8301,-95.4739,CyrusOne LLC,192.185.13.140,TX,Texas,success,America/Chicago,77092
defconsoundsystem.com,AS26415 VeriSign Global Registry Services,Kirkland,United States,US,"eNom, Incorporated",47.6727,-122.1873,VeriSign Global Registry Services,98.124.199.51,WA,Washington,success,America/Los_Angeles,98033
defconsports.com,AS36351 SoftLayer Technologies Inc.,Houston,United States,US,ThePlanet.com Internet Services,29.7702,-95.3628,ThePlanet.com Internet Services,70.85.232.2,TX,Texas,success,America/Chicago,77002
defconstantvalue.cricket,AS33070 Rackspace Ltd.,San Antonio,United States,US,Rackspace Hosting,29.4889,-98.3987,Rackspace Cloud Servers,104.239.142.234,TX,Texas,success,America/Chicago,78218
defconstrutora.com,"AS46261 QuickPacket, LLC",Alpharetta,United States,US,"QuickPacket, LLC",34.133,-84.3005,"QuickPacket, LLC",107.161.126.242,GA,Georgia,success,America/New_York,30004
defconstudio.com,AS12876 Online S.a.s.,Haarlem,Netherlands,NL,ONLINE SAS,52.3613,4.6464,Online SAS Nl,51.15.41.123,NH,North Holland,success,Europe/Amsterdam,2034
defconstudios.com,AS24992 Online Wolf & Co. KG,Vienna,Austria,AT,DIC - Online Wolf & Co. KG,48.192,16.3671,DIC - Online Wolf & Co. KG,81.16.104.139,9,Vienna,success,Europe/Vienna,1040
defconsult.com,AS20013 CyrusOne LLC,Houston,United States,US,Websitewelcome.com,29.8301,-95.4739,CyrusOne LLC,192.185.197.170,TX,Texas,success,America/Chicago,77092
defconsulting.com,AS40034 Confluence Networks Inc,Thalwil,Switzerland,CH,Rook Media GmbH,47.2839,8.56491,Rook Media GmbH,141.8.230.20,ZH,Zurich,success,Europe/Zurich,
defconsuperthad.com,"AS26496 GoDaddy.com, LLC",Scottsdale,United States,US,"GoDaddy.com, LLC",33.6119,-111.8906,"GoDaddy.com, LLC",198.71.232.3,AZ,Arizona,success,America/Phoenix,85260
defconsupply.com,"AS36024 Colo4, LLC",Los Angeles,United States,US,Athenix,34.0494,-118.2641,"Colo4, LLC",143.95.243.197,CA,California,success,America/Los_Angeles,90014
defconsupply.net,"AS26496 GoDaddy.com, LLC",Scottsdale,United States,US,"GoDaddy.com, LLC",33.6119,-111.8906,"GoDaddy.com, LLC",198.71.232.3,AZ,Arizona,success,America/Phoenix,85260
defconsupport.com,AS36351 SoftLayer Technologies Inc.,Seattle,United States,US,SoftLayer Technologies,47.6062,-122.3321,SoftLayer Technologies,50.22.171.195,WA,Washington,success,America/Los_Angeles,98111
defconsupps.net,"AS32475 SingleHop, Inc.",Chicago (Loop),United States,US,GetClouder EOOD,41.8695,-87.6272,SingleHop,77.104.162.121,,Illinois,success,America/Chicago,
defconsurvival.com,"AS26496 GoDaddy.com, LLC",Scottsdale,United States,US,"GoDaddy.com, LLC",33.6119,-111.8906,"GoDaddy.com, LLC",97.74.42.79,AZ,Arizona,success,America/Phoenix,85260
defconsys.net,"AS32787 Akamai Technologies, Inc.",Cambridge,United States,US,Akamai Technologies,42.3626,-71.0843,Akamai Technologies,72.52.4.119,MA,Massachusetts,success,America/New_York,02142
defconsystems.com,AS45638 SYNERGY WHOLESALE PTY LTD,Narre Warren,Australia,AU,Synergy Wholesale Pty,-38.0263,145.3069,Synergy Wholesale Pty,43.241.54.246,VIC,Victoria,success,Australia/Melbourne,3805
defconsystems.net,"AS26496 GoDaddy.com, LLC",Scottsdale,United States,US,"GoDaddy.com, LLC",33.6119,-111.8906,"GoDaddy.com, LLC",184.168.221.37,AZ,Arizona,success,America/Phoenix,85260
defconsystems.org,"AS26496 GoDaddy.com, LLC",Scottsdale,United States,US,"GoDaddy.com, LLC",33.6119,-111.8906,"GoDaddy.com, LLC",184.168.221.40,AZ,Arizona,success,America/Phoenix,85260
defconsystemshosting.com,AS45638 SYNERGY WHOLESALE PTY LTD,Narre Warren,Australia,AU,Synergy Wholesale Pty,-38.0263,145.3069,Synergy Wholesale Pty,43.241.54.246,VIC,Victoria,success,Australia/Melbourne,3805
defconsystmes.com,"AS26496 GoDaddy.com, LLC",Scottsdale,United States,US,"GoDaddy.com, LLC",33.6119,-111.8906,"GoDaddy.com, LLC",184.168.221.36,AZ,Arizona,success,America/Phoenix,85260
defconsystmes.net,"AS26496 GoDaddy.com, LLC",Scottsdale,United States,US,"GoDaddy.com, LLC",33.6119,-111.8906,"GoDaddy.com, LLC",184.168.221.38,AZ,Arizona,success,America/Phoenix,85260
defconsystmes.org,"AS26496 GoDaddy.com, LLC",Scottsdale,United States,US,"GoDaddy.com, LLC",33.6119,-111.8906,"Mega International Investment Trust Co., Ltd.",184.168.221.35,AZ,Arizona,success,America/Phoenix,85260
defconsz.org,AS24446 NetRegistry Pty Ltd.,Ultimo,Australia,AU,Netregistry Pty Ltd,-33.8699,151.2025,Netregistry Pty Ltd,202.124.241.178,NSW,New South Wales,success,Australia/Sydney,2007
defcont.com,AS56534 Comfortel Ltd.,Saint Petersburg,Russia,RU,Comfortel Ltd.,59.8944,30.2642,Comfortel Ltd.,185.47.55.59,SPE,St.-Petersburg,success,Europe/Moscow,190005
defcontac.com,"AS29873 The Endurance International Group, Inc.",Burlington,United States,US,The Endurance International Group,42.5051,-71.2047,The Endurance International Group,66.96.149.32,MA,Massachusetts,success,America/New_York,01803
defcontact.com,"AS26496 GoDaddy.com, LLC",Scottsdale,United States,US,"GoDaddy.com, LLC",33.6119,-111.8906,"GoDaddy.com, LLC",198.71.232.3,AZ,Arizona,success,America/Phoenix,85260
defcontactical.com,"AS14618 Amazon.com, Inc.",Ashburn,United States,US,Amazon.com,39.0481,-77.4728,Amazon.com,52.204.129.22,VA,Virginia,success,America/New_York,20149
defconteam.com,AS40034 Confluence Networks Inc,Road Town,British Virgin Islands,VG,Confluence Networks,18.4167,-64.6167,Confluence Networks,208.91.197.7,,,success,America/Tortola,
defcontec.com,"AS26496 GoDaddy.com, LLC",Scottsdale,United States,US,"GoDaddy.com, LLC",33.6119,-111.8906,"GoDaddy.com, LLC",50.63.202.2,AZ,Arizona,success,America/Phoenix,85260
defcontech.com,"AS14618 Amazon.com, Inc.",Ashburn,United States,US,Amazon.com,39.0481,-77.4728,Amazon.com,52.204.129.22,VA,Virginia,success,America/New_York,20149
defcontechnologies.com,"AS26496 GoDaddy.com, LLC",Scottsdale,United States,US,"GoDaddy.com, LLC",33.6119,-111.8906,"GoDaddy.com, LLC",184.168.221.96,AZ,Arizona,success,America/Phoenix,85260
defcontent.com,"AS26496 GoDaddy.com, LLC",Scottsdale,United States,US,"GoDaddy.com, LLC",33.6119,-111.8906,"GoDaddy.com, LLC",184.168.221.43,AZ,Arizona,success,America/Phoenix,85260
defconthree.com,"AS26496 GoDaddy.com, LLC",Scottsdale,United States,US,"GoDaddy.com, LLC",33.6119,-111.8906,"GoDaddy.com, LLC",184.168.221.96,AZ,Arizona,success,America/Phoenix,85260
defcontijuana.org,"AS26496 GoDaddy.com, LLC",Scottsdale,United States,US,"GoDaddy.com, LLC",33.6119,-111.8906,"GoDaddy.com, LLC",72.167.232.35,AZ,Arizona,success,America/Phoenix,85260
defcontimes.com,"AS26496 GoDaddy.com, LLC",Scottsdale,United States,US,"GoDaddy.com, LLC",33.6119,-111.8906,"GoDaddy.com, LLC",50.62.88.95,AZ,Arizona,success,America/Phoenix,85260
defcontools.com,AS19975 CASCADELINK INC,Seattle,United States,US,Cascadelink,47.5716,-122.3327,Cascadelink,162.222.171.222,WA,Washington,success,America/Los_Angeles,98134
defcontools.org,AS19975 CASCADELINK INC,Seattle,United States,US,Cascadelink,47.5716,-122.3327,Cascadelink,162.222.171.222,WA,Washington,success,America/Los_Angeles,98134
defcontotaldefense.com,"AS14618 Amazon.com, Inc.",Ashburn,United States,US,Amazon.com,39.0481,-77.4728,Amazon.com,52.21.34.242,VA,Virginia,success,America/New_York,20149
defcontotaldefense.net,"AS14618 Amazon.com, Inc.",Ashburn,United States,US,Amazon.com,39.0481,-77.4728,Amazon.com,54.210.134.115,VA,Virginia,success,America/New_York,20149
defcontotaldefense.org,"AS22612 Namecheap, Inc.",Los Angeles,United States,US,Namecheap,34.0355,-118.4298,Namecheap,162.255.119.248,CA,California,success,America/Los_Angeles,90064
defcontracker.com,"AS26496 GoDaddy.com, LLC",Scottsdale,United States,US,"GoDaddy.com, LLC",33.6119,-111.8906,"GoDaddy.com, LLC",50.63.202.41,AZ,Arizona,success,America/Phoenix,85260
defcontracker.net,"AS26496 GoDaddy.com, LLC",Scottsdale,United States,US,"GoDaddy.com, LLC",33.6119,-111.8906,"GoDaddy.com, LLC",50.63.202.61,AZ,Arizona,success,America/Phoenix,85260
defcontract.com,"AS16371 acens Technologies, S.L.",Alcorcón,Spain,ES,"acens Technologies, S.L.",40.3458,-3.8249,"acens Technologies, S.L.",82.194.84.73,MD,Madrid,success,Europe/Madrid,28921
defcontracting.com,AS197902 Hostnet B.V.,Amsterdam (Haarlemmerbuurt),Netherlands,NL,Hostnet B.V.,52.3823,4.89515,Hostnet BV Network Operations,91.184.27.212,,North Holland,success,Europe/Amsterdam,
defcontractorequip.com,"AS26496 GoDaddy.com, LLC",Scottsdale,United States,US,"GoDaddy.com, LLC",33.6119,-111.8906,"GoDaddy.com, LLC",50.63.202.58,AZ,Arizona,success,America/Phoenix,85260
defcontraining.com,AS40034 Confluence Networks Inc,Freienbach (Pfäffikon),Switzerland,CH,Rook Media GmbH,47.2016,8.77734,Rook Media GmbH,141.8.224.169,,Zurich,success,Europe/Zurich,
defcontrainingok.com,"AS26496 GoDaddy.com, LLC",Scottsdale,United States,US,"GoDaddy.com, LLC",33.6119,-111.8906,"GoDaddy.com, LLC",198.71.232.3,AZ,Arizona,success,America/Phoenix,85260
defcontrol.com,AS24940 Hetzner Online GmbH,Nuremberg,Germany,DE,Hetzner Online GmbH,49.4478,11.0683,Hetzner Online AG,78.46.99.82,BY,Bavaria,success,Europe/Berlin,90409
defcontrol-music.com,AS34788 Neue Medien Muennich GmbH,Ebersbach,Germany,DE,Neue Medien Muennich GmbH,51.0167,14.5833,Neue Medien Muennich GmbH,85.13.146.121,SN,Saxony,success,Europe/Berlin,02730
defcontrump.com,AS20013 CyrusOne LLC,Houston,United States,US,Websitewelcome.com,29.8301,-95.4739,CyrusOne LLC,192.185.16.204,TX,Texas,success,America/Chicago,77092
defconturk.org,"AS33182 HostDime.com, Inc.",Orlando,United States,US,HostDime.com,28.5887,-81.1893,HostDime.com,67.23.253.90,FL,Florida,success,America/New_York,32826
defcontv.org,AS32748 Steadfast,Chicago,United States,US,Steadfast,41.8745,-87.6503,Steadfast,69.162.183.61,IL,Illinois,success,America/Chicago,60607
defcontwelve.com,AS60781 LeaseWeb Netherlands B.V.,Amsterdam,Netherlands,NL,LeaseWeb Netherlands B.V.,52.3702,4.89517,LeaseWeb Netherlands B.V.,37.48.96.225,NH,North Holland,success,Europe/Amsterdam,
defcontwo.com,"AS26496 GoDaddy.com, LLC",Scottsdale,United States,US,"GoDaddy.com, LLC",33.6119,-111.8906,"GoDaddy.com, LLC",50.63.202.47,AZ,Arizona,success,America/Phoenix,85260
defconuk.com,AS50056 Ai Networks Limited,Stevenage,United Kingdom,GB,Ai Networks Limited,51.9022,-0.2026,Ai Networks Limited,94.126.40.154,ENG,England,success,Europe/London,SG1
defconunlimited.com,AS34788 Neue Medien Muennich GmbH,Ebersbach,Germany,DE,Neue Medien Muennich GmbH,51.0167,14.5833,Neue Medien Muennich GmbH,85.13.153.93,SN,Saxony,success,Europe/Berlin,02730
defconusa.com,"AS14618 Amazon.com, Inc.",Ashburn,United States,US,Amazon.com,39.0481,-77.4728,Amazon.com,52.204.129.22,VA,Virginia,success,America/New_York,20149
defconv.com,"AS26496 GoDaddy.com, LLC",Scottsdale,United States,US,"GoDaddy.com, LLC",33.6119,-111.8906,"GoDaddy.com, LLC",50.63.202.37,AZ,Arizona,success,America/Phoenix,85260
defconvalues.com,"AS26496 GoDaddy.com, LLC",Scottsdale,United States,US,"GoDaddy.com, LLC",33.6119,-111.8906,"GoDaddy.com, LLC",184.168.221.50,AZ,Arizona,success,America/Phoenix,85260
defconvault.com,"AS26496 GoDaddy.com, LLC",Scottsdale,United States,US,"GoDaddy.com, LLC",33.6119,-111.8906,"GoDaddy.com, LLC",50.63.202.33,AZ,Arizona,success,America/Phoenix,85260
defconvendors.com,"AS26496 GoDaddy.com, LLC",Scottsdale,United States,US,"GoDaddy.com, LLC",33.6119,-111.8906,"GoDaddy.com, LLC",198.71.232.3,AZ,Arizona,success,America/Phoenix,85260
defconvendors.org,"AS26496 GoDaddy.com, LLC",Scottsdale,United States,US,"GoDaddy.com, LLC",33.6119,-111.8906,"GoDaddy.com, LLC",50.63.202.44,AZ,Arizona,success,America/Phoenix,85260
defconvision.com,AS8560 1&1 Internet SE,Beebe,United States,US,1&1 Internet AG,35.1144,-91.9067,1&1 Internet AG,74.208.215.229,AR,Arkansas,success,America/Chicago,72012
defconvodka.com,"AS26496 GoDaddy.com, LLC",Scottsdale,United States,US,"GoDaddy.com, LLC",33.6119,-111.8906,"GoDaddy.com, LLC",50.63.202.56,AZ,Arizona,success,America/Phoenix,85260
defconvr.com,"AS53665 Bodis, LLC",New York,United States,US,"Bodis, LLC",40.7391,-73.9826,"Bodis, LLC",199.59.243.120,NY,New York,success,America/New_York,10010
defconwarningssystem.com,AS40034 Confluence Networks Inc,Freienbach (Pfäffikon),Switzerland,CH,Rook Media GmbH,47.2016,8.77734,Rook Media GmbH,141.8.224.169,,Zurich,success,Europe/Zurich,
defconwarningsystem.com,AS13335 CloudFlare,San Francisco,United States,US,CloudFlare,37.7697,-122.3933,CloudFlare,104.31.76.173,CA,California,success,America/Los_Angeles,94107
defconwarningsystems.com,AS27257 Webair Internet Development Company Inc.,Garden City,United States,US,Webair Internet Development Company,40.7276,-73.6344,Webair Internet Development Company,213.247.47.190,NY,New York,success,America/New_York,11530
defconwarningsytem.com,AS40034 Confluence Networks Inc,Freienbach (Pfäffikon),Switzerland,CH,Rook Media GmbH,47.2016,8.77734,Rook Media GmbH,141.8.224.93,,Zurich,success,Europe/Zurich,
defconwatch.com,AS46606 Unified Layer,Orem,United States,US,Unified Layer,40.2968,-111.6761,Unified Layer,74.220.199.6,UT,Utah,success,America/Denver,84097
defconweaponry.com,AS44136 ODERLAND Webbhotell AB,Gothenburg (Inom Vallgraven),Sweden,SE,ODERLAND Webbhotell AB,57.7051,11.9694,ODERLAND Webbhotell AB,91.201.63.120,,Västra Götaland,success,Europe/Stockholm,
defconwingsauce.com,"AS26496 GoDaddy.com, LLC",Scottsdale,United States,US,"GoDaddy.com, LLC",33.6119,-111.8906,"GoDaddy.com, LLC",184.168.221.14,AZ,Arizona,success,America/Phoenix,85260
defconwis.com,"AS26496 GoDaddy.com, LLC",Scottsdale,United States,US,"GoDaddy.com, LLC",33.6119,-111.8906,"GoDaddy.com, LLC",184.168.221.51,AZ,Arizona,success,America/Phoenix,85260
defconwis.net,AS10010 TOKAI Communications Corporation,Chiyoda-ku,Japan,JP,TOKAI,35.694,139.754,TOKAI,202.208.210.195,13,Tōkyō,success,Asia/Tokyo,
defconwives.com,AS19994 Rackspace Ltd.,San Antonio,United States,US,Rackspace Hosting,29.4889,-98.3987,Rackspace Cloud Servers,184.106.203.26,TX,Texas,success,America/Chicago,78218
defconwives.net,AS19994 Rackspace Ltd.,San Antonio,United States,US,Rackspace Hosting,29.4889,-98.3987,Rackspace Cloud Servers,184.106.203.26,TX,Texas,success,America/Chicago,78218
defconwives.org,AS19994 Rackspace Ltd.,San Antonio,United States,US,Rackspace Hosting,29.4889,-98.3987,Rackspace Cloud Servers,184.106.203.26,TX,Texas,success,America/Chicago,78218
defconwives.info,AS19994 Rackspace Ltd.,San Antonio,United States,US,Rackspace Hosting,29.4889,-98.3987,Rackspace Cloud Servers,184.106.203.26,TX,Texas,success,America/Chicago,78218
defconwiz.com,"AS26496 GoDaddy.com, LLC",Scottsdale,United States,US,"GoDaddy.com, LLC",33.6119,-111.8906,"GoDaddy.com, LLC",184.168.221.58,AZ,Arizona,success,America/Phoenix,85260
defconworst.com,AS46606 Unified Layer,Orem,United States,US,Unified Layer,40.2968,-111.6761,Unified Layer,74.220.199.6,UT,Utah,success,America/Denver,84097
defconx.com,"AS22612 Namecheap, Inc.",Los Angeles,United States,US,Namecheap,34.0355,-118.4298,Namecheap,198.54.116.210,CA,California,success,America/Los_Angeles,90064
defconx.net,"AS14618 Amazon.com, Inc.",Ashburn,United States,US,Amazon.com,39.0481,-77.4728,Amazon.com,75.101.155.171,VA,Virginia,success,America/New_York,20149
defconxmusic.com,"AS14618 Amazon.com, Inc.",Ashburn,United States,US,Amazon.com,39.0481,-77.4728,Amazon.com,75.101.155.171,VA,Virginia,success,America/New_York,20149
defconz.com,"AS29873 The Endurance International Group, Inc.",Burlington,United States,US,The Endurance International Group,42.5051,-71.2047,The Endurance International Group,66.96.149.32,MA,Massachusetts,success,America/New_York,01803
defconzero.com,AS19324 Dosarrest Internet Security LTD,New York,United States,US,Cogeco Peer 1,40.6888,-74.0203,Dosarrest Internet Security,69.172.201.153,NY,New York,success,America/New_York,10004
defconzero.net,AS8560 1&1 Internet SE,Karlsruhe,Germany,DE,1&1 Internet AG,49.0047,8.3858,1&1 Internet AG,217.160.122.118,BW,Baden-Württemberg Region,success,Europe/Berlin,76228
defconzombie.com,"AS26496 GoDaddy.com, LLC",Scottsdale,United States,US,"GoDaddy.com, LLC",33.6119,-111.8906,"GoDaddy.com, LLC",50.63.202.34,AZ,Arizona,success,America/Phoenix,85260
