Domain,as,city,country,countryCode,isp,lat,lon,org,query,region,regionName,status,timezone,zip
veteransunited.com,"AS17338 AOScloud, LLC.",Lee's Summit,United States,US,"AOScloud, LLC.",38.9159,-94.3644,"AOScloud, LLC.",68.66.7.12,MO,Missouri,success,America/Chicago,64063
veteransunited.net,"AS26496 GoDaddy.com, LLC",Scottsdale,United States,US,"GoDaddy.com, LLC",33.6119,-111.8906,"GoDaddy.com, LLC",50.63.202.20,AZ,Arizona,success,America/Phoenix,85260
veteransunited.org,"AS26496 GoDaddy.com, LLC",Scottsdale,United States,US,"GoDaddy.com, LLC",33.6119,-111.8906,"GoDaddy.com, LLC",50.63.202.25,AZ,Arizona,success,America/Phoenix,85260
veteransunited.biz,"AS26496 GoDaddy.com, LLC",Scottsdale,United States,US,"GoDaddy.com, LLC",33.6119,-111.8906,"GoDaddy.com, LLC",184.168.221.49,AZ,Arizona,success,America/Phoenix,85260
veteransunited.info,"AS26496 GoDaddy.com, LLC",Scottsdale,United States,US,"GoDaddy.com, LLC",33.6119,-111.8906,"GoDaddy.com, LLC",50.63.202.33,AZ,Arizona,success,America/Phoenix,85260
veteransunited.mobi,"AS26496 GoDaddy.com, LLC",Scottsdale,United States,US,"GoDaddy.com, LLC",33.6119,-111.8906,"GoDaddy.com, LLC",184.168.221.38,AZ,Arizona,success,America/Phoenix,85260
veteransunited.club,AS36351 SoftLayer Technologies Inc.,Houston,United States,US,SoftLayer Technologies,29.7702,-95.3628,SoftLayer Technologies,173.193.105.246,TX,Texas,success,America/Chicago,77002
veteransunited.xyz,"AS26496 GoDaddy.com, LLC",Scottsdale,United States,US,"GoDaddy.com, LLC",33.6119,-111.8906,"GoDaddy.com, LLC",50.63.202.33,AZ,Arizona,success,America/Phoenix,85260
veteransunited.space,AS36351 SoftLayer Technologies Inc.,Houston,United States,US,SoftLayer Technologies,29.7702,-95.3628,SoftLayer Technologies,173.193.105.242,TX,Texas,success,America/Chicago,77002
veteransunited.pro,AS20401 Hostway Corporation,Chicago,United States,US,Hostway Corporation,41.8824,-87.6376,Hostway Corporation,66.113.136.119,IL,Illinois,success,America/Chicago,60606
veteransunited.top,AS36351 SoftLayer Technologies Inc.,Houston,United States,US,SoftLayer Technologies,29.7702,-95.3628,SoftLayer Technologies,173.193.105.245,TX,Texas,success,America/Chicago,77002
veteransunited.mortgage,"AS26496 GoDaddy.com, LLC",Scottsdale,United States,US,"GoDaddy.com, LLC",33.6119,-111.8906,"GoDaddy.com, LLC",184.168.221.59,AZ,Arizona,success,America/Phoenix,85260
veteransunited.realty,AS19324 Dosarrest Internet Security LTD,New York,United States,US,Cogeco Peer 1,40.6888,-74.0203,Dosarrest Internet Security,69.172.201.153,NY,New York,success,America/New_York,10004
veteransunitedagainstthenra.com,"AS53831 Squarespace, Inc.",Coopersburg,United States,US,Squarespace,40.5021,-75.3765,Squarespace,198.185.159.144,PA,Pennsylvania,success,America/New_York,18036
veteransunitedamp.com,AS20013 CyrusOne LLC,Houston,United States,US,Websitewelcome.com,29.8301,-95.4739,CyrusOne LLC,108.167.140.138,TX,Texas,success,America/Chicago,77092
veteransunitedamphitheater.com,"AS26496 GoDaddy.com, LLC",Scottsdale,United States,US,"GoDaddy.com, LLC",33.6119,-111.8906,"GoDaddy.com, LLC",50.63.202.34,AZ,Arizona,success,America/Phoenix,85260
veteransunitedamphitheater.net,"AS26496 GoDaddy.com, LLC",Scottsdale,United States,US,"GoDaddy.com, LLC",33.6119,-111.8906,"GoDaddy.com, LLC",184.168.221.60,AZ,Arizona,success,America/Phoenix,85260
veteransunitedamphitheater.org,"AS26496 GoDaddy.com, LLC",Scottsdale,United States,US,"GoDaddy.com, LLC",33.6119,-111.8906,"GoDaddy.com, LLC",50.63.202.46,AZ,Arizona,success,America/Phoenix,85260
veteransunitedamphitheater.info,"AS26496 GoDaddy.com, LLC",Scottsdale,United States,US,"GoDaddy.com, LLC",33.6119,-111.8906,"GoDaddy.com, LLC",184.168.221.48,AZ,Arizona,success,America/Phoenix,85260
veteransunitedaugusta.com,"AS26496 GoDaddy.com, LLC",Scottsdale,United States,US,"GoDaddy.com, LLC",33.6119,-111.8906,"GoDaddy.com, LLC",184.168.221.23,AZ,Arizona,success,America/Phoenix,85260
veteransunitedaugusta.net,"AS26496 GoDaddy.com, LLC",Scottsdale,United States,US,"GoDaddy.com, LLC",33.6119,-111.8906,"GoDaddy.com, LLC",184.168.221.29,AZ,Arizona,success,America/Phoenix,85260
veteransunitedaustin.com,"AS26496 GoDaddy.com, LLC",Scottsdale,United States,US,"GoDaddy.com, LLC",33.6119,-111.8906,"GoDaddy.com, LLC",184.168.221.31,AZ,Arizona,success,America/Phoenix,85260
veteransunitedaustin.net,"AS26496 GoDaddy.com, LLC",Scottsdale,United States,US,"GoDaddy.com, LLC",33.6119,-111.8906,"GoDaddy.com, LLC",184.168.221.19,AZ,Arizona,success,America/Phoenix,85260
veteransunitedauto.com,"AS26496 GoDaddy.com, LLC",Scottsdale,United States,US,"GoDaddy.com, LLC",33.6119,-111.8906,"GoDaddy.com, LLC",50.63.202.13,AZ,Arizona,success,America/Phoenix,85260
veteransunitedbank.com,"AS26496 GoDaddy.com, LLC",Scottsdale,United States,US,"GoDaddy.com, LLC",33.6119,-111.8906,"GoDaddy.com, LLC",50.63.202.41,AZ,Arizona,success,America/Phoenix,85260
veteransunitedbankcenter.com,"AS26496 GoDaddy.com, LLC",Scottsdale,United States,US,"GoDaddy.com, LLC",33.6119,-111.8906,"GoDaddy.com, LLC",50.63.202.40,AZ,Arizona,success,America/Phoenix,85260
veteransunitedbankcentre.com,"AS26496 GoDaddy.com, LLC",Scottsdale,United States,US,"GoDaddy.com, LLC",33.6119,-111.8906,"GoDaddy.com, LLC",50.63.202.59,AZ,Arizona,success,America/Phoenix,85260
veteransunitedbrewery.com,"AS40630 GridFury, LLC",Lake Mary,United States,US,"GridFury, LLC",28.7578,-81.3397,"GridFury, LLC",208.94.116.71,FL,Florida,success,America/New_York,32746
veteransunitedbrokerage.com,"AS26496 GoDaddy.com, LLC",Scottsdale,United States,US,"GoDaddy.com, LLC",33.6119,-111.8906,"GoDaddy.com, LLC",184.168.221.57,AZ,Arizona,success,America/Phoenix,85260
veteransunitedcareers.com,"AS26496 GoDaddy.com, LLC",Scottsdale,United States,US,"GoDaddy.com, LLC",33.6119,-111.8906,"GoDaddy.com, LLC",184.168.221.30,AZ,Arizona,success,America/Phoenix,85260
veteransunitedclarksville.com,"AS26496 GoDaddy.com, LLC",Scottsdale,United States,US,"GoDaddy.com, LLC",33.6119,-111.8906,"GoDaddy.com, LLC",184.168.221.11,AZ,Arizona,success,America/Phoenix,85260
veteransunitedcmc.com,AS15169 Google Inc.,Mountain View,United States,US,Google Cloud,37.386,-122.0838,Google Cloud,23.236.62.147,CA,California,success,America/Los_Angeles,94035
veteransunitedcolorado.com,"AS26496 GoDaddy.com, LLC",Scottsdale,United States,US,"GoDaddy.com, LLC",33.6119,-111.8906,"GoDaddy.com, LLC",50.63.202.20,AZ,Arizona,success,America/Phoenix,85260
veteransunitedcomplaint.com,"AS26496 GoDaddy.com, LLC",Scottsdale,United States,US,"GoDaddy.com, LLC",33.6119,-111.8906,"GoDaddy.com, LLC",50.63.202.40,AZ,Arizona,success,America/Phoenix,85260
veteransunitedcomplaints.com,"AS26496 GoDaddy.com, LLC",Scottsdale,United States,US,"GoDaddy.com, LLC",33.6119,-111.8906,"GoDaddy.com, LLC",50.63.202.32,AZ,Arizona,success,America/Phoenix,85260
veteransuniteddiscounts.com,"AS26496 GoDaddy.com, LLC",Scottsdale,United States,US,"GoDaddy.com, LLC",33.6119,-111.8906,"GoDaddy.com, LLC",184.168.221.42,AZ,Arizona,success,America/Phoenix,85260
veteransunitedenterprise.com,"AS26496 GoDaddy.com, LLC",Scottsdale,United States,US,"GoDaddy.com, LLC",33.6119,-111.8906,"GoDaddy.com, LLC",184.168.221.6,AZ,Arizona,success,America/Phoenix,85260
veteransunitedexpress.com,"AS26496 GoDaddy.com, LLC",Scottsdale,United States,US,"GoDaddy.com, LLC",33.6119,-111.8906,"GoDaddy.com, LLC",50.63.202.39,AZ,Arizona,success,America/Phoenix,85260
veteransunitedfans.com,"AS26496 GoDaddy.com, LLC",Scottsdale,United States,US,"GoDaddy.com, LLC",33.6119,-111.8906,"GoDaddy.com, LLC",184.168.221.39,AZ,Arizona,success,America/Phoenix,85260
veteransunitedfinancial.com,"AS26496 GoDaddy.com, LLC",Scottsdale,United States,US,"GoDaddy.com, LLC",33.6119,-111.8906,"GoDaddy.com, LLC",50.63.202.42,AZ,Arizona,success,America/Phoenix,85260
veteransunitedfl.com,"AS26496 GoDaddy.com, LLC",Scottsdale,United States,US,"GoDaddy.com, LLC",33.6119,-111.8906,"GoDaddy.com, LLC",198.71.232.3,AZ,Arizona,success,America/Phoenix,85260
veteransunitedforacause.com,"AS26496 GoDaddy.com, LLC",Scottsdale,United States,US,"GoDaddy.com, LLC",33.6119,-111.8906,"GoDaddy.com, LLC",184.168.221.36,AZ,Arizona,success,America/Phoenix,85260
veteransunitedforacause.net,"AS26496 GoDaddy.com, LLC",Scottsdale,United States,US,"GoDaddy.com, LLC",33.6119,-111.8906,"GoDaddy.com, LLC",184.168.221.41,AZ,Arizona,success,America/Phoenix,85260
veteransunitedforacause.org,"AS26496 GoDaddy.com, LLC",Scottsdale,United States,US,"GoDaddy.com, LLC",33.6119,-111.8906,"GoDaddy.com, LLC",184.168.221.48,AZ,Arizona,success,America/Phoenix,85260
veteransunitedforjustice.com,"AS26496 GoDaddy.com, LLC",Scottsdale,United States,US,"GoDaddy.com, LLC",33.6119,-111.8906,"GoDaddy.com, LLC",72.167.191.69,AZ,Arizona,success,America/Phoenix,85260
veteransunitedfortruth.org,"AS29873 The Endurance International Group, Inc.",Burlington,United States,US,The Endurance International Group,42.5051,-71.2047,The Endurance International Group,66.96.149.32,MA,Massachusetts,success,America/New_York,01803
veteransunitedforveterans.org,AS20013 CyrusOne LLC,Houston,United States,US,Websitewelcome.com,29.8301,-95.4739,CyrusOne LLC,192.185.155.43,TX,Texas,success,America/Chicago,77092
veteransunitedfoundation.com,"AS26496 GoDaddy.com, LLC",Scottsdale,United States,US,"GoDaddy.com, LLC",33.6119,-111.8906,"GoDaddy.com, LLC",50.63.202.41,AZ,Arizona,success,America/Phoenix,85260
veteransunitedfoundation.org,"AS26496 GoDaddy.com, LLC",Scottsdale,United States,US,"GoDaddy.com, LLC",33.6119,-111.8906,"GoDaddy.com, LLC",184.168.221.59,AZ,Arizona,success,America/Phoenix,85260
veteransunitedftbragg.com,"AS26496 GoDaddy.com, LLC",Scottsdale,United States,US,"GoDaddy.com, LLC",33.6119,-111.8906,"GoDaddy.com, LLC",184.168.221.43,AZ,Arizona,success,America/Phoenix,85260
veteransunitedftknox.com,"AS26496 GoDaddy.com, LLC",Scottsdale,United States,US,"GoDaddy.com, LLC",33.6119,-111.8906,"GoDaddy.com, LLC",50.63.202.28,AZ,Arizona,success,America/Phoenix,85260
veteransunitedftleonardwood.com,"AS26496 GoDaddy.com, LLC",Scottsdale,United States,US,"GoDaddy.com, LLC",33.6119,-111.8906,"GoDaddy.com, LLC",184.168.221.23,AZ,Arizona,success,America/Phoenix,85260
veteransunitedftrucker.com,"AS26496 GoDaddy.com, LLC",Scottsdale,United States,US,"GoDaddy.com, LLC",33.6119,-111.8906,"GoDaddy.com, LLC",50.63.202.22,AZ,Arizona,success,America/Phoenix,85260
veteransunitedftsill.com,"AS26496 GoDaddy.com, LLC",Scottsdale,United States,US,"GoDaddy.com, LLC",33.6119,-111.8906,"GoDaddy.com, LLC",50.63.202.18,AZ,Arizona,success,America/Phoenix,85260
veteransunitedhamptonroads.com,"AS26496 GoDaddy.com, LLC",Scottsdale,United States,US,"GoDaddy.com, LLC",33.6119,-111.8906,"GoDaddy.com, LLC",184.168.221.16,AZ,Arizona,success,America/Phoenix,85260
veteransunitedhawaii.com,"AS26496 GoDaddy.com, LLC",Scottsdale,United States,US,"GoDaddy.com, LLC",33.6119,-111.8906,"GoDaddy.com, LLC",184.168.221.2,AZ,Arizona,success,America/Phoenix,85260
veteransunitedhealth.com,"AS26496 GoDaddy.com, LLC",Scottsdale,United States,US,"GoDaddy.com, LLC",33.6119,-111.8906,"GoDaddy.com, LLC",50.63.202.39,AZ,Arizona,success,America/Phoenix,85260
veteransunitedhi.com,"AS26496 GoDaddy.com, LLC",Scottsdale,United States,US,"GoDaddy.com, LLC",33.6119,-111.8906,"GoDaddy.com, LLC",50.63.202.11,AZ,Arizona,success,America/Phoenix,85260
veteransunitedhinesville.com,"AS26496 GoDaddy.com, LLC",Scottsdale,United States,US,"GoDaddy.com, LLC",33.6119,-111.8906,"GoDaddy.com, LLC",50.63.202.30,AZ,Arizona,success,America/Phoenix,85260
veteransunitedhomeloans.com,"AS26496 GoDaddy.com, LLC",Scottsdale,United States,US,"GoDaddy.com, LLC",33.6119,-111.8906,"GoDaddy.com, LLC",184.168.221.18,AZ,Arizona,success,America/Phoenix,85260
veteransunitedhomeloansamphitheater.com,"AS26496 GoDaddy.com, LLC",Scottsdale,United States,US,"GoDaddy.com, LLC",33.6119,-111.8906,"GoDaddy.com, LLC",50.63.202.60,AZ,Arizona,success,America/Phoenix,85260
veteransunitedhomeloansamphitheater.net,"AS26496 GoDaddy.com, LLC",Scottsdale,United States,US,"GoDaddy.com, LLC",33.6119,-111.8906,"GoDaddy.com, LLC",50.63.202.59,AZ,Arizona,success,America/Phoenix,85260
veteransunitedhomeloansamphitheater.org,"AS26496 GoDaddy.com, LLC",Scottsdale,United States,US,"GoDaddy.com, LLC",33.6119,-111.8906,"GoDaddy.com, LLC",184.168.221.45,AZ,Arizona,success,America/Phoenix,85260
veteransunitedhomeloansamphitheater.info,"AS26496 GoDaddy.com, LLC",Scottsdale,United States,US,"GoDaddy.com, LLC",33.6119,-111.8906,"GoDaddy.com, LLC",50.63.202.44,AZ,Arizona,success,America/Phoenix,85260
veteransunitedhomeloansamphitheateratvirginiabeach.com,"AS26496 GoDaddy.com, LLC",Scottsdale,United States,US,"GoDaddy.com, LLC",33.6119,-111.8906,"GoDaddy.com, LLC",50.63.202.44,AZ,Arizona,success,America/Phoenix,85260
veteransunitedhomeloansamphitheateratvirginiabeach.net,"AS26496 GoDaddy.com, LLC",Scottsdale,United States,US,"GoDaddy.com, LLC",33.6119,-111.8906,"GoDaddy.com, LLC",50.63.202.45,AZ,Arizona,success,America/Phoenix,85260
veteransunitedhomeloansamphitheateratvirginiabeach.org,"AS26496 GoDaddy.com, LLC",Scottsdale,United States,US,"GoDaddy.com, LLC",33.6119,-111.8906,"GoDaddy.com, LLC",184.168.221.50,AZ,Arizona,success,America/Phoenix,85260
veteransunitedhomeloansamphitheateratvirginiabeach.info,"AS26496 GoDaddy.com, LLC",Scottsdale,United States,US,"GoDaddy.com, LLC",33.6119,-111.8906,"GoDaddy.com, LLC",50.63.202.55,AZ,Arizona,success,America/Phoenix,85260
veteransunitedhomeloansclarksville.com,"AS26496 GoDaddy.com, LLC",Scottsdale,United States,US,"GoDaddy.com, LLC",33.6119,-111.8906,"GoDaddy.com, LLC",184.168.221.7,AZ,Arizona,success,America/Phoenix,85260
veteransunitedhomeloansfortcampbell.com,"AS26496 GoDaddy.com, LLC",Scottsdale,United States,US,"GoDaddy.com, LLC",33.6119,-111.8906,"GoDaddy.com, LLC",184.168.221.8,AZ,Arizona,success,America/Phoenix,85260
veteransunitedhomes.com,"AS26496 GoDaddy.com, LLC",Scottsdale,United States,US,"GoDaddy.com, LLC",33.6119,-111.8906,"GoDaddy.com, LLC",184.168.221.17,AZ,Arizona,success,America/Phoenix,85260
veteransunitedidaho.com,"AS26496 GoDaddy.com, LLC",Scottsdale,United States,US,"GoDaddy.com, LLC",33.6119,-111.8906,"GoDaddy.com, LLC",184.168.221.24,AZ,Arizona,success,America/Phoenix,85260
veteransunitedinc.com,"AS26496 GoDaddy.com, LLC",Scottsdale,United States,US,"GoDaddy.com, LLC",33.6119,-111.8906,"GoDaddy.com, LLC",184.168.221.57,AZ,Arizona,success,America/Phoenix,85260
veteransunitedinsurance.com,"AS26496 GoDaddy.com, LLC",Scottsdale,United States,US,"GoDaddy.com, LLC",33.6119,-111.8906,"GoDaddy.com, LLC",50.63.202.40,AZ,Arizona,success,America/Phoenix,85260
veteransunitedinvestments.com,"AS26496 GoDaddy.com, LLC",Scottsdale,United States,US,"GoDaddy.com, LLC",33.6119,-111.8906,"GoDaddy.com, LLC",184.168.221.59,AZ,Arizona,success,America/Phoenix,85260
veteransunitedjacksonville.com,"AS26496 GoDaddy.com, LLC",Scottsdale,United States,US,"GoDaddy.com, LLC",33.6119,-111.8906,"GoDaddy.com, LLC",50.63.202.1,AZ,Arizona,success,America/Phoenix,85260
veteransunitedjobs.com,"AS26496 GoDaddy.com, LLC",Scottsdale,United States,US,"GoDaddy.com, LLC",33.6119,-111.8906,"GoDaddy.com, LLC",50.63.202.59,AZ,Arizona,success,America/Phoenix,85260
veteransunitedkansas.com,"AS14618 Amazon.com, Inc.",Ashburn,United States,US,Amazon.com,39.0481,-77.4728,Amazon.com,54.209.116.251,VA,Virginia,success,America/New_York,20149
veteransunitedkindness.com,"AS26496 GoDaddy.com, LLC",Scottsdale,United States,US,"GoDaddy.com, LLC",33.6119,-111.8906,"GoDaddy.com, LLC",50.63.202.40,AZ,Arizona,success,America/Phoenix,85260
veteransunitedlawton.com,"AS26496 GoDaddy.com, LLC",Scottsdale,United States,US,"GoDaddy.com, LLC",33.6119,-111.8906,"GoDaddy.com, LLC",184.168.221.9,AZ,Arizona,success,America/Phoenix,85260
veteransunitedloans.com,"AS26496 GoDaddy.com, LLC",Scottsdale,United States,US,"GoDaddy.com, LLC",33.6119,-111.8906,"GoDaddy.com, LLC",50.63.202.56,AZ,Arizona,success,America/Phoenix,85260
veteransunitedmarch.net,"AS26496 GoDaddy.com, LLC",Scottsdale,United States,US,"GoDaddy.com, LLC",33.6119,-111.8906,"GoDaddy.com, LLC",184.168.221.58,AZ,Arizona,success,America/Phoenix,85260
veteransunitedmarch.org,"AS26496 GoDaddy.com, LLC",Scottsdale,United States,US,"GoDaddy.com, LLC",33.6119,-111.8906,"GoDaddy.com, LLC",50.63.202.43,AZ,Arizona,success,America/Phoenix,85260
veteransunitedmod.com,"AS26496 GoDaddy.com, LLC",Scottsdale,United States,US,"GoDaddy.com, LLC",33.6119,-111.8906,"GoDaddy.com, LLC",50.63.202.14,AZ,Arizona,success,America/Phoenix,85260
veteransunitedmortage.com,"AS26496 GoDaddy.com, LLC",Scottsdale,United States,US,"GoDaddy.com, LLC",33.6119,-111.8906,"GoDaddy.com, LLC",50.63.202.42,AZ,Arizona,success,America/Phoenix,85260
veteransunitedmortgage.com,"AS26496 GoDaddy.com, LLC",Scottsdale,United States,US,"GoDaddy.com, LLC",33.6119,-111.8906,"GoDaddy.com, LLC",184.168.221.56,AZ,Arizona,success,America/Phoenix,85260
veteransunitedmortgages.com,"AS26496 GoDaddy.com, LLC",Scottsdale,United States,US,"GoDaddy.com, LLC",33.6119,-111.8906,"GoDaddy.com, LLC",184.168.221.33,AZ,Arizona,success,America/Phoenix,85260
veteransunitedmountainhome.com,"AS26496 GoDaddy.com, LLC",Scottsdale,United States,US,"GoDaddy.com, LLC",33.6119,-111.8906,"GoDaddy.com, LLC",184.168.221.49,AZ,Arizona,success,America/Phoenix,85260
veteransunitednationalbank.com,"AS26496 GoDaddy.com, LLC",Scottsdale,United States,US,"GoDaddy.com, LLC",33.6119,-111.8906,"GoDaddy.com, LLC",50.63.202.58,AZ,Arizona,success,America/Phoenix,85260
veteransunitednebraska.com,"AS26496 GoDaddy.com, LLC",Scottsdale,United States,US,"GoDaddy.com, LLC",33.6119,-111.8906,"GoDaddy.com, LLC",50.63.202.32,AZ,Arizona,success,America/Phoenix,85260
veteransunitednetwork.com,"AS26496 GoDaddy.com, LLC",Scottsdale,United States,US,"GoDaddy.com, LLC",33.6119,-111.8906,"GoDaddy.com, LLC",50.63.202.35,AZ,Arizona,success,America/Phoenix,85260
veteransunitednorfolk.com,"AS26496 GoDaddy.com, LLC",Scottsdale,United States,US,"GoDaddy.com, LLC",33.6119,-111.8906,"GoDaddy.com, LLC",184.168.221.3,AZ,Arizona,success,America/Phoenix,85260
veteransunitedofamerica.org,AS19324 Dosarrest Internet Security LTD,New York,United States,US,Cogeco Peer 1,40.6888,-74.0203,Dosarrest Internet Security,69.172.201.153,NY,New York,success,America/New_York,10004
veteransunitedomaha.com,"AS26496 GoDaddy.com, LLC",Scottsdale,United States,US,"GoDaddy.com, LLC",33.6119,-111.8906,"GoDaddy.com, LLC",184.168.221.16,AZ,Arizona,success,America/Phoenix,85260
veteransunitedoramerica.com,"AS26496 GoDaddy.com, LLC",Scottsdale,United States,US,"GoDaddy.com, LLC",33.6119,-111.8906,"GoDaddy.com, LLC",184.168.221.58,AZ,Arizona,success,America/Phoenix,85260
veteransunitedoramerica.net,"AS26496 GoDaddy.com, LLC",Scottsdale,United States,US,"GoDaddy.com, LLC",33.6119,-111.8906,"GoDaddy.com, LLC",50.63.202.55,AZ,Arizona,success,America/Phoenix,85260
veteransunitedoramerica.org,"AS26496 GoDaddy.com, LLC",Scottsdale,United States,US,"GoDaddy.com, LLC",33.6119,-111.8906,"GoDaddy.com, LLC",50.63.202.62,AZ,Arizona,success,America/Phoenix,85260
veteransunitedoutreach.com,"AS27647 Weebly, Inc.",San Francisco,United States,US,Weebly,37.7697,-122.3933,Weebly,199.34.228.59,CA,California,success,America/Los_Angeles,94107
veteransunitedprotest.com,"AS26496 GoDaddy.com, LLC",Scottsdale,United States,US,"GoDaddy.com, LLC",33.6119,-111.8906,"GoDaddy.com, LLC",184.168.221.52,AZ,Arizona,success,America/Phoenix,85260
veteransunitedprotest.net,"AS26496 GoDaddy.com, LLC",Scottsdale,United States,US,"GoDaddy.com, LLC",33.6119,-111.8906,"GoDaddy.com, LLC",50.63.202.41,AZ,Arizona,success,America/Phoenix,85260
veteransunitedprotest.org,"AS26496 GoDaddy.com, LLC",Scottsdale,United States,US,"GoDaddy.com, LLC",33.6119,-111.8906,"GoDaddy.com, LLC",184.168.221.55,AZ,Arizona,success,America/Phoenix,85260
veteransunitedpugetsound.com,"AS26496 GoDaddy.com, LLC",Scottsdale,United States,US,"GoDaddy.com, LLC",33.6119,-111.8906,"GoDaddy.com, LLC",184.168.221.21,AZ,Arizona,success,America/Phoenix,85260
veteransunitedrapidcity.com,"AS26496 GoDaddy.com, LLC",Scottsdale,United States,US,"GoDaddy.com, LLC",33.6119,-111.8906,"GoDaddy.com, LLC",50.63.202.17,AZ,Arizona,success,America/Phoenix,85260
veteransunitedrealestate.com,"AS26496 GoDaddy.com, LLC",Scottsdale,United States,US,"GoDaddy.com, LLC",33.6119,-111.8906,"GoDaddy.com, LLC",184.168.221.62,AZ,Arizona,success,America/Phoenix,85260
veteransunitedrealtors.com,AS15169 Google Inc.,Mountain View,United States,US,Google Cloud,37.386,-122.0838,Google Cloud,23.236.62.147,CA,California,success,America/Los_Angeles,94035
veteransunitedrealty.com,"AS26496 GoDaddy.com, LLC",Scottsdale,United States,US,"GoDaddy.com, LLC",33.6119,-111.8906,"GoDaddy.com, LLC",50.63.202.6,AZ,Arizona,success,America/Phoenix,85260
veteransunitedrealtyagents.com,"AS26496 GoDaddy.com, LLC",Scottsdale,United States,US,"GoDaddy.com, LLC",33.6119,-111.8906,"GoDaddy.com, LLC",50.63.202.56,AZ,Arizona,success,America/Phoenix,85260
veteransunitedrealtynetwork.com,"AS26496 GoDaddy.com, LLC",Scottsdale,United States,US,"GoDaddy.com, LLC",33.6119,-111.8906,"GoDaddy.com, LLC",184.168.221.40,AZ,Arizona,success,America/Phoenix,85260
veteransunitedreview.com,"AS26496 GoDaddy.com, LLC",Scottsdale,United States,US,"GoDaddy.com, LLC",33.6119,-111.8906,"GoDaddy.com, LLC",50.63.202.33,AZ,Arizona,success,America/Phoenix,85260
veteransunitedreviews.com,"AS26496 GoDaddy.com, LLC",Scottsdale,United States,US,"GoDaddy.com, LLC",33.6119,-111.8906,"GoDaddy.com, LLC",184.168.221.16,AZ,Arizona,success,America/Phoenix,85260
veteransunitedrichmond.com,"AS26496 GoDaddy.com, LLC",Scottsdale,United States,US,"GoDaddy.com, LLC",33.6119,-111.8906,"GoDaddy.com, LLC",184.168.221.3,AZ,Arizona,success,America/Phoenix,85260
veteransunitedsafb.com,"AS26496 GoDaddy.com, LLC",Scottsdale,United States,US,"GoDaddy.com, LLC",33.6119,-111.8906,"GoDaddy.com, LLC",50.63.202.10,AZ,Arizona,success,America/Phoenix,85260
veteransunitedsanantonio.com,"AS26496 GoDaddy.com, LLC",Scottsdale,United States,US,"GoDaddy.com, LLC",33.6119,-111.8906,"GoDaddy.com, LLC",50.63.202.7,AZ,Arizona,success,America/Phoenix,85260
veteransunitedsanantonio.net,"AS26496 GoDaddy.com, LLC",Scottsdale,United States,US,"GoDaddy.com, LLC",33.6119,-111.8906,"GoDaddy.com, LLC",184.168.221.21,AZ,Arizona,success,America/Phoenix,85260
veteransunitedsandiego.com,"AS26496 GoDaddy.com, LLC",Scottsdale,United States,US,"GoDaddy.com, LLC",33.6119,-111.8906,"GoDaddy.com, LLC",50.63.202.21,AZ,Arizona,success,America/Phoenix,85260
veteransunitedsavannah.com,"AS26496 GoDaddy.com, LLC",Scottsdale,United States,US,"GoDaddy.com, LLC",33.6119,-111.8906,"GoDaddy.com, LLC",184.168.221.16,AZ,Arizona,success,America/Phoenix,85260
veteransunitedscam.com,"AS26496 GoDaddy.com, LLC",Scottsdale,United States,US,"GoDaddy.com, LLC",33.6119,-111.8906,"GoDaddy.com, LLC",184.168.221.52,AZ,Arizona,success,America/Phoenix,85260
veteransunitedscams.com,"AS26496 GoDaddy.com, LLC",Scottsdale,United States,US,"GoDaddy.com, LLC",33.6119,-111.8906,"GoDaddy.com, LLC",50.63.202.63,AZ,Arizona,success,America/Phoenix,85260
veteransunitedseminar.com,"AS26496 GoDaddy.com, LLC",Scottsdale,United States,US,"GoDaddy.com, LLC",33.6119,-111.8906,"GoDaddy.com, LLC",184.168.221.15,AZ,Arizona,success,America/Phoenix,85260
veteransunitedsouthcarolina.com,"AS26496 GoDaddy.com, LLC",Scottsdale,United States,US,"GoDaddy.com, LLC",33.6119,-111.8906,"GoDaddy.com, LLC",50.63.202.24,AZ,Arizona,success,America/Phoenix,85260
veteransunitedstlouis.com,"AS26496 GoDaddy.com, LLC",Scottsdale,United States,US,"GoDaddy.com, LLC",33.6119,-111.8906,"GoDaddy.com, LLC",50.63.202.4,AZ,Arizona,success,America/Phoenix,85260
veteransunitedstrobert.com,"AS26496 GoDaddy.com, LLC",Scottsdale,United States,US,"GoDaddy.com, LLC",33.6119,-111.8906,"GoDaddy.com, LLC",50.63.202.25,AZ,Arizona,success,America/Phoenix,85260
veteransunitedsucks.com,"AS26496 GoDaddy.com, LLC",Scottsdale,United States,US,"GoDaddy.com, LLC",33.6119,-111.8906,"Mega International Investment Trust Co., Ltd.",184.168.221.35,AZ,Arizona,success,America/Phoenix,85260
veteransunitedtacoma.com,"AS26496 GoDaddy.com, LLC",Scottsdale,United States,US,"GoDaddy.com, LLC",33.6119,-111.8906,"GoDaddy.com, LLC",50.63.202.2,AZ,Arizona,success,America/Phoenix,85260
veteransunitedtampa.com,"AS26496 GoDaddy.com, LLC",Scottsdale,United States,US,"GoDaddy.com, LLC",33.6119,-111.8906,"GoDaddy.com, LLC",50.63.202.14,AZ,Arizona,success,America/Phoenix,85260
veteransunitedtexas.com,"AS26496 GoDaddy.com, LLC",Scottsdale,United States,US,"GoDaddy.com, LLC",33.6119,-111.8906,"GoDaddy.com, LLC",50.63.202.24,AZ,Arizona,success,America/Phoenix,85260
veteransunitedtravel.com,"AS26496 GoDaddy.com, LLC",Scottsdale,United States,US,"GoDaddy.com, LLC",33.6119,-111.8906,"GoDaddy.com, LLC",50.63.202.53,AZ,Arizona,success,America/Phoenix,85260
veteransunitedtx.com,"AS26496 GoDaddy.com, LLC",Scottsdale,United States,US,"GoDaddy.com, LLC",33.6119,-111.8906,"GoDaddy.com, LLC",184.168.221.1,AZ,Arizona,success,America/Phoenix,85260
veteransunitedus.com,"AS26496 GoDaddy.com, LLC",Scottsdale,United States,US,"GoDaddy.com, LLC",33.6119,-111.8906,"GoDaddy.com, LLC",50.63.202.34,AZ,Arizona,success,America/Phoenix,85260
veteransunitedus.net,"AS26496 GoDaddy.com, LLC",Scottsdale,United States,US,"GoDaddy.com, LLC",33.6119,-111.8906,"GoDaddy.com, LLC",184.168.221.36,AZ,Arizona,success,America/Phoenix,85260
veteransunitedus.org,"AS26496 GoDaddy.com, LLC",Scottsdale,United States,US,"GoDaddy.com, LLC",33.6119,-111.8906,"GoDaddy.com, LLC",50.63.202.36,AZ,Arizona,success,America/Phoenix,85260
veteransunitedusa.com,"AS26496 GoDaddy.com, LLC",Scottsdale,United States,US,"GoDaddy.com, LLC",33.6119,-111.8906,"GoDaddy.com, LLC",50.63.202.47,AZ,Arizona,success,America/Phoenix,85260
veteransunitedusa.net,"AS26496 GoDaddy.com, LLC",Scottsdale,United States,US,"GoDaddy.com, LLC",33.6119,-111.8906,"GoDaddy.com, LLC",184.168.221.37,AZ,Arizona,success,America/Phoenix,85260
veteransunitedusa.org,"AS26496 GoDaddy.com, LLC",Scottsdale,United States,US,"GoDaddy.com, LLC",33.6119,-111.8906,"GoDaddy.com, LLC",184.168.221.58,AZ,Arizona,success,America/Phoenix,85260
veteransunitedutah.com,"AS26496 GoDaddy.com, LLC",Scottsdale,United States,US,"GoDaddy.com, LLC",33.6119,-111.8906,"GoDaddy.com, LLC",50.63.202.43,AZ,Arizona,success,America/Phoenix,85260
veteransunitedvaloan.com,"AS26496 GoDaddy.com, LLC",Scottsdale,United States,US,"GoDaddy.com, LLC",33.6119,-111.8906,"GoDaddy.com, LLC",50.63.202.1,AZ,Arizona,success,America/Phoenix,85260
veteransunitedvaloans.com,"AS26496 GoDaddy.com, LLC",Scottsdale,United States,US,"GoDaddy.com, LLC",33.6119,-111.8906,"GoDaddy.com, LLC",184.168.221.29,AZ,Arizona,success,America/Phoenix,85260
